,name,categories,address,crossStreet,lat,lng,labeledLatLngs,distance,cc,city,state,country,formattedAddress,postalCode,neighborhood,id,point name
0,9/11 Memorial North Pool,Memorial Site,West St,at Fulton St,40.71207726282092,-74.01318669319153,"[{'label': 'display', 'lat': 40.71207726282092, 'lng': -74.01318669319153}]",104,US,New York,NY,United States,"['West St (at Fulton St)', 'New York, NY', 'United States']",,,58801864cc5b6a14dedce689,One World Trade Center
1,Battery Park City Esplanade,Park,Battery Park City,From Chambers St to Battery Park,40.71162184551406,-74.01790738105774,"[{'label': 'display', 'lat': 40.71162184551406, 'lng': -74.01790738105774}]",428,US,New York,NY,United States,"['Battery Park City (From Chambers St to Battery Park)', 'New York, NY 10280', 'United States']",10280,,4c1164576e5dc9b69506b02d,One World Trade Center
2,Nelson A. Rockefeller Park,Park,North end of Battery Park City & West of River Terrace,at Warren  St,40.717501368742596,-74.01648044586182,"[{'label': 'display', 'lat': 40.717501368742596, 'lng': -74.01648044586182}]",571,US,New York,NY,United States,"['North end of Battery Park City & West of River Terrace (at Warren  St)', 'New York, NY 10280', 'United States']",10280,,4b929790f964a5209a0734e3,One World Trade Center
3,Washington Market Park,Playground,Greenwich St,at Reade St,40.71704598853704,-74.01109457015991,"[{'label': 'display', 'lat': 40.71704598853704, 'lng': -74.01109457015991}]",481,US,New York,NY,United States,"['Greenwich St (at Reade St)', 'New York, NY', 'United States']",,,4a9bcc2ff964a5203b3520e3,One World Trade Center
4,The Bar Room at Temple Court,Hotel Bar,123 Nassau St,,40.7114477287544,-74.00680157032005,"[{'label': 'display', 'lat': 40.7114477287544, 'lng': -74.00680157032005}]",565,US,New York,NY,United States,"['123 Nassau St', 'New York, NY 10038', 'United States']",10038,Financial District,57f0689d498e7d49d9189369,One World Trade Center
5,Pier 25 - Hudson River Park,Park,West Side Highway,at N Moore St,40.72019260471762,-74.01295032920208,"[{'label': 'display', 'lat': 40.72019260471762, 'lng': -74.01295032920208}]",798,US,New York,NY,United States,"['West Side Highway (at N Moore St)', 'New York, NY 10013', 'United States']",10013,,4ba0e4e3f964a520498537e3,One World Trade Center
6,Aire Ancient Baths,Spa,88 Franklin St,at Church St,40.718141411641234,-74.00494121234846,"[{'label': 'display', 'lat': 40.718141411641234, 'lng': -74.00494121234846}, {'label': 'entrance', 'lat': 40.718134, 'lng': -74.004846}]",899,US,New York,NY,United States,"['88 Franklin St (at Church St)', 'New York, NY 10013', 'United States']",10013,,4fbbd9ede4b0756c0d4c2364,One World Trade Center
7,Pier 25 Beach Volleyball,Volleyball Court,West St,at N Moore St,40.72037995010057,-74.01486039161682,"[{'label': 'display', 'lat': 40.72037995010057, 'lng': -74.01486039161682}]",831,US,New York,NY,United States,"['West St (at N Moore St)', 'New York, NY 10013', 'United States']",10013,,4d98c6e8e07ea35d6a52fa02,One World Trade Center
8,Crown Shy,Restaurant,70 Pine St,,40.70618693053086,-74.00749011603791,"[{'label': 'display', 'lat': 40.70618693053086, 'lng': -74.00749011603791}]",899,US,New York,NY,United States,"['70 Pine St', 'New York, NY 10005', 'United States']",10005,,5c883f65f4b525002c0bf2ca,One World Trade Center
9,Pier 26 - Hudson River Park,Park,West St,at Beach St,40.72094711352765,-74.0129479765892,"[{'label': 'display', 'lat': 40.72094711352765, 'lng': -74.0129479765892}]",882,US,New York,NY,United States,"['West St (at Beach St)', 'New York, NY 10013', 'United States']",10013,,4ba0e528f964a5205c8537e3,One World Trade Center
10,The Rooftop @ Pier 17,Music Venue,89 South St,,40.70546283217086,-74.00159777553358,"[{'label': 'display', 'lat': 40.70546283217086, 'lng': -74.00159777553358}]",1289,US,New York,NY,United States,"['89 South St', 'New York, NY 10038', 'United States']",10038,,5b4fc2b467af3a002c9ab00f,One World Trade Center
11,Brooklyn Bridge,Bridge,Brooklyn Bridge,,40.70596749893083,-73.99670720100403,"[{'label': 'display', 'lat': 40.70596749893083, 'lng': -73.99670720100403}]",1596,US,New York,NY,United States,"['Brooklyn Bridge', 'New York, NY 10038', 'United States']",10038,,4a43bcb7f964a520bba61fe3,One World Trade Center
12,La Compagnie des Vins Surnaturels,Wine Bar,249 Centre St,at Broome St,40.720447943059405,-73.9979693380989,"[{'label': 'display', 'lat': 40.720447943059405, 'lng': -73.9979693380989}, {'label': 'entrance', 'lat': 40.720488, 'lng': -73.998079}]",1526,US,New York,NY,United States,"['249 Centre St (at Broome St)', 'New York, NY 10013', 'United States']",10013,,53506fd9498ebca706a7c170,One World Trade Center
13,Brooklyn Bridge Park,Park,Furman St,Plymouth St,40.702282,-73.996456,"[{'label': 'display', 'lat': 40.702282, 'lng': -73.996456}]",1849,US,Brooklyn,NY,United States,"['Furman St (Plymouth St)', 'Brooklyn, NY 11201', 'United States']",11201,"DUMBO, Brooklyn, NY",430d0a00f964a5203e271fe3,One World Trade Center
14,Thai Diner,Thai Restaurant,186 Mott St,at Kenmare,40.720739,-73.995631,"[{'label': 'display', 'lat': 40.720739, 'lng': -73.995631}]",1711,US,New York,NY,United States,"['186 Mott St (at Kenmare)', 'New York, NY 10012', 'United States']",10012,,5e46e2ec5791a10008c55728,One World Trade Center
15,Stick With Me,Chocolate Shop,202 Mott St Frnt A,btwn Kenmare St & Spring St,40.721304,-73.995474,"[{'label': 'display', 'lat': 40.721304, 'lng': -73.995474}]",1755,US,New York,NY,United States,"['202 Mott St Frnt A (btwn Kenmare St & Spring St)', 'New York, NY 10012', 'United States']",10012,,546232fb498e6f99835ec2c2,One World Trade Center
16,Elizabeth Street Garden,Garden,209 Elizabeth St,btwn Prince & Spring St,40.72213773713652,-73.99474431471144,"[{'label': 'display', 'lat': 40.72213773713652, 'lng': -73.99474431471144}]",1857,US,New York,NY,United States,"['209 Elizabeth St (btwn Prince & Spring St)', 'New York, NY 10012', 'United States']",10012,,4a9032caf964a5207b1620e3,One World Trade Center
17,Raku,Udon Restaurant,48 Macdougal St,King and Macdougal,40.727404193363725,-74.0026963722485,"[{'label': 'display', 'lat': 40.727404193363725, 'lng': -74.0026963722485}, {'label': 'entrance', 'lat': 40.727328, 'lng': -74.002622}]",1829,US,New York,NY,United States,"['48 Macdougal St (King and Macdougal)', 'New York, NY 10012', 'United States']",10012,,5aea422a033693002bf0c1cb,One World Trade Center
18,Wayla,Thai Restaurant,100 Forsyth St,btw Grand & Broome,40.7182908437571,-73.99258397519588,"[{'label': 'display', 'lat': 40.7182908437571, 'lng': -73.99258397519588}]",1834,US,New York,NY,United States,"['100 Forsyth St (btw Grand & Broome)', 'New York, NY 10002', 'United States']",10002,Lower East Side,5cc4e9d0c876c8002c3010cb,One World Trade Center
19,McNally Jackson Books,Bookstore,52 Prince St,btwn Lafayette & Mulberry St,40.72349313279467,-73.99604818258018,"[{'label': 'display', 'lat': 40.72349313279467, 'lng': -73.99604818258018}]",1857,US,New York,NY,United States,"['52 Prince St (btwn Lafayette & Mulberry St)', 'New York, NY 10012', 'United States']",10012,,49e63a33f964a52023641fe3,One World Trade Center
20,citizenM Bowery,Hotel,189 Bowery,at Delancey St,40.720599497806894,-73.99357438087463,"[{'label': 'display', 'lat': 40.720599497806894, 'lng': -73.99357438087463}]",1856,US,New York,NY,United States,"['189 Bowery (at Delancey St)', 'New York, NY 10002', 'United States']",10002,,51050d4e5262d6654ddc83e1,One World Trade Center
21,Ample Hills Creamery,Ice Cream Shop,1 Water St,Old Fulton St,40.70317572971947,-73.9946848154068,"[{'label': 'display', 'lat': 40.70317572971947, 'lng': -73.9946848154068}]",1906,US,Brooklyn,NY,United States,"['1 Water St (Old Fulton St)', 'Brooklyn, NY 11201', 'United States']",11201,,5cfef00ae1f0aa002c1d54ce,One World Trade Center
22,Brooklyn Heights Promenade,Scenic Lookout,Columbia Heights,btwn Remsen & Orange St,40.69846219320118,-73.99670720100403,"[{'label': 'display', 'lat': 40.69846219320118, 'lng': -73.99670720100403}]",2134,US,Brooklyn,NY,United States,"['Columbia Heights (btwn Remsen & Orange St)', 'Brooklyn, NY 11201', 'United States']",11201,,42377700f964a52024201fe3,One World Trade Center
23,Hudson River Greenway Running Path,Trail,Hudson River Greenway,btwn Battery Park & W 72nd St,40.73255155774,-74.01057958602905,"[{'label': 'display', 'lat': 40.73255155774, 'lng': -74.01057958602905}]",2185,US,New York,NY,United States,"['Hudson River Greenway (btwn Battery Park & W 72nd St)', 'New York, NY 10282', 'United States']",10282,,4ed6adfce5fabbd89f617d4f,One World Trade Center
24,Pebble Beach,Beach,Brooklyn Bridge Park Greenway,,40.70432918778119,-73.99026520089504,"[{'label': 'display', 'lat': 40.70432918778119, 'lng': -73.99026520089504}]",2161,US,Brooklyn,NY,United States,"['Brooklyn Bridge Park Greenway', 'Brooklyn, NY 11201', 'United States']",11201,,4fd4ff3ce4b0bd432923a7c7,One World Trade Center
25,Murray's Cheese,Cheese Shop,254 Bleecker St,at Cornelia St,40.73100494148146,-74.00291557226433,"[{'label': 'display', 'lat': 40.73100494148146, 'lng': -74.00291557226433}]",2181,US,New York,NY,United States,"['254 Bleecker St (at Cornelia St)', 'New York, NY 10014', 'United States']",10014,,3fd66200f964a5203ee71ee3,One World Trade Center
26,The Garden at St. Luke in the Fields,Garden,487 Hudson St,at Barrow St,40.731779943709725,-74.00666673502485,"[{'label': 'display', 'lat': 40.731779943709725, 'lng': -74.00666673502485}]",2159,US,New York,NY,United States,"['487 Hudson St (at Barrow St)', 'New York, NY 10014', 'United States']",10014,,4bb76b8146d4a593de6ec7c0,One World Trade Center
27,Brooklyn Bridge Park - Pier 5,Pier,Brooklyn Bridge Pk Greenway,at Joralemon St,40.694918,-74.001686,"[{'label': 'display', 'lat': 40.694918, 'lng': -74.001686}]",2236,US,Brooklyn,NY,United States,"['Brooklyn Bridge Pk Greenway (at Joralemon St)', 'Brooklyn, NY 11201', 'United States']",11201,,4e2b293ee4cd3bc166926781,One World Trade Center
28,Court Street Grocers,Sandwich Place,540 Laguardia Pl,btwn Bleecker & W 3rd St,40.728806,-73.998471,"[{'label': 'display', 'lat': 40.728806, 'lng': -73.998471}, {'label': 'entrance', 'lat': 40.72883, 'lng': -73.998474}]",2151,US,New York,NY,United States,"['540 Laguardia Pl (btwn Bleecker & W 3rd St)', 'New York, NY 10012', 'United States']",10012,,5644c0cf498eda8d003cfa4b,One World Trade Center
29,Comedy Cellar,Comedy Club,117 Macdougal St,btwn Minetta Ln & W 3rd St,40.73012988282376,-74.00040218545217,"[{'label': 'display', 'lat': 40.73012988282376, 'lng': -74.00040218545217}]",2188,US,New York,NY,United States,"['117 Macdougal St (btwn Minetta Ln & W 3rd St)', 'New York, NY 10012', 'United States']",10012,,3fd66200f964a52051e61ee3,One World Trade Center
30,Astor Wines & Spirits,Wine Shop,399 Lafayette St,at E 4th St,40.727984051970246,-73.99304720778368,"[{'label': 'display', 'lat': 40.727984051970246, 'lng': -73.99304720778368}]",2379,US,New York,NY,United States,"['399 Lafayette St (at E 4th St)', 'New York, NY 10003', 'United States']",10003,,49f37c28f964a520a36a1fe3,One World Trade Center
31,Pier 5 Soccer Fields,Soccer Field,Brooklyn Bridge Park,at Joralemon St,40.69448828350183,-74.00111769372403,"[{'label': 'display', 'lat': 40.69448828350183, 'lng': -74.00111769372403}]",2300,US,Brooklyn,NY,United States,"['Brooklyn Bridge Park (at Joralemon St)', 'Brooklyn, NY 10004', 'United States']",10004,,50e35a0ae4b0437c4ed45ae7,One World Trade Center
32,Brooklyn Bridge Park - Pier 6,Pier,Pier 6,at Bridge Park Dr,40.693288713137854,-74.00277972221375,"[{'label': 'display', 'lat': 40.693288713137854, 'lng': -74.00277972221375}]",2365,US,Brooklyn,NY,United States,"['Pier 6 (at Bridge Park Dr)', 'Brooklyn, NY 11201', 'United States']",11201,,4b81eb25f964a52000c430e3,One World Trade Center
33,Comedy Cellar at The Village Underground,Comedy Club,130 W 3rd St,,40.730792222213175,-74.00084635246698,"[{'label': 'display', 'lat': 40.730792222213175, 'lng': -74.00084635246698}]",2235,US,New York,NY,United States,"['130 W 3rd St', 'New York, NY 10012', 'United States']",10012,,51603739e4b0a9d70ee7fe34,One World Trade Center
34,Fish Cheeks,Thai Restaurant,55 Bond St,btwn Lafayette & Bowery St,40.725861003633504,-73.99253343981425,"[{'label': 'display', 'lat': 40.725861003633504, 'lng': -73.99253343981425}]",2253,US,New York,NY,United States,"['55 Bond St (btwn Lafayette & Bowery St)', 'New York, NY 10012', 'United States']",10012,NoHo,57c169e3498e784947e307aa,One World Trade Center
35,Washington Square Park,Park,W 4th St,btwn MacDougal St & University Pl,40.73081579656163,-73.9974582195282,"[{'label': 'display', 'lat': 40.73081579656163, 'lng': -73.9974582195282}]",2384,US,New York,NY,United States,"['W 4th St (btwn MacDougal St & University Pl)', 'New York, NY 10012', 'United States']",10012,,40abf500f964a52035f31ee3,One World Trade Center
36,Hudson River Park,Park,West St,btwn Battery Pl & W 59th St,40.735423194032656,-74.0101672581913,,2506,US,New York,NY,United States,"['West St (btwn Battery Pl & W 59th St)', 'New York, NY 10011', 'United States']",10011,,4b240a1ff964a520b25f24e3,One World Trade Center
37,Dumbo Waterfront (10 Jay Street),Scenic Lookout,10 Jay St,,40.704339927516486,-73.98664919392826,"[{'label': 'display', 'lat': 40.704339927516486, 'lng': -73.98664919392826}]",2438,US,Brooklyn,NY,United States,"['10 Jay St', 'Brooklyn, NY 11201', 'United States']",11201,,4d93502452ed224b932f1aac,One World Trade Center
38,Barry's Bootcamp,Gym / Fitness Center,419 Lafayette St,,40.7289365661847,-73.99224109396116,"[{'label': 'display', 'lat': 40.7289365661847, 'lng': -73.99224109396116}]",2502,US,New York,NY,United States,"['419 Lafayette St', 'New York, NY 10003', 'United States']",10003,,54393961498e8986492d5b67,One World Trade Center
39,Russ & Daughters,Gourmet Shop,179 E Houston St,btwn Allen & Orchard St,40.722753419544574,-73.98822372207833,"[{'label': 'display', 'lat': 40.722753419544574, 'lng': -73.98822372207833}]",2368,US,New York,NY,United States,"['179 E Houston St (btwn Allen & Orchard St)', 'New York, NY 10002', 'United States']",10002,,49b6e8d2f964a52016531fe3,One World Trade Center
40,L'Artusi,Italian Restaurant,228 W 10th St,btwn Bleecker & Hudson St,40.733887817554255,-74.00511448337453,"[{'label': 'display', 'lat': 40.733887817554255, 'lng': -74.00511448337453}, {'label': 'entrance', 'lat': 40.733857, 'lng': -74.005156}]",2420,US,New York,NY,United States,"['228 W 10th St (btwn Bleecker & Hudson St)', 'New York, NY 10014', 'United States']",10014,,4a27289cf964a52062911fe3,One World Trade Center
41,The Public Theater,Theater,425 Lafayette St,btwn Astor Pl & E 4th St,40.72916880904384,-73.99207037967628,"[{'label': 'display', 'lat': 40.72916880904384, 'lng': -73.99207037967628}]",2530,US,New York,NY,United States,"['425 Lafayette St (btwn Astor Pl & E 4th St)', 'New York, NY 10003', 'United States']",10003,,4a07986bf964a52087731fe3,One World Trade Center
42,McNally Jackson Store: Goods for the Study,Stationery Store,50 W 8th St,6th Avenue,40.73323795162194,-73.99873304139692,"[{'label': 'display', 'lat': 40.73323795162194, 'lng': -73.99873304139692}]",2559,US,New York,NY,United States,"['50 W 8th St (6th Avenue)', 'New York, NY 10011', 'United States']",10011,,58557b6b158b966de0f7e137,One World Trade Center
43,Van Leeuwen Ice Cream,Ice Cream Shop,152 W 10th St,at Waverly Pl,40.734397,-74.001271,"[{'label': 'display', 'lat': 40.734397, 'lng': -74.001271}]",2583,US,New York,NY,United States,"['152 W 10th St (at Waverly Pl)', 'New York, NY 10012', 'United States']",10012,,54e7da22498e3dd7390e3136,One World Trade Center
44,Three Lives & Company,Bookstore,154 W 10th St,at Waverly Pl,40.73442736120523,-74.00139223025236,"[{'label': 'display', 'lat': 40.73442736120523, 'lng': -74.00139223025236}, {'label': 'entrance', 'lat': 40.734388, 'lng': -74.001534}]",2582,US,New York,NY,United States,"['154 W 10th St (at Waverly Pl)', 'New York, NY 10014', 'United States']",10014,,4a7cbad7f964a5205fed1fe3,One World Trade Center
45,té (Té Company),Tea Room,163 W 10th St,btwn 7th Ave S & Waverly Pl,40.734537261775436,-74.00182753801346,"[{'label': 'display', 'lat': 40.734537261775436, 'lng': -74.00182753801346}, {'label': 'entrance', 'lat': 40.734479, 'lng': -74.001886}]",2579,US,New York,NY,United States,"['163 W 10th St (btwn 7th Ave S & Waverly Pl)', 'New York, NY 10014', 'United States']",10014,,56292858498e5a271a288948,One World Trade Center
46,4 Charles Prime Rib,Steakhouse,4 Charles St,Greenwich Ave,40.735219495923204,-74.0006488188871,"[{'label': 'display', 'lat': 40.735219495923204, 'lng': -74.0006488188871}, {'label': 'entrance', 'lat': 40.735185, 'lng': -74.000661}]",2687,US,New York,NY,United States,"['4 Charles St (Greenwich Ave)', 'New York, NY 10014', 'United States']",10014,,585164b77220e62219c9aeb6,One World Trade Center
47,Mah-Ze-Dahr Bakery,Bakery,28 Greenwich Ave,Charles Street,40.735117,-74.000052,"[{'label': 'display', 'lat': 40.735117, 'lng': -74.000052}]",2697,US,New York,NY,United States,"['28 Greenwich Ave (Charles Street)', 'New York, NY 10011', 'United States']",10011,,568c0ce238fafac5f5ffe631,One World Trade Center
48,Van Vorst Park,Park,270 Barrow St,btwn Montgomery & York,40.71723969497544,-74.04544321127065,"[{'label': 'display', 'lat': 40.71723969497544, 'lng': -74.04544321127065}, {'label': 'entrance', 'lat': 40.717956, 'lng': -74.046179}]",2762,US,Jersey City,NJ,United States,"['270 Barrow St (btwn Montgomery & York)', 'Jersey City, NJ 07302', 'United States']",07302,,4a5a3bacf964a520f5b91fe3,One World Trade Center
49,Hudson River Waterfront Walkway,Scenic Lookout,Frank Sinatra Dr,,40.736288,-74.025192,"[{'label': 'display', 'lat': 40.736288, 'lng': -74.025192}]",2781,US,Hoboken,NJ,United States,"['Frank Sinatra Dr', 'Hoboken, NJ 07030', 'United States']",07030,,4c61d7fd58810f4770d9051e,One World Trade Center
50,Pier A Park,Park,Sinatra Dr,at 1st St,40.73681963035856,-74.02708053588867,"[{'label': 'display', 'lat': 40.73681963035856, 'lng': -74.02708053588867}]",2897,US,Hoboken,NJ,United States,"['Sinatra Dr (at 1st St)', 'Hoboken, NJ 07030', 'United States']",07030,,49e377baf964a52084621fe3,One World Trade Center
51,Upstate Craft Beer and Oyster Bar,Seafood Restaurant,95 1st Ave,at 6th St,40.726331,-73.986453,"[{'label': 'display', 'lat': 40.726331, 'lng': -73.986453}]",2698,US,New York,NY,United States,"['95 1st Ave (at 6th St)', 'New York, NY 10003', 'United States']",10003,,4e41f0822271a90466a0e967,One World Trade Center
52,The Brant Foundation Art Study Center,Art Gallery,421 E 6th St,,40.726009877430975,-73.98522676126714,"[{'label': 'display', 'lat': 40.726009877430975, 'lng': -73.98522676126714}]",2766,US,New York,NY,United States,"['421 E 6th St', 'New York, NY 10009', 'United States']",10009,,5c7b10fc531593003976d116,One World Trade Center
53,Strand Bookstore,Bookstore,828 Broadway,at E 12th St,40.73314000684355,-73.99091161094675,"[{'label': 'display', 'lat': 40.73314000684355, 'lng': -73.99091161094675}]",2923,US,New York,NY,United States,"['828 Broadway (at E 12th St)', 'New York, NY 10003', 'United States']",10003,,4a8cc1d4f964a520130f20e3,One World Trade Center
54,Torico's Homemade Ice Cream Parlor,Ice Cream Shop,20 Erie St,at First St,40.72175707346482,-74.04422442538089,"[{'label': 'display', 'lat': 40.72175707346482, 'lng': -74.04422442538089}]",2794,US,Jersey City,NJ,United States,"['20 Erie St (at First St)', 'Jersey City, NJ 07302', 'United States']",07302,,49c27c2bf964a520f4551fe3,One World Trade Center
55,Suki Curry,Japanese Restaurant,86 E 7th St,1st Ave,40.72715710327842,-73.9861343187004,"[{'label': 'display', 'lat': 40.72715710327842, 'lng': -73.9861343187004}]",2771,US,New York,NY,United States,"['86 E 7th St (1st Ave)', 'New York, NY 10003', 'United States']",10003,,5b3805910dd31f002409405a,One World Trade Center
56,Soothr,Thai Restaurant,204 E 13th St,3rd Ave,40.732287,-73.987287,"[{'label': 'display', 'lat': 40.732287, 'lng': -73.987287}]",3061,US,New York,NY,United States,"['204 E 13th St (3rd Ave)', 'New York, NY 10003', 'United States']",10003,,5ee66a36459579000887cd2b,One World Trade Center
57,Würstbar,Hot Dog Joint,516 Jersey Ave,Wayne Street & Christopher Columbus Drive,40.720389,-74.046651,"[{'label': 'display', 'lat': 40.720389, 'lng': -74.046651}, {'label': 'entrance', 'lat': 40.720366, 'lng': -74.046692}]",2940,US,Jersey City,NJ,United States,"['516 Jersey Ave (Wayne Street & Christopher Columbus Drive)', 'Jersey City, NJ 07302', 'United States']",07302,,57a10591498e8001a8d905dc,One World Trade Center
58,SoulCycle Brooklyn Heights,Cycle Studio,55 Court St,btwn Joralemon & Livingston St,40.69225331442192,-73.99104239018473,"[{'label': 'display', 'lat': 40.69225331442192, 'lng': -73.99104239018473}]",2972,US,Brooklyn,NY,United States,"['55 Court St (btwn Joralemon & Livingston St)', 'Brooklyn, NY 11201', 'United States']",11201,,54eb522a498e405c83c1f104,One World Trade Center
59,Aux Merveilleux de Fred,Bakery,37 8th Ave,at W 4th St,40.738334,-74.004114,"[{'label': 'display', 'lat': 40.738334, 'lng': -74.004114}, {'label': 'entrance', 'lat': 40.738342, 'lng': -74.004102}]",2919,US,New York,NY,United States,"['37 8th Ave (at W 4th St)', 'New York, NY 10014', 'United States']",10014,,54b1b78e498ee334f9b739be,One World Trade Center
60,Peridance Capezio Center,Dance Studio,126 E 13th St,btwn 3rd & 4th Ave,40.73298682271572,-73.98852241900113,"[{'label': 'display', 'lat': 40.73298682271572, 'lng': -73.98852241900113}]",3044,US,New York,NY,United States,"['126 E 13th St (btwn 3rd & 4th Ave)', 'New York, NY 10003', 'United States']",10003,,4b6cba70f964a520ae4f2ce3,One World Trade Center
61,The Hills,Scenic Lookout,N Craig Rd,,40.68684570463836,-74.0248167514801,"[{'label': 'display', 'lat': 40.68684570463836, 'lng': -74.0248167514801}]",3074,US,New York,NY,United States,"['N Craig Rd', 'New York, NY 10004', 'United States']",10004,,5753157acd109ddf44692c1b,One World Trade Center
62,Juice Vitality,Juice Bar,192 1st Ave,btwn E 11 & 12th St,40.729714154152404,-73.98365020751953,"[{'label': 'display', 'lat': 40.729714154152404, 'lng': -73.98365020751953}]",3108,US,New York,NY,United States,"['192 1st Ave (btwn E 11 & 12th St)', 'New York, NY 10009', 'United States']",10009,,56965f2e498e683a33b43263,One World Trade Center
63,Union Square Greenmarket,Farmers Market,1 Union Sq W,btwn 14th & 17th St,40.736296929163295,-73.9905813271794,,3217,US,New York,NY,United States,"['1 Union Sq W (btwn 14th & 17th St)', 'New York, NY 10003', 'United States']",10003,Union Square,49c27575f964a520f1551fe3,One World Trade Center
64,Hamilton Park,Park,,btwn 8th & 9th St,40.72758398942743,-74.04523372650146,"[{'label': 'display', 'lat': 40.72758398942743, 'lng': -74.04523372650146}]",3153,US,Jersey City,NJ,United States,"['btwn 8th & 9th St', 'Jersey City, NJ 07302', 'United States']",07302,,468518bff964a52032481fe3,One World Trade Center
65,Trader Joe's Wine Shop,Wine Shop,138 E 14th St,btwn Irving Pl & 3rd Ave,40.73374950502162,-73.98812798965065,"[{'label': 'display', 'lat': 40.73374950502162, 'lng': -73.98812798965065}, {'label': 'entrance', 'lat': 40.733559, 'lng': -73.988201}]",3129,US,New York,NY,United States,"['138 E 14th St (btwn Irving Pl & 3rd Ave)', 'New York, NY 10003', 'United States']",10003,,4a319883f964a520fc991fe3,One World Trade Center
66,Los Tacos No. 1,Taco Place,75 9th Ave,,40.74224400629671,-74.00596115738153,"[{'label': 'display', 'lat': 40.74224400629671, 'lng': -74.00596115738153}]",3309,US,New York,NY,United States,"['75 9th Ave', 'New York, NY 10011', 'United States']",10011,Chelsea,5196b9ff498e8a6be4336a03,One World Trade Center
67,Los Mariscos,Seafood Restaurant,409 West 15th St,9th Ave,40.74199972810892,-74.00589003225507,"[{'label': 'display', 'lat': 40.74199972810892, 'lng': -74.00589003225507}, {'label': 'entrance', 'lat': 40.742132, 'lng': -74.005809}]",3284,US,New York,NY,United States,"['409 West 15th St (9th Ave)', 'New York, NY 10011', 'United States']",10011,,57e9590a498e2d323e20c667,One World Trade Center
68,Breads Bakery,Bakery,18 E 16th St,btwn Union Sq W & 5th Ave,40.73661,-73.99181,"[{'label': 'display', 'lat': 40.73661, 'lng': -73.99181}]",3185,US,New York,NY,United States,"['18 E 16th St (btwn Union Sq W & 5th Ave)', 'New York, NY 10003', 'United States']",10003,,503fb6d4ebca66a84f029bd8,One World Trade Center
69,SoulCycle 19th,Cycle Studio,8 W 19th St,btwn 5th & 6th Ave,40.73943353393161,-73.99216844203444,"[{'label': 'display', 'lat': 40.73943353393161, 'lng': -73.99216844203444}, {'label': 'entrance', 'lat': 40.739315, 'lng': -73.992139}]",3433,US,New York,NY,United States,"['8 W 19th St (btwn 5th & 6th Ave)', 'New York, NY 10011', 'United States']",10011,,529f289511d21133dd08a7ec,One World Trade Center
70,The Fhitting Room,Gym,31 W 19th St,btwn 5th & 6th Ave,40.739856864845336,-73.99319384310543,"[{'label': 'display', 'lat': 40.739856864845336, 'lng': -73.99319384310543}, {'label': 'entrance', 'lat': 40.739879, 'lng': -73.993022}]",3430,US,New York,NY,United States,"['31 W 19th St (btwn 5th & 6th Ave)', 'New York, NY 10011', 'United States']",10011,,54cd0dab498e6e5d8a9d7866,One World Trade Center
71,The Bar Method,Gym / Fitness Center,"267 Pacific Street,",Smith,40.688292,-73.990104,"[{'label': 'display', 'lat': 40.688292, 'lng': -73.990104}]",3371,US,Brooklyn,NY,United States,"['267 Pacific Street, (Smith)', 'Brooklyn, NY 11201', 'United States']",11201,,548cbe5a498e646a6e4924fb,One World Trade Center
72,Fishs Eddy,Furniture / Home Store,889 Broadway,btwn E 19th & E 20th St,40.738605357398285,-73.99001680796049,"[{'label': 'display', 'lat': 40.738605357398285, 'lng': -73.99001680796049}, {'label': 'entrance', 'lat': 40.738705, 'lng': -73.990025}]",3454,US,New York,NY,United States,"['889 Broadway (btwn E 19th & E 20th St)', 'New York, NY 10003', 'United States']",10003,,4a5d186ff964a5202bbd1fe3,One World Trade Center
73,Caffè Panna,Ice Cream Shop,77 Irving Pl,,40.736985,-73.98676,"[{'label': 'display', 'lat': 40.736985, 'lng': -73.98676}]",3476,US,New York,NY,United States,"['77 Irving Pl', 'New York, NY 10003', 'United States']",10003,,5d7d70ed72c4090008784186,One World Trade Center
74,High Line 10th Ave Amphitheatre,Scenic Lookout,High Line,10th Ave & W 17th St,40.74398136118615,-74.00684429247669,"[{'label': 'display', 'lat': 40.74398136118615, 'lng': -74.00684429247669}]",3487,US,New York,NY,United States,"['High Line (10th Ave & W 17th St)', 'New York, NY 10011', 'United States']",10011,,4eb1877fd3e36bac670d2898,One World Trade Center
75,East River Running Path,Track,FDR Dr,at Delancey St,40.722409,-73.974076,"[{'label': 'display', 'lat': 40.722409, 'lng': -73.974076}]",3460,US,New York,NY,United States,"['FDR Dr (at Delancey St)', 'New York, NY 10019', 'United States']",10019,,4ca87e7dd971b1f7c8df14e1,One World Trade Center
76,Books Are Magic,Bookstore,225 Smith St,Butler St,40.68414040579443,-73.99213407055058,"[{'label': 'display', 'lat': 40.68414040579443, 'lng': -73.99213407055058}]",3672,US,Brooklyn,NY,United States,"['225 Smith St (Butler St)', 'Brooklyn, NY 11231', 'United States']",11231,,5904b98ceacf4521f010e3c2,One World Trade Center
77,Alamo Drafthouse Cinema,Movie Theater,445 Albee Square West,Fulton St.,40.69101558292192,-73.98368571874677,"[{'label': 'display', 'lat': 40.69101558292192, 'lng': -73.98368571874677}]",3492,US,Brooklyn,NY,United States,"['445 Albee Square West (Fulton St.)', 'Brooklyn, NY 11201', 'United States']",11201,Downtown Brooklyn,5722dcad498e1dc59a10bca0,One World Trade Center
78,Gramercy Tavern,American Restaurant,42 E 20th St,btwn Broadway & Park Ave,40.73859964402532,-73.98831951156392,"[{'label': 'display', 'lat': 40.73859964402532, 'lng': -73.98831951156392}]",3536,US,New York,NY,United States,"['42 E 20th St (btwn Broadway & Park Ave)', 'New York, NY 10003', 'United States']",10003,,3fd66200f964a520aee91ee3,One World Trade Center
79,Pioneer Works,Event Space,159 Pioneer St,btwn Conover & Van Brunt St,40.67929043465977,-74.01211154406604,"[{'label': 'display', 'lat': 40.67929043465977, 'lng': -74.01211154406604}]",3755,US,Brooklyn,NY,United States,"['159 Pioneer St (btwn Conover & Van Brunt St)', 'Brooklyn, NY 11231', 'United States']",11231,,514e24bc72da3d1df4cea8ba,One World Trade Center
80,Domino Park,Park,Kent Ave,btwn Grand & S 5th St,40.71485036168803,-73.96749258041382,"[{'label': 'display', 'lat': 40.71485036168803, 'lng': -73.96749258041382}]",3860,US,Brooklyn,NY,United States,"['Kent Ave (btwn Grand & S 5th St)', 'Brooklyn, NY 11249', 'United States']",11249,,5afe34cc6adbf5002c00d4f7,One World Trade Center
81,High Line,Park,btwn Gansevoort & W 34th St,btwn 10th & 12th Ave,40.746825,-74.005507,"[{'label': 'display', 'lat': 40.746825, 'lng': -74.005507}]",3818,US,New York,NY,United States,"['btwn Gansevoort & W 34th St (btwn 10th & 12th Ave)', 'New York, NY 10011', 'United States']",10011,,40f1d480f964a5206a0a1fe3,One World Trade Center
82,David Zwirner Gallery,Art Gallery,537 W 20th St,at 11th Ave,40.74663515827365,-74.007328748703,"[{'label': 'display', 'lat': 40.74663515827365, 'lng': -74.007328748703}]",3774,US,New York,NY,United States,"['537 W 20th St (at 11th Ave)', 'New York, NY 10011', 'United States']",10011,,533d96d9498e88fc19384087,One World Trade Center
83,Fiore's House of Quality,Deli / Bodega,414 Adams St,btwn 4th & 5th Sts,40.743018792687366,-74.03618337907415,"[{'label': 'display', 'lat': 40.743018792687366, 'lng': -74.03618337907415}, {'label': 'entrance', 'lat': 40.742944, 'lng': -74.036101}]",3862,US,Hoboken,NJ,United States,"['414 Adams St (btwn 4th & 5th Sts)', 'Hoboken, NJ 07030', 'United States']",07030,,4a1098a2f964a520e3761fe3,One World Trade Center
84,Madison Square Park,Park,Madison Ave,btwn E 23rd & E 26th St,40.74226204193276,-73.98800611495972,"[{'label': 'display', 'lat': 40.74226204193276, 'lng': -73.98800611495972}]",3886,US,New York,NY,United States,"['Madison Ave (btwn E 23rd & E 26th St)', 'New York, NY 10010', 'United States']",10010,,40b68100f964a5207d001fe3,One World Trade Center
85,Statue of Liberty,Monument / Landmark,Liberty Island,,40.68938393386952,-74.04460072517395,"[{'label': 'display', 'lat': 40.68938393386952, 'lng': -74.04460072517395}]",3735,US,New York,NY,United States,"['Liberty Island', 'New York, NY 10004', 'United States']",10004,,42893400f964a52054231fe3,One World Trade Center
86,Fort Greene Park,Park,Washington Pk,btwn Myrtle & DeKalb Ave,40.69162107498688,-73.97564649581909,"[{'label': 'display', 'lat': 40.69162107498688, 'lng': -73.97564649581909}]",3963,US,Brooklyn,NY,United States,"['Washington Pk (btwn Myrtle & DeKalb Ave)', 'Brooklyn, NY 11217', 'United States']",11217,,41196180f964a5200b0c1fe3,One World Trade Center
87,Malt & Mold,Gourmet Shop,362 2nd Ave,btwn 21st & 22nd St,40.736677,-73.981472,"[{'label': 'display', 'lat': 40.736677, 'lng': -73.981472}]",3753,US,New York,NY,United States,"['362 2nd Ave (btwn 21st & 22nd St)', 'New York, NY 10010', 'United States']",10010,Gramercy Park,545fd218498e729596469903,One World Trade Center
88,Gotham Archery,Athletics & Sports,480 Baltic St,,40.68250448326891,-73.98603206203093,"[{'label': 'display', 'lat': 40.68250448326891, 'lng': -73.98603206203093}, {'label': 'entrance', 'lat': 40.682498, 'lng': -73.986053}]",4097,US,Brooklyn,NY,United States,"['480 Baltic St', 'Brooklyn, NY 11217', 'United States']",11217,Boerum Hill,5391fcfc498eae4bad6e344f,One World Trade Center
89,Equinox Gramercy,Gym,315 Park Ave S,24th St,40.74074907098539,-73.98577092778955,"[{'label': 'display', 'lat': 40.74074907098539, 'lng': -73.98577092778955}]",3856,US,New York,NY,United States,"['315 Park Ave S (24th St)', 'New York, NY 10010', 'United States']",10010,,574da377498ef19a1bd08764,One World Trade Center
90,Pier 63 Hudson River Park,Park,205 12th Ave,23rd Street,40.749500287685564,-74.00859475135803,"[{'label': 'display', 'lat': 40.749500287685564, 'lng': -74.00859475135803}]",4079,US,New York,NY,United States,"['205 12th Ave (23rd Street)', 'New York, NY 10001', 'United States']",10001,,4dd56920cc3f75159f13cb35,One World Trade Center
91,Modo Yoga Williamsburg,Yoga Studio,109 Metropolitan,Wythe,40.71667272570606,-73.96311393945952,"[{'label': 'display', 'lat': 40.71667272570606, 'lng': -73.96311393945952}]",4243,US,Brooklyn,NY,United States,"['109 Metropolitan (Wythe)', 'Brooklyn, NY 11249', 'United States']",11249,,56939812498ee79afe6b3fc6,One World Trade Center
92,Gelateria Gentile,Ice Cream Shop,253 Wythe Ave,N 1st,40.7163352947988,-73.96381651592516,"[{'label': 'display', 'lat': 40.7163352947988, 'lng': -73.96381651592516}]",4181,US,New York,NY,United States,"['253 Wythe Ave (N 1st)', 'New York, NY 11249', 'United States']",11249,,5adbb21eb1ec1353739fb187,One World Trade Center
93,Gagosian Gallery,Art Gallery,555 W 24th St,btwn 10th & 11th Ave,40.74949263854115,-74.00604977829569,"[{'label': 'display', 'lat': 40.74949263854115, 'lng': -74.00604977829569}, {'label': 'entrance', 'lat': 40.749414, 'lng': -74.005971}]",4104,US,New York,NY,United States,"['555 W 24th St (btwn 10th & 11th Ave)', 'New York, NY 10011', 'United States']",10011,,442e41b2f964a520da311fe3,One World Trade Center
94,Public Records,Music Venue,233 Butler St,btw Bond & Nevins,40.68222770266033,-73.9866228680318,"[{'label': 'display', 'lat': 40.68222770266033, 'lng': -73.9866228680318}]",4095,US,New York,NY,United States,"['233 Butler St (btw Bond & Nevins)', 'New York, NY 11217', 'United States']",11217,,5ca686ef0868a2002c93dd69,One World Trade Center
95,Nitehawk Cinema,Movie Theater,136 Metropolitan Ave,btwn Berry St & Wythe Ave,40.71618324295957,-73.96241962592575,"[{'label': 'display', 'lat': 40.71618324295957, 'lng': -73.96241962592575}]",4297,US,Brooklyn,NY,United States,"['136 Metropolitan Ave (btwn Berry St & Wythe Ave)', 'Brooklyn, NY 11249', 'United States']",11249,,4da491f6593f8eec9a257e35,One World Trade Center
96,Sunny's,Bar,253 Conover St,at Beard St,40.67563606268985,-74.01680340973766,"[{'label': 'display', 'lat': 40.67563606268985, 'lng': -74.01680340973766}]",4172,US,Brooklyn,NY,United States,"['253 Conover St (at Beard St)', 'Brooklyn, NY 11231', 'United States']",11231,,41b3a100f964a520751e1fe3,One World Trade Center
97,BAM Rose Cinemas,Indie Movie Theater,30 Lafayette Ave,btwn Ashland Pl & St. Felix St,40.68633844980032,-73.97743839568813,"[{'label': 'display', 'lat': 40.68633844980032, 'lng': -73.97743839568813}, {'label': 'entrance', 'lat': 40.686734, 'lng': -73.977743}]",4233,US,Brooklyn,NY,United States,"['30 Lafayette Ave (btwn Ashland Pl & St. Felix St)', 'Brooklyn, NY 11217', 'United States']",11217,,439ab2a9f964a520d12b1fe3,One World Trade Center
98,Bread and Salt,Pizza Place,435 Palisade Ave,,40.743533,-74.044925,"[{'label': 'display', 'lat': 40.743533, 'lng': -74.044925}]",4325,US,Jersey City,NJ,United States,"['435 Palisade Ave', 'Jersey City, NJ 07307', 'United States']",07307,,5d0d5f50820cc40029a73534,One World Trade Center
99,Miss Ada,Israeli Restaurant,184 Dekalb Ave,,40.68956047839135,-73.9723511535792,"[{'label': 'display', 'lat': 40.68956047839135, 'lng': -73.9723511535792}]",4323,US,Brooklyn,NY,United States,"['184 Dekalb Ave', 'Brooklyn, NY 11205', 'United States']",11205,Fort Greene,5914d24b3b83070821fcdd87,One World Trade Center
0,Bryant Park,Park,E 42nd St,btwn 5th & 6th Ave,40.75387292806952,-73.9836287498474,"[{'label': 'display', 'lat': 40.75387292806952, 'lng': -73.9836287498474}]",629,US,New York,NY,United States,"['E 42nd St (btwn 5th & 6th Ave)', 'New York, NY 10018', 'United States']",10018,Midtown,3fd66200f964a520d7f11ee3,Empire State Building
1,MUJI,Miscellaneous Shop,475 5th Ave,at E 41st St,40.75247095108687,-73.98134887218475,"[{'label': 'display', 'lat': 40.75247095108687, 'lng': -73.98134887218475}]",578,US,New York,NY,United States,"['475 5th Ave (at E 41st St)', 'New York, NY 10017', 'United States']",10017,Midtown East,564e6919498e9cd069ba3df0,Empire State Building
2,Books Kinokuniya,Bookstore,1073 Avenue of the Americas,btwn W 40th & W 41st St,40.75405320187223,-73.98464945969599,"[{'label': 'display', 'lat': 40.75405320187223, 'lng': -73.98464945969599}]",631,US,New York,NY,United States,"['1073 Avenue of the Americas (btwn W 40th & W 41st St)', 'New York, NY 10018', 'United States']",10018,,49ef71e3f964a520b8681fe3,Empire State Building
3,New York Public Library Terrace,Plaza,476 5th Ave,btwn W 40th & W 42nd St,40.75301665207755,-73.98147986022437,"[{'label': 'display', 'lat': 40.75301665207755, 'lng': -73.98147986022437}]",620,US,New York,NY,United States,"['476 5th Ave (btwn W 40th & W 42nd St)', 'New York, NY 10018', 'United States']",10018,,4ddaf97b183802d5373be2eb,Empire State Building
4,Madison Square Park,Park,Madison Ave,btwn E 23rd & E 26th St,40.74226204193276,-73.98800611495972,"[{'label': 'display', 'lat': 40.74226204193276, 'lng': -73.98800611495972}]",714,US,New York,NY,United States,"['Madison Ave (btwn E 23rd & E 26th St)', 'New York, NY 10010', 'United States']",10010,,40b68100f964a5207d001fe3,Empire State Building
5,Kalustyan's,Gourmet Shop,123 Lexington Ave,at E 28th St,40.74283152687895,-73.98226690988776,"[{'label': 'display', 'lat': 40.74283152687895, 'lng': -73.98226690988776}, {'label': 'entrance', 'lat': 40.742795, 'lng': -73.982187}]",685,US,New York,NY,United States,"['123 Lexington Ave (at E 28th St)', 'New York, NY 10016', 'United States']",10016,,45940e37f964a52055401fe3,Empire State Building
6,New Amsterdam Theater,Theater,214 W 42nd St,btwn Broadway & 8th Ave,40.755844024448116,-73.98832119495094,"[{'label': 'display', 'lat': 40.755844024448116, 'lng': -73.98832119495094}]",855,US,New York,NY,United States,"['214 W 42nd St (btwn Broadway & 8th Ave)', 'New York, NY 10036', 'United States']",10036,,4f139003e4b000502e3959c2,Empire State Building
7,Los Tacos No. 1,Taco Place,229 W 43rd St,btwn 7th & 8th Ave,40.757237,-73.987454,"[{'label': 'display', 'lat': 40.757237, 'lng': -73.987454}]",992,US,New York,NY,United States,"['229 W 43rd St (btwn 7th & 8th Ave)', 'New York, NY 10036', 'United States']",10036,Theater District,59580ce6db1d8148fee3d383,Empire State Building
8,Equinox Gramercy,Gym,315 Park Ave S,24th St,40.74074907098539,-73.98577092778955,"[{'label': 'display', 'lat': 40.74074907098539, 'lng': -73.98577092778955}]",854,US,New York,NY,United States,"['315 Park Ave S (24th St)', 'New York, NY 10010', 'United States']",10010,,574da377498ef19a1bd08764,Empire State Building
9,SoulCycle 19th,Cycle Studio,8 W 19th St,btwn 5th & 6th Ave,40.73943353393161,-73.99216844203444,"[{'label': 'display', 'lat': 40.73943353393161, 'lng': -73.99216844203444}, {'label': 'entrance', 'lat': 40.739315, 'lng': -73.992139}]",1142,US,New York,NY,United States,"['8 W 19th St (btwn 5th & 6th Ave)', 'New York, NY 10011', 'United States']",10011,,529f289511d21133dd08a7ec,Empire State Building
10,The Fhitting Room,Gym,31 W 19th St,btwn 5th & 6th Ave,40.739856864845336,-73.99319384310543,"[{'label': 'display', 'lat': 40.739856864845336, 'lng': -73.99319384310543}, {'label': 'entrance', 'lat': 40.739879, 'lng': -73.993022}]",1146,US,New York,NY,United States,"['31 W 19th St (btwn 5th & 6th Ave)', 'New York, NY 10011', 'United States']",10011,,54cd0dab498e6e5d8a9d7866,Empire State Building
11,Fishs Eddy,Furniture / Home Store,889 Broadway,btwn E 19th & E 20th St,40.738605357398285,-73.99001680796049,"[{'label': 'display', 'lat': 40.738605357398285, 'lng': -73.99001680796049}, {'label': 'entrance', 'lat': 40.738705, 'lng': -73.990025}]",1153,US,New York,NY,United States,"['889 Broadway (btwn E 19th & E 20th St)', 'New York, NY 10003', 'United States']",10003,,4a5d186ff964a5202bbd1fe3,Empire State Building
12,Gramercy Tavern,American Restaurant,42 E 20th St,btwn Broadway & Park Ave,40.73859964402532,-73.98831951156392,"[{'label': 'display', 'lat': 40.73859964402532, 'lng': -73.98831951156392}]",1116,US,New York,NY,United States,"['42 E 20th St (btwn Broadway & Park Ave)', 'New York, NY 10003', 'United States']",10003,,3fd66200f964a520aee91ee3,Empire State Building
13,Majestic Theatre,Theater,245 W 44th St,btwn 7th & 8th Ave,40.758267590709956,-73.98810677744484,"[{'label': 'display', 'lat': 40.758267590709956, 'lng': -73.98810677744484}, {'label': 'entrance', 'lat': 40.758313, 'lng': -73.988096}]",1114,US,New York,NY,United States,"['245 W 44th St (btwn 7th & 8th Ave)', 'New York, NY 10036', 'United States']",10036,,4b1074dbf964a520d47023e3,Empire State Building
14,St. Patrick's Cathedral,Church,14 E 51st St,at 5th Ave,40.758627238578065,-73.97639751434325,"[{'label': 'display', 'lat': 40.758627238578065, 'lng': -73.97639751434325}]",1377,US,New York,NY,United States,"['14 E 51st St (at 5th Ave)', 'New York, NY 10022', 'United States']",10022,,4a3d4aecf964a52012a21fe3,Empire State Building
15,Top of the Rock Observation Deck,Scenic Lookout,30 Rockefeller Plz,btwn 5th & 6th Ave,40.759095065214055,-73.97935153748539,"[{'label': 'display', 'lat': 40.759095065214055, 'lng': -73.97935153748539}]",1300,US,New York,NY,United States,"['30 Rockefeller Plz (btwn 5th & 6th Ave)', 'New York, NY 10112', 'United States']",10112,,43a48f1bf964a520502c1fe3,Empire State Building
16,Caffè Panna,Ice Cream Shop,77 Irving Pl,,40.736985,-73.98676,"[{'label': 'display', 'lat': 40.736985, 'lng': -73.98676}]",1277,US,New York,NY,United States,"['77 Irving Pl', 'New York, NY 10003', 'United States']",10003,,5d7d70ed72c4090008784186,Empire State Building
17,Union Square Greenmarket,Farmers Market,1 Union Sq W,btwn 14th & 17th St,40.736296929163295,-73.9905813271794,,1412,US,New York,NY,United States,"['1 Union Sq W (btwn 14th & 17th St)', 'New York, NY 10003', 'United States']",10003,Union Square,49c27575f964a520f1551fe3,Empire State Building
18,Broadway Dance Center,Dance Studio,322 W 45th St,btwn 8th & 9th Ave,40.759489759762815,-73.98956180541293,"[{'label': 'display', 'lat': 40.759489759762815, 'lng': -73.98956180541293}, {'label': 'entrance', 'lat': 40.759547, 'lng': -73.989549}]",1274,US,New York,NY,United States,"['322 W 45th St (btwn 8th & 9th Ave)', 'New York, NY 10036', 'United States']",10036,,46a9bed8f964a52054491fe3,Empire State Building
19,Equinox West 50th Street,Gym,1633 Broadway,at Paramount Plz,40.761912,-73.984268,"[{'label': 'display', 'lat': 40.761912, 'lng': -73.984268}]",1505,US,New York,NY,United States,"['1633 Broadway (at Paramount Plz)', 'New York, NY 10019', 'United States']",10019,,4a66f31af964a520dcc81fe3,Empire State Building
20,Radio City Music Hall,Concert Hall,1260 Avenue of the Americas,at W 50th St,40.759850056828405,-73.97934397752239,"[{'label': 'display', 'lat': 40.759850056828405, 'lng': -73.97934397752239}]",1378,US,New York,NY,United States,"['1260 Avenue of the Americas (at W 50th St)', 'New York, NY 10020', 'United States']",10020,,4161e400f964a520721d1fe3,Empire State Building
21,Malt & Mold,Gourmet Shop,362 2nd Ave,btwn 21st & 22nd St,40.736677,-73.981472,"[{'label': 'display', 'lat': 40.736677, 'lng': -73.981472}]",1354,US,New York,NY,United States,"['362 2nd Ave (btwn 21st & 22nd St)', 'New York, NY 10010', 'United States']",10010,Gramercy Park,545fd218498e729596469903,Empire State Building
22,Equinox Rockefeller Center,Gym / Fitness Center,45 Rockefeller Plz,btwn W 50th & 51st St,40.75918,-73.977784,"[{'label': 'display', 'lat': 40.75918, 'lng': -73.977784}]",1368,US,New York,NY,United States,"['45 Rockefeller Plz (btwn W 50th & 51st St)', 'New York, NY 10111', 'United States']",10111,,4a705a19f964a5204ed71fe3,Empire State Building
23,Breads Bakery,Bakery,18 E 16th St,btwn Union Sq W & 5th Ave,40.73661,-73.99181,"[{'label': 'display', 'lat': 40.73661, 'lng': -73.99181}]",1414,US,New York,NY,United States,"['18 E 16th St (btwn Union Sq W & 5th Ave)', 'New York, NY 10003', 'United States']",10003,,503fb6d4ebca66a84f029bd8,Empire State Building
24,High Line,Park,btwn Gansevoort & W 34th St,btwn 10th & 12th Ave,40.746825,-74.005507,"[{'label': 'display', 'lat': 40.746825, 'lng': -74.005507}]",1683,US,New York,NY,United States,"['btwn Gansevoort & W 34th St (btwn 10th & 12th Ave)', 'New York, NY 10011', 'United States']",10011,,40f1d480f964a5206a0a1fe3,Empire State Building
25,Soothr,Thai Restaurant,204 E 13th St,3rd Ave,40.732287,-73.987287,"[{'label': 'display', 'lat': 40.732287, 'lng': -73.987287}]",1802,US,New York,NY,United States,"['204 E 13th St (3rd Ave)', 'New York, NY 10003', 'United States']",10003,,5ee66a36459579000887cd2b,Empire State Building
26,TMPL,Gym,355 W 49th St,8th Avenue,40.762549725908436,-73.98817701719275,"[{'label': 'display', 'lat': 40.762549725908436, 'lng': -73.98817701719275}]",1586,US,New York,NY,United States,"['355 W 49th St (8th Avenue)', 'New York, NY 10019', 'United States']",10019,,566dd692498eadbfb75805ef,Empire State Building
27,Museum of Modern Art (MoMA),Art Museum,11 W 53rd St,btwn 5th & 6th Ave,40.76141150395245,-73.97746170919268,,1601,US,New York,NY,United States,"['11 W 53rd St (btwn 5th & 6th Ave)', 'New York, NY 10019', 'United States']",10019,,4af5a46af964a520b5fa21e3,Empire State Building
28,Strand Bookstore,Bookstore,828 Broadway,at E 12th St,40.73314000684355,-73.99091161094675,"[{'label': 'display', 'lat': 40.73314000684355, 'lng': -73.99091161094675}]",1758,US,New York,NY,United States,"['828 Broadway (at E 12th St)', 'New York, NY 10003', 'United States']",10003,,4a8cc1d4f964a520130f20e3,Empire State Building
29,Peridance Capezio Center,Dance Studio,126 E 13th St,btwn 3rd & 4th Ave,40.73298682271572,-73.98852241900113,"[{'label': 'display', 'lat': 40.73298682271572, 'lng': -73.98852241900113}]",1735,US,New York,NY,United States,"['126 E 13th St (btwn 3rd & 4th Ave)', 'New York, NY 10003', 'United States']",10003,,4b6cba70f964a520ae4f2ce3,Empire State Building
30,Gagosian Gallery,Art Gallery,555 W 24th St,btwn 10th & 11th Ave,40.74949263854115,-74.00604977829569,"[{'label': 'display', 'lat': 40.74949263854115, 'lng': -74.00604977829569}, {'label': 'entrance', 'lat': 40.749414, 'lng': -74.005971}]",1724,US,New York,NY,United States,"['555 W 24th St (btwn 10th & 11th Ave)', 'New York, NY 10011', 'United States']",10011,,442e41b2f964a520da311fe3,Empire State Building
31,Trader Joe's Wine Shop,Wine Shop,138 E 14th St,btwn Irving Pl & 3rd Ave,40.73374950502162,-73.98812798965065,"[{'label': 'display', 'lat': 40.73374950502162, 'lng': -73.98812798965065}, {'label': 'entrance', 'lat': 40.733559, 'lng': -73.988201}]",1647,US,New York,NY,United States,"['138 E 14th St (btwn Irving Pl & 3rd Ave)', 'New York, NY 10003', 'United States']",10003,,4a319883f964a520fc991fe3,Empire State Building
32,Los Tacos No. 1,Taco Place,75 9th Ave,,40.74224400629671,-74.00596115738153,"[{'label': 'display', 'lat': 40.74224400629671, 'lng': -74.00596115738153}]",1845,US,New York,NY,United States,"['75 9th Ave', 'New York, NY 10011', 'United States']",10011,Chelsea,5196b9ff498e8a6be4336a03,Empire State Building
33,David Zwirner Gallery,Art Gallery,537 W 20th St,at 11th Ave,40.74663515827365,-74.007328748703,"[{'label': 'display', 'lat': 40.74663515827365, 'lng': -74.007328748703}]",1838,US,New York,NY,United States,"['537 W 20th St (at 11th Ave)', 'New York, NY 10011', 'United States']",10011,,533d96d9498e88fc19384087,Empire State Building
34,Los Mariscos,Seafood Restaurant,409 West 15th St,9th Ave,40.74199972810892,-74.00589003225507,"[{'label': 'display', 'lat': 40.74199972810892, 'lng': -74.00589003225507}, {'label': 'entrance', 'lat': 40.742132, 'lng': -74.005809}]",1850,US,New York,NY,United States,"['409 West 15th St (9th Ave)', 'New York, NY 10011', 'United States']",10011,,57e9590a498e2d323e20c667,Empire State Building
35,High Line 10th Ave Amphitheatre,Scenic Lookout,High Line,10th Ave & W 17th St,40.74398136118615,-74.00684429247669,"[{'label': 'display', 'lat': 40.74398136118615, 'lng': -74.00684429247669}]",1854,US,New York,NY,United States,"['High Line (10th Ave & W 17th St)', 'New York, NY 10011', 'United States']",10011,,4eb1877fd3e36bac670d2898,Empire State Building
36,Pier 63 Hudson River Park,Park,205 12th Ave,23rd Street,40.749500287685564,-74.00859475135803,"[{'label': 'display', 'lat': 40.749500287685564, 'lng': -74.00859475135803}]",1938,US,New York,NY,United States,"['205 12th Ave (23rd Street)', 'New York, NY 10001', 'United States']",10001,,4dd56920cc3f75159f13cb35,Empire State Building
37,Mah-Ze-Dahr Bakery,Bakery,28 Greenwich Ave,Charles Street,40.735117,-74.000052,"[{'label': 'display', 'lat': 40.735117, 'lng': -74.000052}]",1915,US,New York,NY,United States,"['28 Greenwich Ave (Charles Street)', 'New York, NY 10011', 'United States']",10011,,568c0ce238fafac5f5ffe631,Empire State Building
38,4 Charles Prime Rib,Steakhouse,4 Charles St,Greenwich Ave,40.735219495923204,-74.0006488188871,"[{'label': 'display', 'lat': 40.735219495923204, 'lng': -74.0006488188871}, {'label': 'entrance', 'lat': 40.735185, 'lng': -74.000661}]",1939,US,New York,NY,United States,"['4 Charles St (Greenwich Ave)', 'New York, NY 10014', 'United States']",10014,,585164b77220e62219c9aeb6,Empire State Building
39,Bumble & Bumble,Salon / Barbershop,146 E 56th St,at Lexington Ave,40.759833,-73.969096,"[{'label': 'entrance', 'lat': 40.759909, 'lng': -73.96904}, {'label': 'display', 'lat': 40.759833, 'lng': -73.969096}]",1887,US,New York,NY,United States,"['146 E 56th St (at Lexington Ave)', 'New York, NY 10022', 'United States']",10022,,4ac0f812f964a520369520e3,Empire State Building
40,Aux Merveilleux de Fred,Bakery,37 8th Ave,at W 4th St,40.738334,-74.004114,"[{'label': 'display', 'lat': 40.738334, 'lng': -74.004114}, {'label': 'entrance', 'lat': 40.738342, 'lng': -74.004102}]",1920,US,New York,NY,United States,"['37 8th Ave (at W 4th St)', 'New York, NY 10014', 'United States']",10014,,54b1b78e498ee334f9b739be,Empire State Building
41,Hunter's Point South Park,Park,Center Boulevard and Borden Avenue,Center Boulevard and Borden Avenue,40.742631898404746,-73.96070122718811,"[{'label': 'display', 'lat': 40.742631898404746, 'lng': -73.96070122718811}]",2201,US,Queens,NY,United States,"['Center Boulevard and Borden Avenue (Center Boulevard and Borden Avenue)', 'Long Island City, NY 11101', 'United States']",11101,Long Island City,521cd1c293cd469ce13dbb47,Empire State Building
42,Saint Laurent,Boutique,3 E 57th St,btwn 5th Ave and 6th Ave,40.76297783182334,-73.97323146073056,"[{'label': 'entrance', 'lat': 40.762842, 'lng': -73.973356}, {'label': 'display', 'lat': 40.76297783182334, 'lng': -73.97323146073056}]",1928,US,New York,NY,United States,"['3 E 57th St (btwn 5th Ave and 6th Ave)', 'New York, NY 10022', 'United States']",10022,,4b20181bf964a5201e2d24e3,Empire State Building
43,Juice Vitality,Juice Bar,192 1st Ave,btwn E 11 & 12th St,40.729714154152404,-73.98365020751953,"[{'label': 'display', 'lat': 40.729714154152404, 'lng': -73.98365020751953}]",2090,US,New York,NY,United States,"['192 1st Ave (btwn E 11 & 12th St)', 'New York, NY 10009', 'United States']",10009,,56965f2e498e683a33b43263,Empire State Building
44,McNally Jackson Store: Goods for the Study,Stationery Store,50 W 8th St,6th Avenue,40.73323795162194,-73.99873304139692,"[{'label': 'display', 'lat': 40.73323795162194, 'lng': -73.99873304139692}]",2018,US,New York,NY,United States,"['50 W 8th St (6th Avenue)', 'New York, NY 10011', 'United States']",10011,,58557b6b158b966de0f7e137,Empire State Building
45,NYRR RUNCenter,Community Center,320 W 57th St,Between 8th & 9th Avenue,40.767079052150685,-73.98392642532963,"[{'label': 'display', 'lat': 40.767079052150685, 'lng': -73.98392642532963}]",2081,US,New York,NY,United States,"['320 W 57th St (Between 8th & 9th Avenue)', 'New York, NY 10019', 'United States']",10019,,5717dac7498e22ad270b634a,Empire State Building
46,Washington Square Park,Park,W 4th St,btwn MacDougal St & University Pl,40.73081579656163,-73.9974582195282,"[{'label': 'display', 'lat': 40.73081579656163, 'lng': -73.9974582195282}]",2198,US,New York,NY,United States,"['W 4th St (btwn MacDougal St & University Pl)', 'New York, NY 10012', 'United States']",10012,,40abf500f964a52035f31ee3,Empire State Building
47,Van Leeuwen Ice Cream,Ice Cream Shop,152 W 10th St,at Waverly Pl,40.734397,-74.001271,"[{'label': 'display', 'lat': 40.734397, 'lng': -74.001271}]",2043,US,New York,NY,United States,"['152 W 10th St (at Waverly Pl)', 'New York, NY 10012', 'United States']",10012,,54e7da22498e3dd7390e3136,Empire State Building
48,Jim's Shoe Repair,Shoe Store,50 E 59th St,Madison/Park,40.7634125732713,-73.97110633512361,"[{'label': 'display', 'lat': 40.7634125732713, 'lng': -73.97110633512361}]",2070,US,New York,NY,United States,"['50 E 59th St (Madison/Park)', 'New York, NY 10022', 'United States']",10022,,4aae5732f964a520df6120e3,Empire State Building
49,Three Lives & Company,Bookstore,154 W 10th St,at Waverly Pl,40.73442736120523,-74.00139223025236,"[{'label': 'display', 'lat': 40.73442736120523, 'lng': -74.00139223025236}, {'label': 'entrance', 'lat': 40.734388, 'lng': -74.001534}]",2047,US,New York,NY,United States,"['154 W 10th St (at Waverly Pl)', 'New York, NY 10014', 'United States']",10014,,4a7cbad7f964a5205fed1fe3,Empire State Building
50,té (Té Company),Tea Room,163 W 10th St,btwn 7th Ave S & Waverly Pl,40.734537261775436,-74.00182753801346,"[{'label': 'display', 'lat': 40.734537261775436, 'lng': -74.00182753801346}, {'label': 'entrance', 'lat': 40.734479, 'lng': -74.001886}]",2061,US,New York,NY,United States,"['163 W 10th St (btwn 7th Ave S & Waverly Pl)', 'New York, NY 10014', 'United States']",10014,,56292858498e5a271a288948,Empire State Building
51,Barry's Bootcamp,Gym / Fitness Center,419 Lafayette St,,40.7289365661847,-73.99224109396116,"[{'label': 'display', 'lat': 40.7289365661847, 'lng': -73.99224109396116}]",2239,US,New York,NY,United States,"['419 Lafayette St', 'New York, NY 10003', 'United States']",10003,,54393961498e8986492d5b67,Empire State Building
52,Gantry Plaza State Park,State / Provincial Park,474 48th Ave,at Center Blvd,40.74655794031174,-73.9580512046814,"[{'label': 'display', 'lat': 40.74655794031174, 'lng': -73.9580512046814}]",2337,US,Queens,NY,United States,"['474 48th Ave (at Center Blvd)', 'Long Island City, NY 11109', 'United States']",11109,Long Island City,43222200f964a5209c271fe3,Empire State Building
53,Central Park - Wien Walk,Park,5th Ave. and E 61st St.,,40.766565760111106,-73.97225350141525,"[{'label': 'display', 'lat': 40.766565760111106, 'lng': -73.97225350141525}]",2313,US,New York,NY,United States,"['5th Ave. and E 61st St.', 'New York, NY', 'United States']",,,4def7f02fa76c1ceac932900,Empire State Building
54,The Public Theater,Theater,425 Lafayette St,btwn Astor Pl & E 4th St,40.72916880904384,-73.99207037967628,"[{'label': 'display', 'lat': 40.72916880904384, 'lng': -73.99207037967628}]",2211,US,New York,NY,United States,"['425 Lafayette St (btwn Astor Pl & E 4th St)', 'New York, NY 10003', 'United States']",10003,,4a07986bf964a52087731fe3,Empire State Building
55,Astor Wines & Spirits,Wine Shop,399 Lafayette St,at E 4th St,40.727984051970246,-73.99304720778368,"[{'label': 'display', 'lat': 40.727984051970246, 'lng': -73.99304720778368}]",2359,US,New York,NY,United States,"['399 Lafayette St (at E 4th St)', 'New York, NY 10003', 'United States']",10003,,49f37c28f964a520a36a1fe3,Empire State Building
56,L'Artusi,Italian Restaurant,228 W 10th St,btwn Bleecker & Hudson St,40.733887817554255,-74.00511448337453,"[{'label': 'display', 'lat': 40.733887817554255, 'lng': -74.00511448337453}, {'label': 'entrance', 'lat': 40.733857, 'lng': -74.005156}]",2305,US,New York,NY,United States,"['228 W 10th St (btwn Bleecker & Hudson St)', 'New York, NY 10014', 'United States']",10014,,4a27289cf964a52062911fe3,Empire State Building
57,Murray's Cheese,Cheese Shop,254 Bleecker St,at Cornelia St,40.73100494148146,-74.00291557226433,"[{'label': 'display', 'lat': 40.73100494148146, 'lng': -74.00291557226433}]",2425,US,New York,NY,United States,"['254 Bleecker St (at Cornelia St)', 'New York, NY 10014', 'United States']",10014,,3fd66200f964a5203ee71ee3,Empire State Building
58,Hudson River Park,Park,West St,btwn Battery Pl & W 59th St,40.735423194032656,-74.0101672581913,,2523,US,New York,NY,United States,"['West St (btwn Battery Pl & W 59th St)', 'New York, NY 10011', 'United States']",10011,,4b240a1ff964a520b25f24e3,Empire State Building
59,Comedy Cellar at The Village Underground,Comedy Club,130 W 3rd St,,40.730792222213175,-74.00084635246698,"[{'label': 'display', 'lat': 40.730792222213175, 'lng': -74.00084635246698}]",2344,US,New York,NY,United States,"['130 W 3rd St', 'New York, NY 10012', 'United States']",10012,,51603739e4b0a9d70ee7fe34,Empire State Building
60,Equinox East 63rd Street,Gym,817 Lexington Avenue,at E 63rd St,40.7644886843313,-73.96651148383634,"[{'label': 'display', 'lat': 40.7644886843313, 'lng': -73.96651148383634}]",2408,US,New York,NY,United States,"['817 Lexington Avenue (at E 63rd St)', 'New York, NY 10065', 'United States']",10065,,4a68fb35f964a52064cb1fe3,Empire State Building
61,Comedy Cellar,Comedy Club,117 Macdougal St,btwn Minetta Ln & W 3rd St,40.73012988282376,-74.00040218545217,"[{'label': 'display', 'lat': 40.73012988282376, 'lng': -74.00040218545217}]",2386,US,New York,NY,United States,"['117 Macdougal St (btwn Minetta Ln & W 3rd St)', 'New York, NY 10012', 'United States']",10012,,3fd66200f964a52051e61ee3,Empire State Building
62,Court Street Grocers,Sandwich Place,540 Laguardia Pl,btwn Bleecker & W 3rd St,40.728806,-73.998471,"[{'label': 'display', 'lat': 40.728806, 'lng': -73.998471}, {'label': 'entrance', 'lat': 40.72883, 'lng': -73.998474}]",2437,US,New York,NY,United States,"['540 Laguardia Pl (btwn Bleecker & W 3rd St)', 'New York, NY 10012', 'United States']",10012,,5644c0cf498eda8d003cfa4b,Empire State Building
63,Suki Curry,Japanese Restaurant,86 E 7th St,1st Ave,40.72715710327842,-73.9861343187004,"[{'label': 'display', 'lat': 40.72715710327842, 'lng': -73.9861343187004}]",2368,US,New York,NY,United States,"['86 E 7th St (1st Ave)', 'New York, NY 10003', 'United States']",10003,,5b3805910dd31f002409405a,Empire State Building
64,The Brant Foundation Art Study Center,Art Gallery,421 E 6th St,,40.726009877430975,-73.98522676126714,"[{'label': 'display', 'lat': 40.726009877430975, 'lng': -73.98522676126714}]",2495,US,New York,NY,United States,"['421 E 6th St', 'New York, NY 10009', 'United States']",10009,,5c7b10fc531593003976d116,Empire State Building
65,The Garden at St. Luke in the Fields,Garden,487 Hudson St,at Barrow St,40.731779943709725,-74.00666673502485,"[{'label': 'display', 'lat': 40.731779943709725, 'lng': -74.00666673502485}]",2564,US,New York,NY,United States,"['487 Hudson St (at Barrow St)', 'New York, NY 10014', 'United States']",10014,,4bb76b8146d4a593de6ec7c0,Empire State Building
66,Lincoln Center for the Performing Arts,Performing Arts Venue,70 Lincoln Center Plz,btwn Columbus & 10th Ave,40.772282300238174,-73.98294841259204,,2665,US,New York,NY,United States,"['70 Lincoln Center Plz (btwn Columbus & 10th Ave)', 'New York, NY 10023', 'United States']",10023,,3fd66200f964a52023e81ee3,Empire State Building
67,Upstate Craft Beer and Oyster Bar,Seafood Restaurant,95 1st Ave,at 6th St,40.726331,-73.986453,"[{'label': 'display', 'lat': 40.726331, 'lng': -73.986453}]",2460,US,New York,NY,United States,"['95 1st Ave (at 6th St)', 'New York, NY 10003', 'United States']",10003,,4e41f0822271a90466a0e967,Empire State Building
68,Barry's Bootcamp,Gym / Fitness Center,1216 2nd Ave,East 64th Street,40.763501,-73.962023,"[{'label': 'display', 'lat': 40.763501, 'lng': -73.962023}, {'label': 'entrance', 'lat': 40.76354, 'lng': -73.961997}]",2605,US,New York,NY,United States,"['1216 2nd Ave (East 64th Street)', 'New York, NY 10065', 'United States']",10065,,521c185b11d26fe322a0b139,Empire State Building
69,Hudson River Greenway Running Path,Trail,Hudson River Greenway,btwn Battery Park & W 72nd St,40.73255155774,-74.01057958602905,"[{'label': 'display', 'lat': 40.73255155774, 'lng': -74.01057958602905}]",2746,US,New York,NY,United States,"['Hudson River Greenway (btwn Battery Park & W 72nd St)', 'New York, NY 10282', 'United States']",10282,,4ed6adfce5fabbd89f617d4f,Empire State Building
70,Fish Cheeks,Thai Restaurant,55 Bond St,btwn Lafayette & Bowery St,40.725861003633504,-73.99253343981425,"[{'label': 'display', 'lat': 40.725861003633504, 'lng': -73.99253343981425}]",2578,US,New York,NY,United States,"['55 Bond St (btwn Lafayette & Bowery St)', 'New York, NY 10012', 'United States']",10012,NoHo,57c169e3498e784947e307aa,Empire State Building
71,The Metropolitan Opera (Metropolitan Opera),Opera House,70 Lincoln Center Plz,at Columbus Ave,40.77274188001071,-73.9844012260437,"[{'label': 'display', 'lat': 40.77274188001071, 'lng': -73.9844012260437}]",2708,US,New York,NY,United States,"['70 Lincoln Center Plz (at Columbus Ave)', 'New York, NY 10023', 'United States']",10023,,48e480eef964a52022521fe3,Empire State Building
72,David H. Koch Theater,Theater,Lincoln Center Plaza,at W 63rd St & Columbus Ave,40.772292228782284,-73.9832624208871,"[{'label': 'display', 'lat': 40.772292228782284, 'lng': -73.9832624208871}]",2664,US,New York,NY,United States,"['Lincoln Center Plaza (at W 63rd St & Columbus Ave)', 'New York, NY 10023', 'United States']",10023,,49ff4eecf964a52005701fe3,Empire State Building
73,Raku,Udon Restaurant,48 Macdougal St,King and Macdougal,40.727404193363725,-74.0026963722485,"[{'label': 'display', 'lat': 40.727404193363725, 'lng': -74.0026963722485}, {'label': 'entrance', 'lat': 40.727328, 'lng': -74.002622}]",2746,US,New York,NY,United States,"['48 Macdougal St (King and Macdougal)', 'New York, NY 10012', 'United States']",10012,,5aea422a033693002bf0c1cb,Empire State Building
74,WNYC Transmitter Park,Park,2 Greenpoint Ave,at West St,40.729958061792885,-73.96073341369629,"[{'label': 'display', 'lat': 40.729958061792885, 'lng': -73.96073341369629}]",2940,US,Brooklyn,NY,United States,"['2 Greenpoint Ave (at West St)', 'Brooklyn, NY 11222', 'United States']",11222,,4a4e944df964a520baae1fe3,Empire State Building
75,Bakeri,Bakery,105 Freeman St,btwn Franklin & Manhattan Ave,40.73426471796698,-73.95755265756051,"[{'label': 'display', 'lat': 40.73426471796698, 'lng': -73.95755265756051}, {'label': 'entrance', 'lat': 40.73429, 'lng': -73.957528}]",2846,US,Brooklyn,NY,United States,"['105 Freeman St (btwn Franklin & Manhattan Ave)', 'Brooklyn, NY 11222', 'United States']",11222,,534d61c4498e9beff4c74e8b,Empire State Building
76,Dandelion Wine,Wine Shop,153 Franklin St,,40.731667,-73.958015,"[{'label': 'entrance', 'lat': 40.731674, 'lng': -73.958013}, {'label': 'display', 'lat': 40.731667, 'lng': -73.958015}]",2985,US,Brooklyn,NY,United States,"['153 Franklin St', 'Brooklyn, NY 11222', 'United States']",11222,,4bd61b737b1876b008038c86,Empire State Building
77,Elizabeth Street Garden,Garden,209 Elizabeth St,btwn Prince & Spring St,40.72213773713652,-73.99474431471144,"[{'label': 'display', 'lat': 40.72213773713652, 'lng': -73.99474431471144}]",3025,US,New York,NY,United States,"['209 Elizabeth St (btwn Prince & Spring St)', 'New York, NY 10012', 'United States']",10012,,4a9032caf964a5207b1620e3,Empire State Building
78,Russ & Daughters,Gourmet Shop,179 E Houston St,btwn Allen & Orchard St,40.722753419544574,-73.98822372207833,"[{'label': 'display', 'lat': 40.722753419544574, 'lng': -73.98822372207833}]",2866,US,New York,NY,United States,"['179 E Houston St (btwn Allen & Orchard St)', 'New York, NY 10002', 'United States']",10002,,49b6e8d2f964a52016531fe3,Empire State Building
79,McNally Jackson Books,Bookstore,52 Prince St,btwn Lafayette & Mulberry St,40.72349313279467,-73.99604818258018,"[{'label': 'display', 'lat': 40.72349313279467, 'lng': -73.99604818258018}]",2910,US,New York,NY,United States,"['52 Prince St (btwn Lafayette & Mulberry St)', 'New York, NY 10012', 'United States']",10012,,49e63a33f964a52023641fe3,Empire State Building
80,Fifth Hammer Brewing Company,Brewery,10-28 46th Ave,,40.74655304120232,-73.95143837388332,"[{'label': 'display', 'lat': 40.74655304120232, 'lng': -73.95143837388332}]",2893,US,New York,NY,United States,"['10-28 46th Ave', 'New York, NY 11101', 'United States']",11101,Hunters Point,580bbe6c38fa27d5b5a442cc,Empire State Building
81,Bethesda Terrace,Plaza,Terrace Dr,at Central Park,40.77385431547793,-73.97098155596522,"[{'label': 'display', 'lat': 40.77385431547793, 'lng': -73.97098155596522}]",3088,US,New York,NY,United States,"['Terrace Dr (at Central Park)', 'New York, NY 10021', 'United States']",10021,,4be709372468c9281aff0143,Empire State Building
82,Bethesda Fountain,Fountain,Terrace Dr,Central Park,40.77429373881737,-73.9708399772644,"[{'label': 'display', 'lat': 40.77429373881737, 'lng': -73.9708399772644}]",3138,US,New York,NY,United States,"['Terrace Dr (Central Park)', 'New York, NY 10021', 'United States']",10021,,4a6b8bf4f964a52018cf1fe3,Empire State Building
83,The Cliffs at Long Island City,Climbing Gym,11-11 44th Dr,,40.74862722288911,-73.94889232182862,"[{'label': 'display', 'lat': 40.74862722288911, 'lng': -73.94889232182862}]",3100,US,Long Island City,NY,United States,"['11-11 44th Dr', 'Long Island City, NY 11101', 'United States']",11101,,51571a47e4b03e8de7ec9dbc,Empire State Building
84,Stick With Me,Chocolate Shop,202 Mott St Frnt A,btwn Kenmare St & Spring St,40.721304,-73.995474,"[{'label': 'display', 'lat': 40.721304, 'lng': -73.995474}]",3130,US,New York,NY,United States,"['202 Mott St Frnt A (btwn Kenmare St & Spring St)', 'New York, NY 10012', 'United States']",10012,,546232fb498e6f99835ec2c2,Empire State Building
85,East River Running Path,Track,FDR Dr,at Delancey St,40.722409,-73.974076,"[{'label': 'display', 'lat': 40.722409, 'lng': -73.974076}]",3056,US,New York,NY,United States,"['FDR Dr (at Delancey St)', 'New York, NY 10019', 'United States']",10019,,4ca87e7dd971b1f7c8df14e1,Empire State Building
86,Thai Diner,Thai Restaurant,186 Mott St,at Kenmare,40.720739,-73.995631,"[{'label': 'display', 'lat': 40.720739, 'lng': -73.995631}]",3195,US,New York,NY,United States,"['186 Mott St (at Kenmare)', 'New York, NY 10012', 'United States']",10012,,5e46e2ec5791a10008c55728,Empire State Building
87,Paulie Gee’s,Pizza Place,708 Continental Cir #1514,,40.729801246987186,-73.95852046352437,"[{'label': 'display', 'lat': 40.729801246987186, 'lng': -73.95852046352437}]",3088,US,Brooklyn,NY,United States,"['708 Continental Cir #1514', 'Brooklyn, NY 11222', 'United States']",11222,,4b9709fcf964a520c4f434e3,Empire State Building
88,citizenM Bowery,Hotel,189 Bowery,at Delancey St,40.720599497806894,-73.99357438087463,"[{'label': 'display', 'lat': 40.720599497806894, 'lng': -73.99357438087463}]",3169,US,New York,NY,United States,"['189 Bowery (at Delancey St)', 'New York, NY 10002', 'United States']",10002,,51050d4e5262d6654ddc83e1,Empire State Building
89,Riverside Park South,Park,Riverside Blvd,65th & 72nd Sts,40.77832352747964,-73.98911118507385,"[{'label': 'display', 'lat': 40.77832352747964, 'lng': -73.98911118507385}]",3340,US,New York,NY,United States,"['Riverside Blvd (65th & 72nd Sts)', 'New York, NY 10069', 'United States']",10069,,4adf50e7f964a520627921e3,Empire State Building
90,La Compagnie des Vins Surnaturels,Wine Bar,249 Centre St,at Broome St,40.720447943059405,-73.9979693380989,"[{'label': 'display', 'lat': 40.720447943059405, 'lng': -73.9979693380989}, {'label': 'entrance', 'lat': 40.720488, 'lng': -73.998079}]",3283,US,New York,NY,United States,"['249 Centre St (at Broome St)', 'New York, NY 10013', 'United States']",10013,,53506fd9498ebca706a7c170,Empire State Building
91,Wayla,Thai Restaurant,100 Forsyth St,btw Grand & Broome,40.7182908437571,-73.99258397519588,"[{'label': 'display', 'lat': 40.7182908437571, 'lng': -73.99258397519588}]",3405,US,New York,NY,United States,"['100 Forsyth St (btw Grand & Broome)', 'New York, NY 10002', 'United States']",10002,Lower East Side,5cc4e9d0c876c8002c3010cb,Empire State Building
92,Hudson River Waterfront Walkway,Scenic Lookout,Frank Sinatra Dr,,40.736288,-74.025192,"[{'label': 'display', 'lat': 40.736288, 'lng': -74.025192}]",3598,US,Hoboken,NJ,United States,"['Frank Sinatra Dr', 'Hoboken, NJ 07030', 'United States']",07030,,4c61d7fd58810f4770d9051e,Empire State Building
93,Aire Ancient Baths,Spa,88 Franklin St,at Church St,40.718141411641234,-74.00494121234846,"[{'label': 'display', 'lat': 40.718141411641234, 'lng': -74.00494121234846}, {'label': 'entrance', 'lat': 40.718134, 'lng': -74.004846}]",3743,US,New York,NY,United States,"['88 Franklin St (at Church St)', 'New York, NY 10013', 'United States']",10013,,4fbbd9ede4b0756c0d4c2364,Empire State Building
94,Pier A Park,Park,Sinatra Dr,at 1st St,40.73681963035856,-74.02708053588867,"[{'label': 'display', 'lat': 40.73681963035856, 'lng': -74.02708053588867}]",3725,US,Hoboken,NJ,United States,"['Sinatra Dr (at 1st St)', 'Hoboken, NJ 07030', 'United States']",07030,,49e377baf964a52084621fe3,Empire State Building
95,Levain Bakery,Bakery,351 Amsterdam Ave,at W 77th St,40.781513,-73.97926,"[{'label': 'display', 'lat': 40.781513, 'lng': -73.97926}]",3722,US,New York,NY,United States,"['351 Amsterdam Ave (at W 77th St)', 'New York, NY 10024', 'United States']",10024,Upper West Side,59541640a22db738071fa21f,Empire State Building
96,Beacon Theatre,Concert Hall,2124 Broadway,at W 74th St,40.78055425266116,-73.98043206426468,"[{'label': 'display', 'lat': 40.78055425266116, 'lng': -73.98043206426468}]",3603,US,New York,NY,United States,"['2124 Broadway (at W 74th St)', 'New York, NY 10023', 'United States']",10023,,3fd66200f964a52020e81ee3,Empire State Building
97,Trader Joe's,Grocery Store,1350 Willow Ave.,,40.75363429975088,-74.02983232852095,"[{'label': 'display', 'lat': 40.75363429975088, 'lng': -74.02983232852095}]",3770,US,Hoboken,NJ,United States,"['1350 Willow Ave.', 'Hoboken, NJ 07030', 'United States']",07030,,590fa389018cbb785fbbd4e5,Empire State Building
98,Le Crocodile,French Restaurant,80 Wythe Ave,,40.721778,-73.958043,"[{'label': 'display', 'lat': 40.721778, 'lng': -73.958043}, {'label': 'entrance', 'lat': 40.721961, 'lng': -73.957952}]",3771,US,Brooklyn,NY,United States,"['80 Wythe Ave', 'Brooklyn, NY 11249', 'United States']",11249,,5db241e86a808900075f6e61,Empire State Building
99,Central Park Loop,Track,Central Park,btwn 85th & 96th St,40.77758420956305,-73.96678447723389,"[{'label': 'display', 'lat': 40.77758420956305, 'lng': -73.96678447723389}]",3614,US,New York,NY,United States,"['Central Park (btwn 85th & 96th St)', 'New York, NY 10023', 'United States']",10023,,4b76ed15f964a520366b2ee3,Empire State Building
0,Central Park - Wien Walk,Park,5th Ave. and E 61st St.,,40.766565760111106,-73.97225350141525,"[{'label': 'display', 'lat': 40.766565760111106, 'lng': -73.97225350141525}]",120,US,New York,NY,United States,"['5th Ave. and E 61st St.', 'New York, NY', 'United States']",,,4def7f02fa76c1ceac932900,Central park zoo new york
1,Jim's Shoe Repair,Shoe Store,50 E 59th St,Madison/Park,40.7634125732713,-73.97110633512361,"[{'label': 'display', 'lat': 40.7634125732713, 'lng': -73.97110633512361}]",470,US,New York,NY,United States,"['50 E 59th St (Madison/Park)', 'New York, NY 10022', 'United States']",10022,,4aae5732f964a520df6120e3,Central park zoo new york
2,Equinox East 63rd Street,Gym,817 Lexington Avenue,at E 63rd St,40.7644886843313,-73.96651148383634,"[{'label': 'display', 'lat': 40.7644886843313, 'lng': -73.96651148383634}]",567,US,New York,NY,United States,"['817 Lexington Avenue (at E 63rd St)', 'New York, NY 10065', 'United States']",10065,,4a68fb35f964a52064cb1fe3,Central park zoo new york
3,Bethesda Terrace,Plaza,Terrace Dr,at Central Park,40.77385431547793,-73.97098155596522,"[{'label': 'display', 'lat': 40.77385431547793, 'lng': -73.97098155596522}]",699,US,New York,NY,United States,"['Terrace Dr (at Central Park)', 'New York, NY 10021', 'United States']",10021,,4be709372468c9281aff0143,Central park zoo new york
4,Bethesda Fountain,Fountain,Terrace Dr,Central Park,40.77429373881737,-73.9708399772644,"[{'label': 'display', 'lat': 40.77429373881737, 'lng': -73.9708399772644}]",749,US,New York,NY,United States,"['Terrace Dr (Central Park)', 'New York, NY 10021', 'United States']",10021,,4a6b8bf4f964a52018cf1fe3,Central park zoo new york
5,Saint Laurent,Boutique,3 E 57th St,btwn 5th Ave and 6th Ave,40.76297783182334,-73.97323146073056,"[{'label': 'entrance', 'lat': 40.762842, 'lng': -73.973356}, {'label': 'display', 'lat': 40.76297783182334, 'lng': -73.97323146073056}]",527,US,New York,NY,United States,"['3 E 57th St (btwn 5th Ave and 6th Ave)', 'New York, NY 10022', 'United States']",10022,,4b20181bf964a5201e2d24e3,Central park zoo new york
6,Museum of Modern Art (MoMA),Art Museum,11 W 53rd St,btwn 5th & 6th Ave,40.76141150395245,-73.97746170919268,,835,US,New York,NY,United States,"['11 W 53rd St (btwn 5th & 6th Ave)', 'New York, NY 10019', 'United States']",10019,,4af5a46af964a520b5fa21e3,Central park zoo new york
7,Barry's Bootcamp,Gym / Fitness Center,1216 2nd Ave,East 64th Street,40.763501,-73.962023,"[{'label': 'display', 'lat': 40.763501, 'lng': -73.962023}, {'label': 'entrance', 'lat': 40.76354, 'lng': -73.961997}]",945,US,New York,NY,United States,"['1216 2nd Ave (East 64th Street)', 'New York, NY 10065', 'United States']",10065,,521c185b11d26fe322a0b139,Central park zoo new york
8,Lincoln Center for the Performing Arts,Performing Arts Venue,70 Lincoln Center Plz,btwn Columbus & 10th Ave,40.772282300238174,-73.98294841259204,,1071,US,New York,NY,United States,"['70 Lincoln Center Plz (btwn Columbus & 10th Ave)', 'New York, NY 10023', 'United States']",10023,,3fd66200f964a52023e81ee3,Central park zoo new york
9,St. Patrick's Cathedral,Church,14 E 51st St,at 5th Ave,40.758627238578065,-73.97639751434325,"[{'label': 'display', 'lat': 40.758627238578065, 'lng': -73.97639751434325}]",1070,US,New York,NY,United States,"['14 E 51st St (at 5th Ave)', 'New York, NY 10022', 'United States']",10022,,4a3d4aecf964a52012a21fe3,Central park zoo new york
10,Bumble & Bumble,Salon / Barbershop,146 E 56th St,at Lexington Ave,40.759833,-73.969096,"[{'label': 'entrance', 'lat': 40.759909, 'lng': -73.96904}, {'label': 'display', 'lat': 40.759833, 'lng': -73.969096}]",895,US,New York,NY,United States,"['146 E 56th St (at Lexington Ave)', 'New York, NY 10022', 'United States']",10022,,4ac0f812f964a520369520e3,Central park zoo new york
11,NYRR RUNCenter,Community Center,320 W 57th St,Between 8th & 9th Avenue,40.767079052150685,-73.98392642532963,"[{'label': 'display', 'lat': 40.767079052150685, 'lng': -73.98392642532963}]",1020,US,New York,NY,United States,"['320 W 57th St (Between 8th & 9th Avenue)', 'New York, NY 10019', 'United States']",10019,,5717dac7498e22ad270b634a,Central park zoo new york
12,Top of the Rock Observation Deck,Scenic Lookout,30 Rockefeller Plz,btwn 5th & 6th Ave,40.759095065214055,-73.97935153748539,"[{'label': 'display', 'lat': 40.759095065214055, 'lng': -73.97935153748539}]",1138,US,New York,NY,United States,"['30 Rockefeller Plz (btwn 5th & 6th Ave)', 'New York, NY 10112', 'United States']",10112,,43a48f1bf964a520502c1fe3,Central park zoo new york
13,Radio City Music Hall,Concert Hall,1260 Avenue of the Americas,at W 50th St,40.759850056828405,-73.97934397752239,"[{'label': 'display', 'lat': 40.759850056828405, 'lng': -73.97934397752239}]",1069,US,New York,NY,United States,"['1260 Avenue of the Americas (at W 50th St)', 'New York, NY 10020', 'United States']",10020,,4161e400f964a520721d1fe3,Central park zoo new york
14,Equinox West 50th Street,Gym,1633 Broadway,at Paramount Plz,40.761912,-73.984268,"[{'label': 'display', 'lat': 40.761912, 'lng': -73.984268}]",1223,US,New York,NY,United States,"['1633 Broadway (at Paramount Plz)', 'New York, NY 10019', 'United States']",10019,,4a66f31af964a520dcc81fe3,Central park zoo new york
15,David H. Koch Theater,Theater,Lincoln Center Plaza,at W 63rd St & Columbus Ave,40.772292228782284,-73.9832624208871,"[{'label': 'display', 'lat': 40.772292228782284, 'lng': -73.9832624208871}]",1095,US,New York,NY,United States,"['Lincoln Center Plaza (at W 63rd St & Columbus Ave)', 'New York, NY 10023', 'United States']",10023,,49ff4eecf964a52005701fe3,Central park zoo new york
16,The Metropolitan Opera (Metropolitan Opera),Opera House,70 Lincoln Center Plz,at Columbus Ave,40.77274188001071,-73.9844012260437,"[{'label': 'display', 'lat': 40.77274188001071, 'lng': -73.9844012260437}]",1203,US,New York,NY,United States,"['70 Lincoln Center Plz (at Columbus Ave)', 'New York, NY 10023', 'United States']",10023,,48e480eef964a52022521fe3,Central park zoo new york
17,Central Park Loop,Track,Central Park,btwn 85th & 96th St,40.77758420956305,-73.96678447723389,"[{'label': 'display', 'lat': 40.77758420956305, 'lng': -73.96678447723389}]",1190,US,New York,NY,United States,"['Central Park (btwn 85th & 96th St)', 'New York, NY 10023', 'United States']",10023,,4b76ed15f964a520366b2ee3,Central park zoo new york
18,The Metropolitan Museum of Art (Metropolitan Museum of Art),Art Museum,1000 5th Ave,btwn E 80th & E 84th St,40.77972902126812,-73.96341562271118,"[{'label': 'display', 'lat': 40.77972902126812, 'lng': -73.96341562271118}]",1525,US,New York,NY,United States,"['1000 5th Ave (btwn E 80th & E 84th St)', 'New York, NY 10028', 'United States']",10028,,427c0500f964a52097211fe3,Central park zoo new york
19,Delacorte Theater,Theater,Central Park,at 79th St,40.78026521337381,-73.96878004074097,"[{'label': 'display', 'lat': 40.78026521337381, 'lng': -73.96878004074097}]",1433,US,New York,NY,United States,"['Central Park (at 79th St)', 'New York, NY 10028', 'United States']",10028,Central Park,4a314b58f964a520ae991fe3,Central park zoo new york
20,Metropolitan Museum Steps,Plaza,1000 5th Ave,at 82nd St,40.77906283716806,-73.96251440048218,"[{'label': 'display', 'lat': 40.77906283716806, 'lng': -73.96251440048218}]",1498,US,New York,NY,United States,"['1000 5th Ave (at 82nd St)', 'New York, NY 10028', 'United States']",10028,,4c30f3c166e40f477d4fc48b,Central park zoo new york
21,TMPL,Gym,355 W 49th St,8th Avenue,40.762549725908436,-73.98817701719275,"[{'label': 'display', 'lat': 40.762549725908436, 'lng': -73.98817701719275}]",1487,US,New York,NY,United States,"['355 W 49th St (8th Avenue)', 'New York, NY 10019', 'United States']",10019,,566dd692498eadbfb75805ef,Central park zoo new york
22,Levain Bakery,Bakery,351 Amsterdam Ave,at W 77th St,40.781513,-73.97926,"[{'label': 'display', 'lat': 40.781513, 'lng': -73.97926}]",1670,US,New York,NY,United States,"['351 Amsterdam Ave (at W 77th St)', 'New York, NY 10024', 'United States']",10024,Upper West Side,59541640a22db738071fa21f,Central park zoo new york
23,Central Park,Park,59th St to 110th St,5th Ave to Central Park West,40.78307608904521,-73.96549701690674,"[{'label': 'display', 'lat': 40.78307608904521, 'lng': -73.96549701690674}]",1803,US,New York,NY,United States,"['59th St to 110th St (5th Ave to Central Park West)', 'New York, NY 10028', 'United States']",10028,,412d2800f964a520df0c1fe3,Central park zoo new york
24,Temple of Dendur,Exhibit,1000 5th Ave,at 83rd St.,40.780411446833284,-73.96267533302307,"[{'label': 'display', 'lat': 40.780411446833284, 'lng': -73.96267533302307}]",1622,US,New York,NY,United States,"['1000 5th Ave (at 83rd St.)', 'New York, NY 10028', 'United States']",10028,,4c8bd941ed3ab60c65216221,Central park zoo new york
25,Los Tacos No. 1,Taco Place,229 W 43rd St,btwn 7th & 8th Ave,40.757237,-73.987454,"[{'label': 'display', 'lat': 40.757237, 'lng': -73.987454}]",1750,US,New York,NY,United States,"['229 W 43rd St (btwn 7th & 8th Ave)', 'New York, NY 10036', 'United States']",10036,Theater District,59580ce6db1d8148fee3d383,Central park zoo new york
26,Beacon Theatre,Concert Hall,2124 Broadway,at W 74th St,40.78055425266116,-73.98043206426468,"[{'label': 'display', 'lat': 40.78055425266116, 'lng': -73.98043206426468}]",1613,US,New York,NY,United States,"['2124 Broadway (at W 74th St)', 'New York, NY 10023', 'United States']",10023,,3fd66200f964a52020e81ee3,Central park zoo new york
27,Bryant Park,Park,E 42nd St,btwn 5th & 6th Ave,40.75387292806952,-73.9836287498474,"[{'label': 'display', 'lat': 40.75387292806952, 'lng': -73.9836287498474}]",1822,US,New York,NY,United States,"['E 42nd St (btwn 5th & 6th Ave)', 'New York, NY 10018', 'United States']",10018,Midtown,3fd66200f964a520d7f11ee3,Central park zoo new york
28,Levain Bakery,Bakery,1484 3rd Ave,,40.777354,-73.955284,"[{'label': 'display', 'lat': 40.777354, 'lng': -73.955284}, {'label': 'entrance', 'lat': 40.777377, 'lng': -73.955245}]",1768,US,New York,NY,United States,"['1484 3rd Ave', 'New York, NY 10028', 'United States']",10028,,5d2ccef540f3b0002ffe517d,Central park zoo new york
29,Majestic Theatre,Theater,245 W 44th St,btwn 7th & 8th Ave,40.758267590709956,-73.98810677744484,"[{'label': 'display', 'lat': 40.758267590709956, 'lng': -73.98810677744484}, {'label': 'entrance', 'lat': 40.758313, 'lng': -73.988096}]",1720,US,New York,NY,United States,"['245 W 44th St (btwn 7th & 8th Ave)', 'New York, NY 10036', 'United States']",10036,,4b1074dbf964a520d47023e3,Central park zoo new york
30,Books Kinokuniya,Bookstore,1073 Avenue of the Americas,btwn W 40th & W 41st St,40.75405320187223,-73.98464945969599,"[{'label': 'display', 'lat': 40.75405320187223, 'lng': -73.98464945969599}]",1854,US,New York,NY,United States,"['1073 Avenue of the Americas (btwn W 40th & W 41st St)', 'New York, NY 10018', 'United States']",10018,,49ef71e3f964a520b8681fe3,Central park zoo new york
31,SoulCycle East 83rd,Cycle Studio,1470 3rd Ave,at E 83rd St,40.77699051498346,-73.95532907885685,"[{'label': 'display', 'lat': 40.77699051498346, 'lng': -73.95532907885685}]",1741,US,New York,NY,United States,"['1470 3rd Ave (at E 83rd St)', 'New York, NY 10028', 'United States']",10028,,4be1910358102d7faed64156,Central park zoo new york
32,New York Public Library Terrace,Plaza,476 5th Ave,btwn W 40th & W 42nd St,40.75301665207755,-73.98147986022437,"[{'label': 'display', 'lat': 40.75301665207755, 'lng': -73.98147986022437}]",1815,US,New York,NY,United States,"['476 5th Ave (btwn W 40th & W 42nd St)', 'New York, NY 10018', 'United States']",10018,,4ddaf97b183802d5373be2eb,Central park zoo new york
33,Broadway Dance Center,Dance Studio,322 W 45th St,btwn 8th & 9th Ave,40.759489759762815,-73.98956180541293,"[{'label': 'display', 'lat': 40.759489759762815, 'lng': -73.98956180541293}, {'label': 'entrance', 'lat': 40.759547, 'lng': -73.989549}]",1745,US,New York,NY,United States,"['322 W 45th St (btwn 8th & 9th Ave)', 'New York, NY 10036', 'United States']",10036,,46a9bed8f964a52054491fe3,Central park zoo new york
34,Riverside Park South,Park,Riverside Blvd,65th & 72nd Sts,40.77832352747964,-73.98911118507385,"[{'label': 'display', 'lat': 40.77832352747964, 'lng': -73.98911118507385}]",1882,US,New York,NY,United States,"['Riverside Blvd (65th & 72nd Sts)', 'New York, NY 10069', 'United States']",10069,,4adf50e7f964a520627921e3,Central park zoo new york
35,MUJI,Miscellaneous Shop,475 5th Ave,at E 41st St,40.75247095108687,-73.98134887218475,"[{'label': 'display', 'lat': 40.75247095108687, 'lng': -73.98134887218475}]",1865,US,New York,NY,United States,"['475 5th Ave (at E 41st St)', 'New York, NY 10017', 'United States']",10017,Midtown East,564e6919498e9cd069ba3df0,Central park zoo new york
36,New Amsterdam Theater,Theater,214 W 42nd St,btwn Broadway & 8th Ave,40.755844024448116,-73.98832119495094,"[{'label': 'display', 'lat': 40.755844024448116, 'lng': -73.98832119495094}]",1908,US,New York,NY,United States,"['214 W 42nd St (btwn Broadway & 8th Ave)', 'New York, NY 10036', 'United States']",10036,,4f139003e4b000502e3959c2,Central park zoo new york
37,Jacqueline Kennedy Onassis Reservoir,Reservoir,Central Park,btwn 85th & 96th St,40.784546812155064,-73.96436989470621,,1988,US,New York,NY,United States,"['Central Park (btwn 85th & 96th St)', 'New York, NY 10024', 'United States']",10024,Central Park,4a229fa8f964a520797d1fe3,Central park zoo new york
38,Schaller & Weber,Butcher,1654 2nd Ave,86th St.,40.77768033358095,-73.95192930892712,"[{'label': 'display', 'lat': 40.77768033358095, 'lng': -73.95192930892712}, {'label': 'entrance', 'lat': 40.777601, 'lng': -73.951733}]",2019,US,New York,NY,United States,"['1654 2nd Ave (86th St.)', 'New York, NY 10028', 'United States']",10028,,4b2fbd84f964a520dfee24e3,Central park zoo new york
39,City Swiggers,Beer Store,320 E 86th St,btw. 1st Ave. & 2nd Ave.,40.777514591474876,-73.95082007552988,"[{'label': 'display', 'lat': 40.777514591474876, 'lng': -73.95082007552988}, {'label': 'entrance', 'lat': 40.777382, 'lng': -73.950951}]",2087,US,New York,NY,United States,"['320 E 86th St (btw. 1st Ave. & 2nd Ave.)', 'New York, NY 10028', 'United States']",10028,,4e95c2f5108168120ad2f07e,Central park zoo new york
40,PlantShed,Flower Shop,555 Columbus Ave,at W 87th St,40.78699161930172,-73.97156685590744,"[{'label': 'display', 'lat': 40.78699161930172, 'lng': -73.97156685590744}]",2158,US,New York,NY,United States,"['555 Columbus Ave (at W 87th St)', 'New York, NY 10024', 'United States']",10024,,5abfa9de01235845ec89c1f4,Central park zoo new york
41,Carl Schurz Park,Park,599 E 86th St,at East End Ave,40.77511823969361,-73.94376326618595,"[{'label': 'display', 'lat': 40.77511823969361, 'lng': -73.94376326618595}]",2511,US,New York,NY,United States,"['599 E 86th St (at East End Ave)', 'New York, NY 10028', 'United States']",10028,,49ee4a7df964a52047681fe3,Central park zoo new york
42,Kitchen Arts & Letters,Bookstore,1435 Lexington Ave,at E 93rd St,40.784225883561795,-73.95213507194228,"[{'label': 'display', 'lat': 40.784225883561795, 'lng': -73.95213507194228}, {'label': 'entrance', 'lat': 40.784273, 'lng': -73.951943}]",2487,US,New York,NY,United States,"['1435 Lexington Ave (at E 93rd St)', 'New York, NY 10128', 'United States']",10128,,4aeca8edf964a52002ca21e3,Central park zoo new york
43,Gantry Plaza State Park,State / Provincial Park,474 48th Ave,at Center Blvd,40.74655794031174,-73.9580512046814,"[{'label': 'display', 'lat': 40.74655794031174, 'lng': -73.9580512046814}]",2615,US,Queens,NY,United States,"['474 48th Ave (at Center Blvd)', 'Long Island City, NY 11109', 'United States']",11109,Long Island City,43222200f964a5209c271fe3,Central park zoo new york
44,Riverside Park Promenade,Waterfront,Riverside Dr,at W 83rd St,40.788761710401126,-73.98291397770349,"[{'label': 'display', 'lat': 40.788761710401126, 'lng': -73.98291397770349}]",2533,US,New York,NY,United States,"['Riverside Dr (at W 83rd St)', 'New York, NY', 'United States']",,,4e653fd745ddda352ac83d80,Central park zoo new york
45,Equinox East 92nd Street,Gym,203 East 92nd Street,3rd Ave,40.7825,-73.95058,"[{'label': 'display', 'lat': 40.7825, 'lng': -73.95058}]",2442,US,New York,NY,United States,"['203 East 92nd Street (3rd Ave)', 'New York, NY 10128', 'United States']",10128,,574dc71c498ef19a1c178913,Central park zoo new york
46,Hunter's Point South Park,Park,Center Boulevard and Borden Avenue,Center Boulevard and Borden Avenue,40.742631898404746,-73.96070122718811,"[{'label': 'display', 'lat': 40.742631898404746, 'lng': -73.96070122718811}]",2934,US,Queens,NY,United States,"['Center Boulevard and Borden Avenue (Center Boulevard and Borden Avenue)', 'Long Island City, NY 11101', 'United States']",11101,Long Island City,521cd1c293cd469ce13dbb47,Central park zoo new york
47,The Cliffs at Long Island City,Climbing Gym,11-11 44th Dr,,40.74862722288911,-73.94889232182862,"[{'label': 'display', 'lat': 40.74862722288911, 'lng': -73.94889232182862}]",2864,US,Long Island City,NY,United States,"['11-11 44th Dr', 'Long Island City, NY 11101', 'United States']",11101,,51571a47e4b03e8de7ec9dbc,Central park zoo new york
48,East Meadow,Field,Central Park,5th Ave btwn 98th & 101st St,40.79015961797437,-73.95549774169922,"[{'label': 'display', 'lat': 40.79015961797437, 'lng': -73.95549774169922}]",2864,US,New York,NY,United States,"['Central Park (5th Ave btwn 98th & 101st St)', 'New York, NY 10029', 'United States']",10029,Central Park,4ba233dbf964a5206fe337e3,Central park zoo new york
49,Fifth Hammer Brewing Company,Brewery,10-28 46th Ave,,40.74655304120232,-73.95143837388332,"[{'label': 'display', 'lat': 40.74655304120232, 'lng': -73.95143837388332}]",2906,US,New York,NY,United States,"['10-28 46th Ave', 'New York, NY 11101', 'United States']",11101,Hunters Point,580bbe6c38fa27d5b5a442cc,Central park zoo new york
50,Kalustyan's,Gourmet Shop,123 Lexington Ave,at E 28th St,40.74283152687895,-73.98226690988776,"[{'label': 'display', 'lat': 40.74283152687895, 'lng': -73.98226690988776}, {'label': 'entrance', 'lat': 40.742795, 'lng': -73.982187}]",2893,US,New York,NY,United States,"['123 Lexington Ave (at E 28th St)', 'New York, NY 10016', 'United States']",10016,,45940e37f964a52055401fe3,Central park zoo new york
51,Madison Square Park,Park,Madison Ave,btwn E 23rd & E 26th St,40.74226204193276,-73.98800611495972,"[{'label': 'display', 'lat': 40.74226204193276, 'lng': -73.98800611495972}]",3132,US,New York,NY,United States,"['Madison Ave (btwn E 23rd & E 26th St)', 'New York, NY 10010', 'United States']",10010,,40b68100f964a5207d001fe3,Central park zoo new york
52,Conservatory Garden,Garden,1231 5th Ave,at 105th St,40.79386107302837,-73.952397108078,"[{'label': 'display', 'lat': 40.79386107302837, 'lng': -73.952397108078}]",3351,US,New York,NY,United States,"['1231 5th Ave (at 105th St)', 'New York, NY 10029', 'United States']",10029,,4a9ad8d2f964a520213320e3,Central park zoo new york
53,Equinox Gramercy,Gym,315 Park Ave S,24th St,40.74074907098539,-73.98577092778955,"[{'label': 'display', 'lat': 40.74074907098539, 'lng': -73.98577092778955}]",3211,US,New York,NY,United States,"['315 Park Ave S (24th St)', 'New York, NY 10010', 'United States']",10010,,574da377498ef19a1bd08764,Central park zoo new york
54,SoulCycle 19th,Cycle Studio,8 W 19th St,btwn 5th & 6th Ave,40.73943353393161,-73.99216844203444,"[{'label': 'display', 'lat': 40.73943353393161, 'lng': -73.99216844203444}, {'label': 'entrance', 'lat': 40.739315, 'lng': -73.992139}]",3573,US,New York,NY,United States,"['8 W 19th St (btwn 5th & 6th Ave)', 'New York, NY 10011', 'United States']",10011,,529f289511d21133dd08a7ec,Central park zoo new york
55,Gagosian Gallery,Art Gallery,555 W 24th St,btwn 10th & 11th Ave,40.74949263854115,-74.00604977829569,"[{'label': 'display', 'lat': 40.74949263854115, 'lng': -74.00604977829569}, {'label': 'entrance', 'lat': 40.749414, 'lng': -74.005971}]",3518,US,New York,NY,United States,"['555 W 24th St (btwn 10th & 11th Ave)', 'New York, NY 10011', 'United States']",10011,,442e41b2f964a520da311fe3,Central park zoo new york
56,High Line,Park,btwn Gansevoort & W 34th St,btwn 10th & 12th Ave,40.746825,-74.005507,"[{'label': 'display', 'lat': 40.746825, 'lng': -74.005507}]",3661,US,New York,NY,United States,"['btwn Gansevoort & W 34th St (btwn 10th & 12th Ave)', 'New York, NY 10011', 'United States']",10011,,40f1d480f964a5206a0a1fe3,Central park zoo new york
57,The Fhitting Room,Gym,31 W 19th St,btwn 5th & 6th Ave,40.739856864845336,-73.99319384310543,"[{'label': 'display', 'lat': 40.739856864845336, 'lng': -73.99319384310543}, {'label': 'entrance', 'lat': 40.739879, 'lng': -73.993022}]",3574,US,New York,NY,United States,"['31 W 19th St (btwn 5th & 6th Ave)', 'New York, NY 10011', 'United States']",10011,,54cd0dab498e6e5d8a9d7866,Central park zoo new york
58,Gramercy Tavern,American Restaurant,42 E 20th St,btwn Broadway & Park Ave,40.73859964402532,-73.98831951156392,"[{'label': 'display', 'lat': 40.73859964402532, 'lng': -73.98831951156392}]",3514,US,New York,NY,United States,"['42 E 20th St (btwn Broadway & Park Ave)', 'New York, NY 10003', 'United States']",10003,,3fd66200f964a520aee91ee3,Central park zoo new york
59,Fishs Eddy,Furniture / Home Store,889 Broadway,btwn E 19th & E 20th St,40.738605357398285,-73.99001680796049,"[{'label': 'display', 'lat': 40.738605357398285, 'lng': -73.99001680796049}, {'label': 'entrance', 'lat': 40.738705, 'lng': -73.990025}]",3572,US,New York,NY,United States,"['889 Broadway (btwn E 19th & E 20th St)', 'New York, NY 10003', 'United States']",10003,,4a5d186ff964a5202bbd1fe3,Central park zoo new york
60,Caffè Panna,Ice Cream Shop,77 Irving Pl,,40.736985,-73.98676,"[{'label': 'display', 'lat': 40.736985, 'lng': -73.98676}]",3632,US,New York,NY,United States,"['77 Irving Pl', 'New York, NY 10003', 'United States']",10003,,5d7d70ed72c4090008784186,Central park zoo new york
61,Malt & Mold,Gourmet Shop,362 2nd Ave,btwn 21st & 22nd St,40.736677,-73.981472,"[{'label': 'display', 'lat': 40.736677, 'lng': -73.981472}]",3536,US,New York,NY,United States,"['362 2nd Ave (btwn 21st & 22nd St)', 'New York, NY 10010', 'United States']",10010,Gramercy Park,545fd218498e729596469903,Central park zoo new york
62,Pier 63 Hudson River Park,Park,205 12th Ave,23rd Street,40.749500287685564,-74.00859475135803,"[{'label': 'display', 'lat': 40.749500287685564, 'lng': -74.00859475135803}]",3696,US,New York,NY,United States,"['205 12th Ave (23rd Street)', 'New York, NY 10001', 'United States']",10001,,4dd56920cc3f75159f13cb35,Central park zoo new york
63,Yoga To The People,Yoga Studio,2710 Broadway Fl 3,btwn W 104th St & W 103rd St,40.79958793827724,-73.96819700736744,"[{'label': 'display', 'lat': 40.79958793827724, 'lng': -73.96819700736744}]",3574,US,New York,NY,United States,"['2710 Broadway Fl 3 (btwn W 104th St & W 103rd St)', 'New York, NY 10025', 'United States']",10025,,54f39f29498ec36f934f3381,Central park zoo new york
64,Union Square Greenmarket,Farmers Market,1 Union Sq W,btwn 14th & 17th St,40.736296929163295,-73.9905813271794,,3826,US,New York,NY,United States,"['1 Union Sq W (btwn 14th & 17th St)', 'New York, NY 10003', 'United States']",10003,Union Square,49c27575f964a520f1551fe3,Central park zoo new york
65,David Zwirner Gallery,Art Gallery,537 W 20th St,at 11th Ave,40.74663515827365,-74.007328748703,"[{'label': 'display', 'lat': 40.74663515827365, 'lng': -74.007328748703}]",3794,US,New York,NY,United States,"['537 W 20th St (at 11th Ave)', 'New York, NY 10011', 'United States']",10011,,533d96d9498e88fc19384087,Central park zoo new york
66,Bakeri,Bakery,105 Freeman St,btwn Franklin & Manhattan Ave,40.73426471796698,-73.95755265756051,"[{'label': 'display', 'lat': 40.73426471796698, 'lng': -73.95755265756051}, {'label': 'entrance', 'lat': 40.73429, 'lng': -73.957528}]",3901,US,Brooklyn,NY,United States,"['105 Freeman St (btwn Franklin & Manhattan Ave)', 'Brooklyn, NY 11222', 'United States']",11222,,534d61c4498e9beff4c74e8b,Central park zoo new york
67,West 105th Street Dog Run - Riverside Park,Dog Run,105th St.,@ Riverside Dr.,40.80248358610179,-73.97144265286585,"[{'label': 'display', 'lat': 40.80248358610179, 'lng': -73.97144265286585}]",3883,US,New York,NY,United States,"['105th St. (@ Riverside Dr.)', 'New York, NY', 'United States']",,Upper West Side,4bc0fad074a9a5936018d1f6,Central park zoo new york
68,Los Tacos No. 1,Taco Place,75 9th Ave,,40.74224400629671,-74.00596115738153,"[{'label': 'display', 'lat': 40.74224400629671, 'lng': -74.00596115738153}]",4030,US,New York,NY,United States,"['75 9th Ave', 'New York, NY 10011', 'United States']",10011,Chelsea,5196b9ff498e8a6be4336a03,Central park zoo new york
69,Soothr,Thai Restaurant,204 E 13th St,3rd Ave,40.732287,-73.987287,"[{'label': 'display', 'lat': 40.732287, 'lng': -73.987287}]",4141,US,New York,NY,United States,"['204 E 13th St (3rd Ave)', 'New York, NY 10003', 'United States']",10003,,5ee66a36459579000887cd2b,Central park zoo new york
70,High Line 10th Ave Amphitheatre,Scenic Lookout,High Line,10th Ave & W 17th St,40.74398136118615,-74.00684429247669,"[{'label': 'display', 'lat': 40.74398136118615, 'lng': -74.00684429247669}]",3952,US,New York,NY,United States,"['High Line (10th Ave & W 17th St)', 'New York, NY 10011', 'United States']",10011,,4eb1877fd3e36bac670d2898,Central park zoo new york
71,Los Mariscos,Seafood Restaurant,409 West 15th St,9th Ave,40.74199972810892,-74.00589003225507,"[{'label': 'display', 'lat': 40.74199972810892, 'lng': -74.00589003225507}, {'label': 'entrance', 'lat': 40.742132, 'lng': -74.005809}]",4045,US,New York,NY,United States,"['409 West 15th St (9th Ave)', 'New York, NY 10011', 'United States']",10011,,57e9590a498e2d323e20c667,Central park zoo new york
72,Dandelion Wine,Wine Shop,153 Franklin St,,40.731667,-73.958015,"[{'label': 'entrance', 'lat': 40.731674, 'lng': -73.958013}, {'label': 'display', 'lat': 40.731667, 'lng': -73.958015}]",4166,US,Brooklyn,NY,United States,"['153 Franklin St', 'Brooklyn, NY 11222', 'United States']",11222,,4bd61b737b1876b008038c86,Central park zoo new york
73,Peridance Capezio Center,Dance Studio,126 E 13th St,btwn 3rd & 4th Ave,40.73298682271572,-73.98852241900113,"[{'label': 'display', 'lat': 40.73298682271572, 'lng': -73.98852241900113}]",4101,US,New York,NY,United States,"['126 E 13th St (btwn 3rd & 4th Ave)', 'New York, NY 10003', 'United States']",10003,,4b6cba70f964a520ae4f2ce3,Central park zoo new york
74,Strand Bookstore,Bookstore,828 Broadway,at E 12th St,40.73314000684355,-73.99091161094675,"[{'label': 'display', 'lat': 40.73314000684355, 'lng': -73.99091161094675}]",4159,US,New York,NY,United States,"['828 Broadway (at E 12th St)', 'New York, NY 10003', 'United States']",10003,,4a8cc1d4f964a520130f20e3,Central park zoo new york
75,Astoria Park,Park,at Shore & Ditmars Blvd,19th St,40.77731479754369,-73.92379168498111,"[{'label': 'display', 'lat': 40.77731479754369, 'lng': -73.92379168498111}]",4192,US,Astoria,NY,United States,"['at Shore & Ditmars Blvd (19th St)', 'Astoria, NY 11106', 'United States']",11106,,43222200f964a5209a271fe3,Central park zoo new york
76,Trader Joe's Wine Shop,Wine Shop,138 E 14th St,btwn Irving Pl & 3rd Ave,40.73374950502162,-73.98812798965065,"[{'label': 'display', 'lat': 40.73374950502162, 'lng': -73.98812798965065}, {'label': 'entrance', 'lat': 40.733559, 'lng': -73.988201}]",4010,US,New York,NY,United States,"['138 E 14th St (btwn Irving Pl & 3rd Ave)', 'New York, NY 10003', 'United States']",10003,,4a319883f964a520fc991fe3,Central park zoo new york
77,WNYC Transmitter Park,Park,2 Greenpoint Ave,at West St,40.729958061792885,-73.96073341369629,"[{'label': 'display', 'lat': 40.729958061792885, 'lng': -73.96073341369629}]",4293,US,Brooklyn,NY,United States,"['2 Greenpoint Ave (at West St)', 'Brooklyn, NY 11222', 'United States']",11222,,4a4e944df964a520baae1fe3,Central park zoo new york
78,Riverside Park,Park,Riverside Dr,btwn W 59th St & St. Clair Pl,40.806809433439135,-73.96865129470825,,4372,US,New York,NY,United States,"['Riverside Dr (btwn W 59th St & St. Clair Pl)', 'New York, NY 10025', 'United States']",10025,,4a06ff94f964a52017731fe3,Central park zoo new york
79,Milkflower,Pizza Place,34-12 31st Ave,btwn 34th & 35th St,40.76303652205835,-73.92070512501088,"[{'label': 'display', 'lat': 40.76303652205835, 'lng': -73.92070512501088}]",4341,US,Astoria,NY,United States,"['34-12 31st Ave (btwn 34th & 35th St)', 'Astoria, NY 11106', 'United States']",11106,"Astoria, Queens, NY",51831cbf498e954462363bd3,Central park zoo new york
80,Juice Vitality,Juice Bar,192 1st Ave,btwn E 11 & 12th St,40.729714154152404,-73.98365020751953,"[{'label': 'display', 'lat': 40.729714154152404, 'lng': -73.98365020751953}]",4333,US,New York,NY,United States,"['192 1st Ave (btwn E 11 & 12th St)', 'New York, NY 10009', 'United States']",10009,,56965f2e498e683a33b43263,Central park zoo new york
81,Aux Merveilleux de Fred,Bakery,37 8th Ave,at W 4th St,40.738334,-74.004114,"[{'label': 'display', 'lat': 40.738334, 'lng': -74.004114}, {'label': 'entrance', 'lat': 40.738342, 'lng': -74.004102}]",4244,US,New York,NY,United States,"['37 8th Ave (at W 4th St)', 'New York, NY 10014', 'United States']",10014,,54b1b78e498ee334f9b739be,Central park zoo new york
82,Mah-Ze-Dahr Bakery,Bakery,28 Greenwich Ave,Charles Street,40.735117,-74.000052,"[{'label': 'display', 'lat': 40.735117, 'lng': -74.000052}]",4328,US,New York,NY,United States,"['28 Greenwich Ave (Charles Street)', 'New York, NY 10011', 'United States']",10011,,568c0ce238fafac5f5ffe631,Central park zoo new york
83,4 Charles Prime Rib,Steakhouse,4 Charles St,Greenwich Ave,40.735219495923204,-74.0006488188871,"[{'label': 'display', 'lat': 40.735219495923204, 'lng': -74.0006488188871}, {'label': 'entrance', 'lat': 40.735185, 'lng': -74.000661}]",4346,US,New York,NY,United States,"['4 Charles St (Greenwich Ave)', 'New York, NY 10014', 'United States']",10014,,585164b77220e62219c9aeb6,Central park zoo new york
84,Paulie Gee’s,Pizza Place,708 Continental Cir #1514,,40.729801246987186,-73.95852046352437,"[{'label': 'display', 'lat': 40.729801246987186, 'lng': -73.95852046352437}]",4355,US,Brooklyn,NY,United States,"['708 Continental Cir #1514', 'Brooklyn, NY 11222', 'United States']",11222,,4b9709fcf964a520c4f434e3,Central park zoo new york
85,Levain Bakery,Bakery,2167 Frederick Douglass Blvd,117th St,40.80489688300106,-73.9550975367771,"[{'label': 'display', 'lat': 40.80489688300106, 'lng': -73.9550975367771}, {'label': 'entrance', 'lat': 40.804945, 'lng': -73.9552}]",4385,US,New York,NY,United States,"['2167 Frederick Douglass Blvd (117th St)', 'New York, NY 10026', 'United States']",10026,,4d4f05ec9a2a6ea8dd5a286f,Central park zoo new york
86,McNally Jackson Store: Goods for the Study,Stationery Store,50 W 8th St,6th Avenue,40.73323795162194,-73.99873304139692,"[{'label': 'display', 'lat': 40.73323795162194, 'lng': -73.99873304139692}]",4446,US,New York,NY,United States,"['50 W 8th St (6th Avenue)', 'New York, NY 10011', 'United States']",10011,,58557b6b158b966de0f7e137,Central park zoo new york
87,Van Leeuwen Ice Cream,Ice Cream Shop,152 W 10th St,at Waverly Pl,40.734397,-74.001271,"[{'label': 'display', 'lat': 40.734397, 'lng': -74.001271}]",4451,US,New York,NY,United States,"['152 W 10th St (at Waverly Pl)', 'New York, NY 10012', 'United States']",10012,,54e7da22498e3dd7390e3136,Central park zoo new york
88,Washington Square Park,Park,W 4th St,btwn MacDougal St & University Pl,40.73081579656163,-73.9974582195282,"[{'label': 'display', 'lat': 40.73081579656163, 'lng': -73.9974582195282}]",4629,US,New York,NY,United States,"['W 4th St (btwn MacDougal St & University Pl)', 'New York, NY 10012', 'United States']",10012,,40abf500f964a52035f31ee3,Central park zoo new york
89,Ample Hills Creamery,Ice Cream Shop,34-02 30th Ave,34th St,40.765562,-73.919012,"[{'label': 'display', 'lat': 40.765562, 'lng': -73.919012}]",4460,US,Astoria,NY,United States,"['34-02 30th Ave (34th St)', 'Astoria, NY 11103', 'United States']",11103,,5ae115d7c84d18002393461a,Central park zoo new york
90,Three Lives & Company,Bookstore,154 W 10th St,at Waverly Pl,40.73442736120523,-74.00139223025236,"[{'label': 'display', 'lat': 40.73442736120523, 'lng': -74.00139223025236}, {'label': 'entrance', 'lat': 40.734388, 'lng': -74.001534}]",4454,US,New York,NY,United States,"['154 W 10th St (at Waverly Pl)', 'New York, NY 10014', 'United States']",10014,,4a7cbad7f964a5205fed1fe3,Central park zoo new york
91,Sottocasa Pizzeria,Pizza Place,227 Malcolm X Blvd,,40.805550131828895,-73.94743518730202,"[{'label': 'display', 'lat': 40.805550131828895, 'lng': -73.94743518730202}]",4698,US,New York,NY,United States,"['227 Malcolm X Blvd', 'New York, NY 10027', 'United States']",10027,Central Harlem,56e86a57cd1017cb53f3e8f9,Central park zoo new york
92,Barry's Bootcamp,Gym / Fitness Center,419 Lafayette St,,40.7289365661847,-73.99224109396116,"[{'label': 'display', 'lat': 40.7289365661847, 'lng': -73.99224109396116}]",4634,US,New York,NY,United States,"['419 Lafayette St', 'New York, NY 10003', 'United States']",10003,,54393961498e8986492d5b67,Central park zoo new york
93,Dulce de Leche,Bakery,65 Bergenline Ave,btwn 65th St & 66th St,40.793358,-74.01276,"[{'label': 'display', 'lat': 40.793358, 'lng': -74.01276}, {'label': 'entrance', 'lat': 40.793379, 'lng': -74.012773}]",4485,US,West New York,NJ,United States,"['65 Bergenline Ave (btwn 65th St & 66th St)', 'West New York, NJ 07093', 'United States']",07093,,4c9e7ff7542b224b73d8f49f,Central park zoo new york
94,té (Té Company),Tea Room,163 W 10th St,btwn 7th Ave S & Waverly Pl,40.734537261775436,-74.00182753801346,"[{'label': 'display', 'lat': 40.734537261775436, 'lng': -74.00182753801346}, {'label': 'entrance', 'lat': 40.734479, 'lng': -74.001886}]",4465,US,New York,NY,United States,"['163 W 10th St (btwn 7th Ave S & Waverly Pl)', 'New York, NY 10014', 'United States']",10014,,56292858498e5a271a288948,Central park zoo new york
95,The Public Theater,Theater,425 Lafayette St,btwn Astor Pl & E 4th St,40.72916880904384,-73.99207037967628,"[{'label': 'display', 'lat': 40.72916880904384, 'lng': -73.99207037967628}]",4605,US,New York,NY,United States,"['425 Lafayette St (btwn Astor Pl & E 4th St)', 'New York, NY 10003', 'United States']",10003,,4a07986bf964a52087731fe3,Central park zoo new york
96,Astor Wines & Spirits,Wine Shop,399 Lafayette St,at E 4th St,40.727984051970246,-73.99304720778368,"[{'label': 'display', 'lat': 40.727984051970246, 'lng': -73.99304720778368}]",4758,US,New York,NY,United States,"['399 Lafayette St (at E 4th St)', 'New York, NY 10003', 'United States']",10003,,49f37c28f964a520a36a1fe3,Central park zoo new york
97,Hudson River Park,Park,West St,btwn Battery Pl & W 59th St,40.735423194032656,-74.0101672581913,,4824,US,New York,NY,United States,"['West St (btwn Battery Pl & W 59th St)', 'New York, NY 10011', 'United States']",10011,,4b240a1ff964a520b25f24e3,Central park zoo new york
98,L'Artusi,Italian Restaurant,228 W 10th St,btwn Bleecker & Hudson St,40.733887817554255,-74.00511448337453,"[{'label': 'display', 'lat': 40.733887817554255, 'lng': -74.00511448337453}, {'label': 'entrance', 'lat': 40.733857, 'lng': -74.005156}]",4685,US,New York,NY,United States,"['228 W 10th St (btwn Bleecker & Hudson St)', 'New York, NY 10014', 'United States']",10014,,4a27289cf964a52062911fe3,Central park zoo new york
99,Murray's Cheese,Cheese Shop,254 Bleecker St,at Cornelia St,40.73100494148146,-74.00291557226433,"[{'label': 'display', 'lat': 40.73100494148146, 'lng': -74.00291557226433}]",4843,US,New York,NY,United States,"['254 Bleecker St (at Cornelia St)', 'New York, NY 10014', 'United States']",10014,,3fd66200f964a5203ee71ee3,Central park zoo new york
0,Conservatory Garden,Garden,1231 5th Ave,at 105th St,40.79386107302837,-73.952397108078,"[{'label': 'display', 'lat': 40.79386107302837, 'lng': -73.952397108078}]",157,US,New York,NY,United States,"['1231 5th Ave (at 105th St)', 'New York, NY 10029', 'United States']",10029,,4a9ad8d2f964a520213320e3,Museum of the City of New York
1,East Meadow,Field,Central Park,5th Ave btwn 98th & 101st St,40.79015961797437,-73.95549774169922,"[{'label': 'display', 'lat': 40.79015961797437, 'lng': -73.95549774169922}]",406,US,New York,NY,United States,"['Central Park (5th Ave btwn 98th & 101st St)', 'New York, NY 10029', 'United States']",10029,Central Park,4ba233dbf964a5206fe337e3,Museum of the City of New York
2,Kitchen Arts & Letters,Bookstore,1435 Lexington Ave,at E 93rd St,40.784225883561795,-73.95213507194228,"[{'label': 'display', 'lat': 40.784225883561795, 'lng': -73.95213507194228}, {'label': 'entrance', 'lat': 40.784273, 'lng': -73.951943}]",923,US,New York,NY,United States,"['1435 Lexington Ave (at E 93rd St)', 'New York, NY 10128', 'United States']",10128,,4aeca8edf964a52002ca21e3,Museum of the City of New York
3,Equinox East 92nd Street,Gym,203 East 92nd Street,3rd Ave,40.7825,-73.95058,"[{'label': 'display', 'lat': 40.7825, 'lng': -73.95058}]",1119,US,New York,NY,United States,"['203 East 92nd Street (3rd Ave)', 'New York, NY 10128', 'United States']",10128,,574dc71c498ef19a1c178913,Museum of the City of New York
4,Jacqueline Kennedy Onassis Reservoir,Reservoir,Central Park,btwn 85th & 96th St,40.784546812155064,-73.96436989470621,,1381,US,New York,NY,United States,"['Central Park (btwn 85th & 96th St)', 'New York, NY 10024', 'United States']",10024,Central Park,4a229fa8f964a520797d1fe3,Museum of the City of New York
5,Sottocasa Pizzeria,Pizza Place,227 Malcolm X Blvd,,40.805550131828895,-73.94743518730202,"[{'label': 'display', 'lat': 40.805550131828895, 'lng': -73.94743518730202}]",1497,US,New York,NY,United States,"['227 Malcolm X Blvd', 'New York, NY 10027', 'United States']",10027,Central Harlem,56e86a57cd1017cb53f3e8f9,Museum of the City of New York
6,Central Park,Park,59th St to 110th St,5th Ave to Central Park West,40.78307608904521,-73.96549701690674,"[{'label': 'display', 'lat': 40.78307608904521, 'lng': -73.96549701690674}]",1560,US,New York,NY,United States,"['59th St to 110th St (5th Ave to Central Park West)', 'New York, NY 10028', 'United States']",10028,,412d2800f964a520df0c1fe3,Museum of the City of New York
7,Levain Bakery,Bakery,2167 Frederick Douglass Blvd,117th St,40.80489688300106,-73.9550975367771,"[{'label': 'display', 'lat': 40.80489688300106, 'lng': -73.9550975367771}, {'label': 'entrance', 'lat': 40.804945, 'lng': -73.9552}]",1405,US,New York,NY,United States,"['2167 Frederick Douglass Blvd (117th St)', 'New York, NY 10026', 'United States']",10026,,4d4f05ec9a2a6ea8dd5a286f,Museum of the City of New York
8,The Metropolitan Museum of Art (Metropolitan Museum of Art),Art Museum,1000 5th Ave,btwn E 80th & E 84th St,40.77972902126812,-73.96341562271118,"[{'label': 'display', 'lat': 40.77972902126812, 'lng': -73.96341562271118}]",1727,US,New York,NY,United States,"['1000 5th Ave (btwn E 80th & E 84th St)', 'New York, NY 10028', 'United States']",10028,,427c0500f964a52097211fe3,Museum of the City of New York
9,Levain Bakery,Bakery,1484 3rd Ave,,40.777354,-73.955284,"[{'label': 'display', 'lat': 40.777354, 'lng': -73.955284}, {'label': 'entrance', 'lat': 40.777377, 'lng': -73.955245}]",1713,US,New York,NY,United States,"['1484 3rd Ave', 'New York, NY 10028', 'United States']",10028,,5d2ccef540f3b0002ffe517d,Museum of the City of New York
10,Temple of Dendur,Exhibit,1000 5th Ave,at 83rd St.,40.780411446833284,-73.96267533302307,"[{'label': 'display', 'lat': 40.780411446833284, 'lng': -73.96267533302307}]",1629,US,New York,NY,United States,"['1000 5th Ave (at 83rd St.)', 'New York, NY 10028', 'United States']",10028,,4c8bd941ed3ab60c65216221,Museum of the City of New York
11,Yoga To The People,Yoga Studio,2710 Broadway Fl 3,btwn W 104th St & W 103rd St,40.79958793827724,-73.96819700736744,"[{'label': 'display', 'lat': 40.79958793827724, 'lng': -73.96819700736744}]",1589,US,New York,NY,United States,"['2710 Broadway Fl 3 (btwn W 104th St & W 103rd St)', 'New York, NY 10025', 'United States']",10025,,54f39f29498ec36f934f3381,Museum of the City of New York
12,Schaller & Weber,Butcher,1654 2nd Ave,86th St.,40.77768033358095,-73.95192930892712,"[{'label': 'display', 'lat': 40.77768033358095, 'lng': -73.95192930892712}, {'label': 'entrance', 'lat': 40.777601, 'lng': -73.951733}]",1651,US,New York,NY,United States,"['1654 2nd Ave (86th St.)', 'New York, NY 10028', 'United States']",10028,,4b2fbd84f964a520dfee24e3,Museum of the City of New York
13,Metropolitan Museum Steps,Plaza,1000 5th Ave,at 82nd St,40.77906283716806,-73.96251440048218,"[{'label': 'display', 'lat': 40.77906283716806, 'lng': -73.96251440048218}]",1748,US,New York,NY,United States,"['1000 5th Ave (at 82nd St)', 'New York, NY 10028', 'United States']",10028,,4c30f3c166e40f477d4fc48b,Museum of the City of New York
14,City Swiggers,Beer Store,320 E 86th St,btw. 1st Ave. & 2nd Ave.,40.777514591474876,-73.95082007552988,"[{'label': 'display', 'lat': 40.777514591474876, 'lng': -73.95082007552988}, {'label': 'entrance', 'lat': 40.777382, 'lng': -73.950951}]",1672,US,New York,NY,United States,"['320 E 86th St (btw. 1st Ave. & 2nd Ave.)', 'New York, NY 10028', 'United States']",10028,,4e95c2f5108168120ad2f07e,Museum of the City of New York
15,SoulCycle East 83rd,Cycle Studio,1470 3rd Ave,at E 83rd St,40.77699051498346,-73.95532907885685,"[{'label': 'display', 'lat': 40.77699051498346, 'lng': -73.95532907885685}]",1753,US,New York,NY,United States,"['1470 3rd Ave (at E 83rd St)', 'New York, NY 10028', 'United States']",10028,,4be1910358102d7faed64156,Museum of the City of New York
16,PlantShed,Flower Shop,555 Columbus Ave,at W 87th St,40.78699161930172,-73.97156685590744,"[{'label': 'display', 'lat': 40.78699161930172, 'lng': -73.97156685590744}]",1775,US,New York,NY,United States,"['555 Columbus Ave (at W 87th St)', 'New York, NY 10024', 'United States']",10024,,5abfa9de01235845ec89c1f4,Museum of the City of New York
17,Carl Schurz Park,Park,599 E 86th St,at East End Ave,40.77511823969361,-73.94376326618595,"[{'label': 'display', 'lat': 40.77511823969361, 'lng': -73.94376326618595}]",2052,US,New York,NY,United States,"['599 E 86th St (at East End Ave)', 'New York, NY 10028', 'United States']",10028,,49ee4a7df964a52047681fe3,Museum of the City of New York
18,Delacorte Theater,Theater,Central Park,at 79th St,40.78026521337381,-73.96878004074097,"[{'label': 'display', 'lat': 40.78026521337381, 'lng': -73.96878004074097}]",1976,US,New York,NY,United States,"['Central Park (at 79th St)', 'New York, NY 10028', 'United States']",10028,Central Park,4a314b58f964a520ae991fe3,Museum of the City of New York
19,Riverside Park,Park,Riverside Dr,btwn W 59th St & St. Clair Pl,40.806809433439135,-73.96865129470825,,2132,US,New York,NY,United States,"['Riverside Dr (btwn W 59th St & St. Clair Pl)', 'New York, NY 10025', 'United States']",10025,,4a06ff94f964a52017731fe3,Museum of the City of New York
20,West 105th Street Dog Run - Riverside Park,Dog Run,105th St.,@ Riverside Dr.,40.80248358610179,-73.97144265286585,"[{'label': 'display', 'lat': 40.80248358610179, 'lng': -73.97144265286585}]",1992,US,New York,NY,United States,"['105th St. (@ Riverside Dr.)', 'New York, NY', 'United States']",,Upper West Side,4bc0fad074a9a5936018d1f6,Museum of the City of New York
21,Central Park Loop,Track,Central Park,btwn 85th & 96th St,40.77758420956305,-73.96678447723389,"[{'label': 'display', 'lat': 40.77758420956305, 'lng': -73.96678447723389}]",2087,US,New York,NY,United States,"['Central Park (btwn 85th & 96th St)', 'New York, NY 10023', 'United States']",10023,,4b76ed15f964a520366b2ee3,Museum of the City of New York
22,Bethesda Fountain,Fountain,Terrace Dr,Central Park,40.77429373881737,-73.9708399772644,"[{'label': 'display', 'lat': 40.77429373881737, 'lng': -73.9708399772644}]",2586,US,New York,NY,United States,"['Terrace Dr (Central Park)', 'New York, NY 10021', 'United States']",10021,,4a6b8bf4f964a52018cf1fe3,Museum of the City of New York
23,Levain Bakery,Bakery,351 Amsterdam Ave,at W 77th St,40.781513,-73.97926,"[{'label': 'display', 'lat': 40.781513, 'lng': -73.97926}]",2617,US,New York,NY,United States,"['351 Amsterdam Ave (at W 77th St)', 'New York, NY 10024', 'United States']",10024,Upper West Side,59541640a22db738071fa21f,Museum of the City of New York
24,Bethesda Terrace,Plaza,Terrace Dr,at Central Park,40.77385431547793,-73.97098155596522,"[{'label': 'display', 'lat': 40.77385431547793, 'lng': -73.97098155596522}]",2631,US,New York,NY,United States,"['Terrace Dr (at Central Park)', 'New York, NY 10021', 'United States']",10021,,4be709372468c9281aff0143,Museum of the City of New York
25,Riverside Park Promenade,Waterfront,Riverside Dr,at W 83rd St,40.788761710401126,-73.98291397770349,"[{'label': 'display', 'lat': 40.788761710401126, 'lng': -73.98291397770349}]",2654,US,New York,NY,United States,"['Riverside Dr (at W 83rd St)', 'New York, NY', 'United States']",,,4e653fd745ddda352ac83d80,Museum of the City of New York
26,Astoria Park,Park,at Shore & Ditmars Blvd,19th St,40.77731479754369,-73.92379168498111,"[{'label': 'display', 'lat': 40.77731479754369, 'lng': -73.92379168498111}]",2905,US,Astoria,NY,United States,"['at Shore & Ditmars Blvd (19th St)', 'Astoria, NY 11106', 'United States']",11106,,43222200f964a5209a271fe3,Museum of the City of New York
27,Beacon Theatre,Concert Hall,2124 Broadway,at W 74th St,40.78055425266116,-73.98043206426468,"[{'label': 'display', 'lat': 40.78055425266116, 'lng': -73.98043206426468}]",2755,US,New York,NY,United States,"['2124 Broadway (at W 74th St)', 'New York, NY 10023', 'United States']",10023,,3fd66200f964a52020e81ee3,Museum of the City of New York
28,Central Park - Wien Walk,Park,5th Ave. and E 61st St.,,40.766565760111106,-73.97225350141525,"[{'label': 'display', 'lat': 40.766565760111106, 'lng': -73.97225350141525}]",3363,US,New York,NY,United States,"['5th Ave. and E 61st St.', 'New York, NY', 'United States']",,,4def7f02fa76c1ceac932900,Museum of the City of New York
29,Barry's Bootcamp,Gym / Fitness Center,1216 2nd Ave,East 64th Street,40.763501,-73.962023,"[{'label': 'display', 'lat': 40.763501, 'lng': -73.962023}, {'label': 'entrance', 'lat': 40.76354, 'lng': -73.961997}]",3342,US,New York,NY,United States,"['1216 2nd Ave (East 64th Street)', 'New York, NY 10065', 'United States']",10065,,521c185b11d26fe322a0b139,Museum of the City of New York
30,Equinox East 63rd Street,Gym,817 Lexington Avenue,at E 63rd St,40.7644886843313,-73.96651148383634,"[{'label': 'display', 'lat': 40.7644886843313, 'lng': -73.96651148383634}]",3357,US,New York,NY,United States,"['817 Lexington Avenue (at E 63rd St)', 'New York, NY 10065', 'United States']",10065,,4a68fb35f964a52064cb1fe3,Museum of the City of New York
31,Lincoln Center for the Performing Arts,Performing Arts Venue,70 Lincoln Center Plz,btwn Columbus & 10th Ave,40.772282300238174,-73.98294841259204,,3458,US,New York,NY,United States,"['70 Lincoln Center Plz (btwn Columbus & 10th Ave)', 'New York, NY 10023', 'United States']",10023,,3fd66200f964a52023e81ee3,Museum of the City of New York
32,Riverside Park South,Park,Riverside Blvd,65th & 72nd Sts,40.77832352747964,-73.98911118507385,"[{'label': 'display', 'lat': 40.77832352747964, 'lng': -73.98911118507385}]",3518,US,New York,NY,United States,"['Riverside Blvd (65th & 72nd Sts)', 'New York, NY 10069', 'United States']",10069,,4adf50e7f964a520627921e3,Museum of the City of New York
33,The Metropolitan Opera (Metropolitan Opera),Opera House,70 Lincoln Center Plz,at Columbus Ave,40.77274188001071,-73.9844012260437,"[{'label': 'display', 'lat': 40.77274188001071, 'lng': -73.9844012260437}]",3520,US,New York,NY,United States,"['70 Lincoln Center Plz (at Columbus Ave)', 'New York, NY 10023', 'United States']",10023,,48e480eef964a52022521fe3,Museum of the City of New York
34,David H. Koch Theater,Theater,Lincoln Center Plaza,at W 63rd St & Columbus Ave,40.772292228782284,-73.9832624208871,"[{'label': 'display', 'lat': 40.772292228782284, 'lng': -73.9832624208871}]",3478,US,New York,NY,United States,"['Lincoln Center Plaza (at W 63rd St & Columbus Ave)', 'New York, NY 10023', 'United States']",10023,,49ff4eecf964a52005701fe3,Museum of the City of New York
35,Jim's Shoe Repair,Shoe Store,50 E 59th St,Madison/Park,40.7634125732713,-73.97110633512361,"[{'label': 'display', 'lat': 40.7634125732713, 'lng': -73.97110633512361}]",3625,US,New York,NY,United States,"['50 E 59th St (Madison/Park)', 'New York, NY 10022', 'United States']",10022,,4aae5732f964a520df6120e3,Museum of the City of New York
36,Saint Laurent,Boutique,3 E 57th St,btwn 5th Ave and 6th Ave,40.76297783182334,-73.97323146073056,"[{'label': 'entrance', 'lat': 40.762842, 'lng': -73.973356}, {'label': 'display', 'lat': 40.76297783182334, 'lng': -73.97323146073056}]",3751,US,New York,NY,United States,"['3 E 57th St (btwn 5th Ave and 6th Ave)', 'New York, NY 10022', 'United States']",10022,,4b20181bf964a5201e2d24e3,Museum of the City of New York
37,NYRR RUNCenter,Community Center,320 W 57th St,Between 8th & 9th Avenue,40.767079052150685,-73.98392642532963,"[{'label': 'display', 'lat': 40.767079052150685, 'lng': -73.98392642532963}]",3917,US,New York,NY,United States,"['320 W 57th St (Between 8th & 9th Avenue)', 'New York, NY 10019', 'United States']",10019,,5717dac7498e22ad270b634a,Museum of the City of New York
38,Bumble & Bumble,Salon / Barbershop,146 E 56th St,at Lexington Ave,40.759833,-73.969096,"[{'label': 'entrance', 'lat': 40.759909, 'lng': -73.96904}, {'label': 'display', 'lat': 40.759833, 'lng': -73.969096}]",3919,US,New York,NY,United States,"['146 E 56th St (at Lexington Ave)', 'New York, NY 10022', 'United States']",10022,,4ac0f812f964a520369520e3,Museum of the City of New York
39,"Sal, Kris & Charlie's Deli",Sandwich Place,33-12 23rd Ave,btwn 33rd & 35th St,40.773304024636666,-73.91143439217934,"[{'label': 'display', 'lat': 40.773304024636666, 'lng': -73.91143439217934}]",4019,US,Astoria,NY,United States,"['33-12 23rd Ave (btwn 33rd & 35th St)', 'Astoria, NY 11105', 'United States']",11105,,4aeddba9f964a52096cf21e3,Museum of the City of New York
40,Milkflower,Pizza Place,34-12 31st Ave,btwn 34th & 35th St,40.76303652205835,-73.92070512501088,"[{'label': 'display', 'lat': 40.76303652205835, 'lng': -73.92070512501088}]",4200,US,Astoria,NY,United States,"['34-12 31st Ave (btwn 34th & 35th St)', 'Astoria, NY 11106', 'United States']",11106,"Astoria, Queens, NY",51831cbf498e954462363bd3,Museum of the City of New York
41,Museum of Modern Art (MoMA),Art Museum,11 W 53rd St,btwn 5th & 6th Ave,40.76141150395245,-73.97746170919268,,4082,US,New York,NY,United States,"['11 W 53rd St (btwn 5th & 6th Ave)', 'New York, NY 10019', 'United States']",10019,,4af5a46af964a520b5fa21e3,Museum of the City of New York
42,Ample Hills Creamery,Ice Cream Shop,34-02 30th Ave,34th St,40.765562,-73.919012,"[{'label': 'display', 'lat': 40.765562, 'lng': -73.919012}]",4079,US,Astoria,NY,United States,"['34-02 30th Ave (34th St)', 'Astoria, NY 11103', 'United States']",11103,,5ae115d7c84d18002393461a,Museum of the City of New York
43,St. Patrick's Cathedral,Church,14 E 51st St,at 5th Ave,40.758627238578065,-73.97639751434325,"[{'label': 'display', 'lat': 40.758627238578065, 'lng': -73.97639751434325}]",4304,US,New York,NY,United States,"['14 E 51st St (at 5th Ave)', 'New York, NY 10022', 'United States']",10022,,4a3d4aecf964a52012a21fe3,Museum of the City of New York
44,Equinox West 50th Street,Gym,1633 Broadway,at Paramount Plz,40.761912,-73.984268,"[{'label': 'display', 'lat': 40.761912, 'lng': -73.984268}]",4369,US,New York,NY,United States,"['1633 Broadway (at Paramount Plz)', 'New York, NY 10019', 'United States']",10019,,4a66f31af964a520dcc81fe3,Museum of the City of New York
45,Radio City Music Hall,Concert Hall,1260 Avenue of the Americas,at W 50th St,40.759850056828405,-73.97934397752239,"[{'label': 'display', 'lat': 40.759850056828405, 'lng': -73.97934397752239}]",4314,US,New York,NY,United States,"['1260 Avenue of the Americas (at W 50th St)', 'New York, NY 10020', 'United States']",10020,,4161e400f964a520721d1fe3,Museum of the City of New York
46,Top of the Rock Observation Deck,Scenic Lookout,30 Rockefeller Plz,btwn 5th & 6th Ave,40.759095065214055,-73.97935153748539,"[{'label': 'display', 'lat': 40.759095065214055, 'lng': -73.97935153748539}]",4385,US,New York,NY,United States,"['30 Rockefeller Plz (btwn 5th & 6th Ave)', 'New York, NY 10112', 'United States']",10112,,43a48f1bf964a520502c1fe3,Museum of the City of New York
47,TMPL,Gym,355 W 49th St,8th Avenue,40.762549725908436,-73.98817701719275,"[{'label': 'display', 'lat': 40.762549725908436, 'lng': -73.98817701719275}]",4530,US,New York,NY,United States,"['355 W 49th St (8th Avenue)', 'New York, NY 10019', 'United States']",10019,,566dd692498eadbfb75805ef,Museum of the City of New York
48,Sorriso Italian Pork Store,Butcher,4416 30th Ave,,40.762172151396804,-73.91137852187187,"[{'label': 'display', 'lat': 40.762172151396804, 'lng': -73.91137852187187}]",4798,US,Astoria,NY,United States,"['4416 30th Ave', 'Astoria, NY 11103', 'United States']",11103,,4b5a413ff964a520cfb728e3,Museum of the City of New York
49,Los Tacos No. 1,Taco Place,229 W 43rd St,btwn 7th & 8th Ave,40.757237,-73.987454,"[{'label': 'display', 'lat': 40.757237, 'lng': -73.987454}]",4944,US,New York,NY,United States,"['229 W 43rd St (btwn 7th & 8th Ave)', 'New York, NY 10036', 'United States']",10036,Theater District,59580ce6db1d8148fee3d383,Museum of the City of New York
50,The Cliffs at Long Island City,Climbing Gym,11-11 44th Dr,,40.74862722288911,-73.94889232182862,"[{'label': 'display', 'lat': 40.74862722288911, 'lng': -73.94889232182862}]",4891,US,Long Island City,NY,United States,"['11-11 44th Dr', 'Long Island City, NY 11101', 'United States']",11101,,51571a47e4b03e8de7ec9dbc,Museum of the City of New York
51,Bryant Park,Park,E 42nd St,btwn 5th & 6th Ave,40.75387292806952,-73.9836287498474,"[{'label': 'display', 'lat': 40.75387292806952, 'lng': -73.9836287498474}]",5069,US,New York,NY,United States,"['E 42nd St (btwn 5th & 6th Ave)', 'New York, NY 10018', 'United States']",10018,Midtown,3fd66200f964a520d7f11ee3,Museum of the City of New York
52,Majestic Theatre,Theater,245 W 44th St,btwn 7th & 8th Ave,40.758267590709956,-73.98810677744484,"[{'label': 'display', 'lat': 40.758267590709956, 'lng': -73.98810677744484}, {'label': 'entrance', 'lat': 40.758313, 'lng': -73.988096}]",4888,US,New York,NY,United States,"['245 W 44th St (btwn 7th & 8th Ave)', 'New York, NY 10036', 'United States']",10036,,4b1074dbf964a520d47023e3,Museum of the City of New York
53,Broadway Dance Center,Dance Studio,322 W 45th St,btwn 8th & 9th Ave,40.759489759762815,-73.98956180541293,"[{'label': 'display', 'lat': 40.759489759762815, 'lng': -73.98956180541293}, {'label': 'entrance', 'lat': 40.759547, 'lng': -73.989549}]",4862,US,New York,NY,United States,"['322 W 45th St (btwn 8th & 9th Ave)', 'New York, NY 10036', 'United States']",10036,,46a9bed8f964a52054491fe3,Museum of the City of New York
54,Gantry Plaza State Park,State / Provincial Park,474 48th Ave,at Center Blvd,40.74655794031174,-73.9580512046814,"[{'label': 'display', 'lat': 40.74655794031174, 'lng': -73.9580512046814}]",5143,US,Queens,NY,United States,"['474 48th Ave (at Center Blvd)', 'Long Island City, NY 11109', 'United States']",11109,Long Island City,43222200f964a5209c271fe3,Museum of the City of New York
55,Books Kinokuniya,Bookstore,1073 Avenue of the Americas,btwn W 40th & W 41st St,40.75405320187223,-73.98464945969599,"[{'label': 'display', 'lat': 40.75405320187223, 'lng': -73.98464945969599}]",5098,US,New York,NY,United States,"['1073 Avenue of the Americas (btwn W 40th & W 41st St)', 'New York, NY 10018', 'United States']",10018,,49ef71e3f964a520b8681fe3,Museum of the City of New York
56,New York Public Library Terrace,Plaza,476 5th Ave,btwn W 40th & W 42nd St,40.75301665207755,-73.98147986022437,"[{'label': 'display', 'lat': 40.75301665207755, 'lng': -73.98147986022437}]",5058,US,New York,NY,United States,"['476 5th Ave (btwn W 40th & W 42nd St)', 'New York, NY 10018', 'United States']",10018,,4ddaf97b183802d5373be2eb,Museum of the City of New York
57,New Amsterdam Theater,Theater,214 W 42nd St,btwn Broadway & 8th Ave,40.755844024448116,-73.98832119495094,"[{'label': 'display', 'lat': 40.755844024448116, 'lng': -73.98832119495094}]",5112,US,New York,NY,United States,"['214 W 42nd St (btwn Broadway & 8th Ave)', 'New York, NY 10036', 'United States']",10036,,4f139003e4b000502e3959c2,Museum of the City of New York
58,MUJI,Miscellaneous Shop,475 5th Ave,at E 41st St,40.75247095108687,-73.98134887218475,"[{'label': 'display', 'lat': 40.75247095108687, 'lng': -73.98134887218475}]",5106,US,New York,NY,United States,"['475 5th Ave (at E 41st St)', 'New York, NY 10017', 'United States']",10017,Midtown East,564e6919498e9cd069ba3df0,Museum of the City of New York
59,Fifth Hammer Brewing Company,Brewery,10-28 46th Ave,,40.74655304120232,-73.95143837388332,"[{'label': 'display', 'lat': 40.74655304120232, 'lng': -73.95143837388332}]",5116,US,New York,NY,United States,"['10-28 46th Ave', 'New York, NY 11101', 'United States']",11101,Hunters Point,580bbe6c38fa27d5b5a442cc,Museum of the City of New York
60,Dulce de Leche,Bakery,65 Bergenline Ave,btwn 65th St & 66th St,40.793358,-74.01276,"[{'label': 'display', 'lat': 40.793358, 'lng': -74.01276}, {'label': 'entrance', 'lat': 40.793379, 'lng': -74.012773}]",5137,US,West New York,NJ,United States,"['65 Bergenline Ave (btwn 65th St & 66th St)', 'West New York, NJ 07093', 'United States']",07093,,4c9e7ff7542b224b73d8f49f,Museum of the City of New York
61,Hunter's Point South Park,Park,Center Boulevard and Borden Avenue,Center Boulevard and Borden Avenue,40.742631898404746,-73.96070122718811,"[{'label': 'display', 'lat': 40.742631898404746, 'lng': -73.96070122718811}]",5603,US,Queens,NY,United States,"['Center Boulevard and Borden Avenue (Center Boulevard and Borden Avenue)', 'Long Island City, NY 11101', 'United States']",11101,Long Island City,521cd1c293cd469ce13dbb47,Museum of the City of New York
62,Kalustyan's,Gourmet Shop,123 Lexington Ave,at E 28th St,40.74283152687895,-73.98226690988776,"[{'label': 'display', 'lat': 40.74283152687895, 'lng': -73.98226690988776}, {'label': 'entrance', 'lat': 40.742795, 'lng': -73.982187}]",6097,US,New York,NY,United States,"['123 Lexington Ave (at E 28th St)', 'New York, NY 10016', 'United States']",10016,,45940e37f964a52055401fe3,Museum of the City of New York
63,Madison Square Park,Park,Madison Ave,btwn E 23rd & E 26th St,40.74226204193276,-73.98800611495972,"[{'label': 'display', 'lat': 40.74226204193276, 'lng': -73.98800611495972}]",6372,US,New York,NY,United States,"['Madison Ave (btwn E 23rd & E 26th St)', 'New York, NY 10010', 'United States']",10010,,40b68100f964a5207d001fe3,Museum of the City of New York
64,Hudson River Greenway,Trail,Hudson River Greenway,,40.84988118297566,-73.94634064997031,"[{'label': 'display', 'lat': 40.84988118297566, 'lng': -73.94634064997031}]",6402,US,New York,NY,United States,"['Hudson River Greenway', 'New York, NY 10033', 'United States']",10033,,4e27472dfa762797e591b9e0,Museum of the City of New York
65,Bakeri,Bakery,105 Freeman St,btwn Franklin & Manhattan Ave,40.73426471796698,-73.95755265756051,"[{'label': 'display', 'lat': 40.73426471796698, 'lng': -73.95755265756051}, {'label': 'entrance', 'lat': 40.73429, 'lng': -73.957528}]",6502,US,Brooklyn,NY,United States,"['105 Freeman St (btwn Franklin & Manhattan Ave)', 'Brooklyn, NY 11222', 'United States']",11222,,534d61c4498e9beff4c74e8b,Museum of the City of New York
66,Equinox Gramercy,Gym,315 Park Ave S,24th St,40.74074907098539,-73.98577092778955,"[{'label': 'display', 'lat': 40.74074907098539, 'lng': -73.98577092778955}]",6434,US,New York,NY,United States,"['315 Park Ave S (24th St)', 'New York, NY 10010', 'United States']",10010,,574da377498ef19a1bd08764,Museum of the City of New York
67,Gagosian Gallery,Art Gallery,555 W 24th St,btwn 10th & 11th Ave,40.74949263854115,-74.00604977829569,"[{'label': 'display', 'lat': 40.74949263854115, 'lng': -74.00604977829569}, {'label': 'entrance', 'lat': 40.749414, 'lng': -74.005971}]",6621,US,New York,NY,United States,"['555 W 24th St (btwn 10th & 11th Ave)', 'New York, NY 10011', 'United States']",10011,,442e41b2f964a520da311fe3,Museum of the City of New York
68,Dandelion Wine,Wine Shop,153 Franklin St,,40.731667,-73.958015,"[{'label': 'entrance', 'lat': 40.731674, 'lng': -73.958013}, {'label': 'display', 'lat': 40.731667, 'lng': -73.958015}]",6793,US,Brooklyn,NY,United States,"['153 Franklin St', 'Brooklyn, NY 11222', 'United States']",11222,,4bd61b737b1876b008038c86,Museum of the City of New York
69,High Line,Park,btwn Gansevoort & W 34th St,btwn 10th & 12th Ave,40.746825,-74.005507,"[{'label': 'display', 'lat': 40.746825, 'lng': -74.005507}]",6809,US,New York,NY,United States,"['btwn Gansevoort & W 34th St (btwn 10th & 12th Ave)', 'New York, NY 10011', 'United States']",10011,,40f1d480f964a5206a0a1fe3,Museum of the City of New York
70,SoulCycle 19th,Cycle Studio,8 W 19th St,btwn 5th & 6th Ave,40.73943353393161,-73.99216844203444,"[{'label': 'display', 'lat': 40.73943353393161, 'lng': -73.99216844203444}, {'label': 'entrance', 'lat': 40.739315, 'lng': -73.992139}]",6818,US,New York,NY,United States,"['8 W 19th St (btwn 5th & 6th Ave)', 'New York, NY 10011', 'United States']",10011,,529f289511d21133dd08a7ec,Museum of the City of New York
71,Pier 63 Hudson River Park,Park,205 12th Ave,23rd Street,40.749500287685564,-74.00859475135803,"[{'label': 'display', 'lat': 40.749500287685564, 'lng': -74.00859475135803}]",6771,US,New York,NY,United States,"['205 12th Ave (23rd Street)', 'New York, NY 10001', 'United States']",10001,,4dd56920cc3f75159f13cb35,Museum of the City of New York
72,Gramercy Tavern,American Restaurant,42 E 20th St,btwn Broadway & Park Ave,40.73859964402532,-73.98831951156392,"[{'label': 'display', 'lat': 40.73859964402532, 'lng': -73.98831951156392}]",6745,US,New York,NY,United States,"['42 E 20th St (btwn Broadway & Park Ave)', 'New York, NY 10003', 'United States']",10003,,3fd66200f964a520aee91ee3,Museum of the City of New York
73,The Fhitting Room,Gym,31 W 19th St,btwn 5th & 6th Ave,40.739856864845336,-73.99319384310543,"[{'label': 'display', 'lat': 40.739856864845336, 'lng': -73.99319384310543}, {'label': 'entrance', 'lat': 40.739879, 'lng': -73.993022}]",6821,US,New York,NY,United States,"['31 W 19th St (btwn 5th & 6th Ave)', 'New York, NY 10011', 'United States']",10011,,54cd0dab498e6e5d8a9d7866,Museum of the City of New York
74,Fishs Eddy,Furniture / Home Store,889 Broadway,btwn E 19th & E 20th St,40.738605357398285,-73.99001680796049,"[{'label': 'display', 'lat': 40.738605357398285, 'lng': -73.99001680796049}, {'label': 'entrance', 'lat': 40.738705, 'lng': -73.990025}]",6811,US,New York,NY,United States,"['889 Broadway (btwn E 19th & E 20th St)', 'New York, NY 10003', 'United States']",10003,,4a5d186ff964a5202bbd1fe3,Museum of the City of New York
75,Malt & Mold,Gourmet Shop,362 2nd Ave,btwn 21st & 22nd St,40.736677,-73.981472,"[{'label': 'display', 'lat': 40.736677, 'lng': -73.981472}]",6700,US,New York,NY,United States,"['362 2nd Ave (btwn 21st & 22nd St)', 'New York, NY 10010', 'United States']",10010,Gramercy Park,545fd218498e729596469903,Museum of the City of New York
76,Caffè Panna,Ice Cream Shop,77 Irving Pl,,40.736985,-73.98676,"[{'label': 'display', 'lat': 40.736985, 'lng': -73.98676}]",6848,US,New York,NY,United States,"['77 Irving Pl', 'New York, NY 10003', 'United States']",10003,,5d7d70ed72c4090008784186,Museum of the City of New York
77,WNYC Transmitter Park,Park,2 Greenpoint Ave,at West St,40.729958061792885,-73.96073341369629,"[{'label': 'display', 'lat': 40.729958061792885, 'lng': -73.96073341369629}]",7004,US,Brooklyn,NY,United States,"['2 Greenpoint Ave (at West St)', 'Brooklyn, NY 11222', 'United States']",11222,,4a4e944df964a520baae1fe3,Museum of the City of New York
78,David Zwirner Gallery,Art Gallery,537 W 20th St,at 11th Ave,40.74663515827365,-74.007328748703,"[{'label': 'display', 'lat': 40.74663515827365, 'lng': -74.007328748703}]",6927,US,New York,NY,United States,"['537 W 20th St (at 11th Ave)', 'New York, NY 10011', 'United States']",10011,,533d96d9498e88fc19384087,Museum of the City of New York
79,Union Square Greenmarket,Farmers Market,1 Union Sq W,btwn 14th & 17th St,40.736296929163295,-73.9905813271794,,7060,US,New York,NY,United States,"['1 Union Sq W (btwn 14th & 17th St)', 'New York, NY 10003', 'United States']",10003,Union Square,49c27575f964a520f1551fe3,Museum of the City of New York
80,Paulie Gee’s,Pizza Place,708 Continental Cir #1514,,40.729801246987186,-73.95852046352437,"[{'label': 'display', 'lat': 40.729801246987186, 'lng': -73.95852046352437}]",7004,US,Brooklyn,NY,United States,"['708 Continental Cir #1514', 'Brooklyn, NY 11222', 'United States']",11222,,4b9709fcf964a520c4f434e3,Museum of the City of New York
81,Los Tacos No. 1,Taco Place,75 9th Ave,,40.74224400629671,-74.00596115738153,"[{'label': 'display', 'lat': 40.74224400629671, 'lng': -74.00596115738153}]",7222,US,New York,NY,United States,"['75 9th Ave', 'New York, NY 10011', 'United States']",10011,Chelsea,5196b9ff498e8a6be4336a03,Museum of the City of New York
82,High Line 10th Ave Amphitheatre,Scenic Lookout,High Line,10th Ave & W 17th St,40.74398136118615,-74.00684429247669,"[{'label': 'display', 'lat': 40.74398136118615, 'lng': -74.00684429247669}]",7121,US,New York,NY,United States,"['High Line (10th Ave & W 17th St)', 'New York, NY 10011', 'United States']",10011,,4eb1877fd3e36bac670d2898,Museum of the City of New York
83,Soothr,Thai Restaurant,204 E 13th St,3rd Ave,40.732287,-73.987287,"[{'label': 'display', 'lat': 40.732287, 'lng': -73.987287}]",7341,US,New York,NY,United States,"['204 E 13th St (3rd Ave)', 'New York, NY 10003', 'United States']",10003,,5ee66a36459579000887cd2b,Museum of the City of New York
84,Los Mariscos,Seafood Restaurant,409 West 15th St,9th Ave,40.74199972810892,-74.00589003225507,"[{'label': 'display', 'lat': 40.74199972810892, 'lng': -74.00589003225507}, {'label': 'entrance', 'lat': 40.742132, 'lng': -74.005809}]",7239,US,New York,NY,United States,"['409 West 15th St (9th Ave)', 'New York, NY 10011', 'United States']",10011,,57e9590a498e2d323e20c667,Museum of the City of New York
85,Peridance Capezio Center,Dance Studio,126 E 13th St,btwn 3rd & 4th Ave,40.73298682271572,-73.98852241900113,"[{'label': 'display', 'lat': 40.73298682271572, 'lng': -73.98852241900113}]",7314,US,New York,NY,United States,"['126 E 13th St (btwn 3rd & 4th Ave)', 'New York, NY 10003', 'United States']",10003,,4b6cba70f964a520ae4f2ce3,Museum of the City of New York
86,Strand Bookstore,Bookstore,828 Broadway,at E 12th St,40.73314000684355,-73.99091161094675,"[{'label': 'display', 'lat': 40.73314000684355, 'lng': -73.99091161094675}]",7386,US,New York,NY,United States,"['828 Broadway (at E 12th St)', 'New York, NY 10003', 'United States']",10003,,4a8cc1d4f964a520130f20e3,Museum of the City of New York
87,Trader Joe's Wine Shop,Wine Shop,138 E 14th St,btwn Irving Pl & 3rd Ave,40.73374950502162,-73.98812798965065,"[{'label': 'display', 'lat': 40.73374950502162, 'lng': -73.98812798965065}, {'label': 'entrance', 'lat': 40.733559, 'lng': -73.988201}]",7223,US,New York,NY,United States,"['138 E 14th St (btwn Irving Pl & 3rd Ave)', 'New York, NY 10003', 'United States']",10003,,4a319883f964a520fc991fe3,Museum of the City of New York
88,Juice Vitality,Juice Bar,192 1st Ave,btwn E 11 & 12th St,40.729714154152404,-73.98365020751953,"[{'label': 'display', 'lat': 40.729714154152404, 'lng': -73.98365020751953}]",7488,US,New York,NY,United States,"['192 1st Ave (btwn E 11 & 12th St)', 'New York, NY 10009', 'United States']",10009,,56965f2e498e683a33b43263,Museum of the City of New York
89,Birria-Landia Taco Truck,Food Truck,77-99 Roosevelt Ave,78th St,40.74725134613699,-73.88771249450689,"[{'label': 'display', 'lat': 40.74725134613699, 'lng': -73.88771249450689}]",7388,US,New York,NY,United States,"['77-99 Roosevelt Ave (78th St)', 'New York, NY 11372', 'United States']",11372,,5d6b080fc391b8000833e673,Museum of the City of New York
90,Aux Merveilleux de Fred,Bakery,37 8th Ave,at W 4th St,40.738334,-74.004114,"[{'label': 'display', 'lat': 40.738334, 'lng': -74.004114}, {'label': 'entrance', 'lat': 40.738342, 'lng': -74.004102}]",7471,US,New York,NY,United States,"['37 8th Ave (at W 4th St)', 'New York, NY 10014', 'United States']",10014,,54b1b78e498ee334f9b739be,Museum of the City of New York
91,Mah-Ze-Dahr Bakery,Bakery,28 Greenwich Ave,Charles Street,40.735117,-74.000052,"[{'label': 'display', 'lat': 40.735117, 'lng': -74.000052}]",7574,US,New York,NY,United States,"['28 Greenwich Ave (Charles Street)', 'New York, NY 10011', 'United States']",10011,,568c0ce238fafac5f5ffe631,Museum of the City of New York
92,4 Charles Prime Rib,Steakhouse,4 Charles St,Greenwich Ave,40.735219495923204,-74.0006488188871,"[{'label': 'display', 'lat': 40.735219495923204, 'lng': -74.0006488188871}, {'label': 'entrance', 'lat': 40.735185, 'lng': -74.000661}]",7591,US,New York,NY,United States,"['4 Charles St (Greenwich Ave)', 'New York, NY 10014', 'United States']",10014,,585164b77220e62219c9aeb6,Museum of the City of New York
93,Forma Pasta Factory,Italian Restaurant,14 Bedford St,,40.72370682985822,-73.95148527074878,"[{'label': 'display', 'lat': 40.72370682985822, 'lng': -73.95148527074878}]",7659,US,New York,NY,United States,"['14 Bedford St', 'New York, NY 10014', 'United States']",10014,,5c6ddee8de3bbf002c44d83c,Museum of the City of New York
94,McNally Jackson Store: Goods for the Study,Stationery Store,50 W 8th St,6th Avenue,40.73323795162194,-73.99873304139692,"[{'label': 'display', 'lat': 40.73323795162194, 'lng': -73.99873304139692}]",7693,US,New York,NY,United States,"['50 W 8th St (6th Avenue)', 'New York, NY 10011', 'United States']",10011,,58557b6b158b966de0f7e137,Museum of the City of New York
95,Van Leeuwen Ice Cream,Ice Cream Shop,152 W 10th St,at Waverly Pl,40.734397,-74.001271,"[{'label': 'display', 'lat': 40.734397, 'lng': -74.001271}]",7697,US,New York,NY,United States,"['152 W 10th St (at Waverly Pl)', 'New York, NY 10012', 'United States']",10012,,54e7da22498e3dd7390e3136,Museum of the City of New York
96,Washington Square Park,Park,W 4th St,btwn MacDougal St & University Pl,40.73081579656163,-73.9974582195282,"[{'label': 'display', 'lat': 40.73081579656163, 'lng': -73.9974582195282}]",7873,US,New York,NY,United States,"['W 4th St (btwn MacDougal St & University Pl)', 'New York, NY 10012', 'United States']",10012,,40abf500f964a52035f31ee3,Museum of the City of New York
97,Three Lives & Company,Bookstore,154 W 10th St,at Waverly Pl,40.73442736120523,-74.00139223025236,"[{'label': 'display', 'lat': 40.73442736120523, 'lng': -74.00139223025236}, {'label': 'entrance', 'lat': 40.734388, 'lng': -74.001534}]",7700,US,New York,NY,United States,"['154 W 10th St (at Waverly Pl)', 'New York, NY 10014', 'United States']",10014,,4a7cbad7f964a5205fed1fe3,Museum of the City of New York
98,Barry's Bootcamp,Gym / Fitness Center,419 Lafayette St,,40.7289365661847,-73.99224109396116,"[{'label': 'display', 'lat': 40.7289365661847, 'lng': -73.99224109396116}]",7855,US,New York,NY,United States,"['419 Lafayette St', 'New York, NY 10003', 'United States']",10003,,54393961498e8986492d5b67,Museum of the City of New York
99,Trader Joe's,Grocery Store,1350 Willow Ave.,,40.75363429975088,-74.02983232852095,"[{'label': 'display', 'lat': 40.75363429975088, 'lng': -74.02983232852095}]",7873,US,Hoboken,NJ,United States,"['1350 Willow Ave.', 'Hoboken, NJ 07030', 'United States']",07030,,590fa389018cbb785fbbd4e5,Museum of the City of New York
0,Hudson River Greenway,Trail,Hudson River Greenway,,40.84988118297566,-73.94634064997031,"[{'label': 'display', 'lat': 40.84988118297566, 'lng': -73.94634064997031}]",2809,US,New York,NY,United States,"['Hudson River Greenway', 'New York, NY 10033', 'United States']",10033,,4e27472dfa762797e591b9e0,Yankee Stadium
1,Sottocasa Pizzeria,Pizza Place,227 Malcolm X Blvd,,40.805550131828895,-73.94743518730202,"[{'label': 'display', 'lat': 40.805550131828895, 'lng': -73.94743518730202}]",3203,US,New York,NY,United States,"['227 Malcolm X Blvd', 'New York, NY 10027', 'United States']",10027,Central Harlem,56e86a57cd1017cb53f3e8f9,Yankee Stadium
2,Fort Tryon Park,Park,1 Margaret Corbin Dr,,40.86195825873335,-73.93116860799772,,3625,US,New York,NY,United States,"['1 Margaret Corbin Dr', 'New York, NY 10040', 'United States']",10040,,4be1dcc440c0ef3b2f5cbed6,Yankee Stadium
3,Levain Bakery,Bakery,2167 Frederick Douglass Blvd,117th St,40.80489688300106,-73.9550975367771,"[{'label': 'display', 'lat': 40.80489688300106, 'lng': -73.9550975367771}, {'label': 'entrance', 'lat': 40.804945, 'lng': -73.9552}]",3653,US,New York,NY,United States,"['2167 Frederick Douglass Blvd (117th St)', 'New York, NY 10026', 'United States']",10026,,4d4f05ec9a2a6ea8dd5a286f,Yankee Stadium
4,The Cloisters,Museum,99 Margaret Corbin Dr,at Fort Tryon Pl,40.8650293481217,-73.93169675048539,,3969,US,New York,NY,United States,"['99 Margaret Corbin Dr (at Fort Tryon Pl)', 'New York, NY 10040', 'United States']",10040,Hudson Heights,42893400f964a52055231fe3,Yankee Stadium
5,Riverside Park,Park,Riverside Dr,btwn W 59th St & St. Clair Pl,40.806809433439135,-73.96865129470825,,4361,US,New York,NY,United States,"['Riverside Dr (btwn W 59th St & St. Clair Pl)', 'New York, NY 10025', 'United States']",10025,,4a06ff94f964a52017731fe3,Yankee Stadium
6,Conservatory Garden,Garden,1231 5th Ave,at 105th St,40.79386107302837,-73.952397108078,"[{'label': 'display', 'lat': 40.79386107302837, 'lng': -73.952397108078}]",4534,US,New York,NY,United States,"['1231 5th Ave (at 105th St)', 'New York, NY 10029', 'United States']",10029,,4a9ad8d2f964a520213320e3,Yankee Stadium
7,West 105th Street Dog Run - Riverside Park,Dog Run,105th St.,@ Riverside Dr.,40.80248358610179,-73.97144265286585,"[{'label': 'display', 'lat': 40.80248358610179, 'lng': -73.97144265286585}]",4839,US,New York,NY,United States,"['105th St. (@ Riverside Dr.)', 'New York, NY', 'United States']",,Upper West Side,4bc0fad074a9a5936018d1f6,Yankee Stadium
8,Yoga To The People,Yoga Studio,2710 Broadway Fl 3,btwn W 104th St & W 103rd St,40.79958793827724,-73.96819700736744,"[{'label': 'display', 'lat': 40.79958793827724, 'lng': -73.96819700736744}]",4845,US,New York,NY,United States,"['2710 Broadway Fl 3 (btwn W 104th St & W 103rd St)', 'New York, NY 10025', 'United States']",10025,,54f39f29498ec36f934f3381,Yankee Stadium
9,East Meadow,Field,Central Park,5th Ave btwn 98th & 101st St,40.79015961797437,-73.95549774169922,"[{'label': 'display', 'lat': 40.79015961797437, 'lng': -73.95549774169922}]",5021,US,New York,NY,United States,"['Central Park (5th Ave btwn 98th & 101st St)', 'New York, NY 10029', 'United States']",10029,Central Park,4ba233dbf964a5206fe337e3,Yankee Stadium
10,The New York Botanical Garden,Botanical Garden,2900 Southern Blvd,at Bronx Park Rd,40.86262485277416,-73.87724161148071,"[{'label': 'display', 'lat': 40.86262485277416, 'lng': -73.87724161148071}]",5545,US,Bronx,NY,United States,"['2900 Southern Blvd (at Bronx Park Rd)', 'Bronx, NY 10458', 'United States']",10458,Bronx Park,49df79b7f964a520ca601fe3,Yankee Stadium
11,Kitchen Arts & Letters,Bookstore,1435 Lexington Ave,at E 93rd St,40.784225883561795,-73.95213507194228,"[{'label': 'display', 'lat': 40.784225883561795, 'lng': -73.95213507194228}, {'label': 'entrance', 'lat': 40.784273, 'lng': -73.951943}]",5490,US,New York,NY,United States,"['1435 Lexington Ave (at E 93rd St)', 'New York, NY 10128', 'United States']",10128,,4aeca8edf964a52002ca21e3,Yankee Stadium
12,Equinox East 92nd Street,Gym,203 East 92nd Street,3rd Ave,40.7825,-73.95058,"[{'label': 'display', 'lat': 40.7825, 'lng': -73.95058}]",5619,US,New York,NY,United States,"['203 East 92nd Street (3rd Ave)', 'New York, NY 10128', 'United States']",10128,,574dc71c498ef19a1c178913,Yankee Stadium
13,Astoria Park,Park,at Shore & Ditmars Blvd,19th St,40.77731479754369,-73.92379168498111,"[{'label': 'display', 'lat': 40.77731479754369, 'lng': -73.92379168498111}]",5822,US,Astoria,NY,United States,"['at Shore & Ditmars Blvd (19th St)', 'Astoria, NY 11106', 'United States']",11106,,43222200f964a5209a271fe3,Yankee Stadium
14,Jacqueline Kennedy Onassis Reservoir,Reservoir,Central Park,btwn 85th & 96th St,40.784546812155064,-73.96436989470621,,5941,US,New York,NY,United States,"['Central Park (btwn 85th & 96th St)', 'New York, NY 10024', 'United States']",10024,Central Park,4a229fa8f964a520797d1fe3,Yankee Stadium
15,Central Park,Park,59th St to 110th St,5th Ave to Central Park West,40.78307608904521,-73.96549701690674,"[{'label': 'display', 'lat': 40.78307608904521, 'lng': -73.96549701690674}]",6130,US,New York,NY,United States,"['59th St to 110th St (5th Ave to Central Park West)', 'New York, NY 10028', 'United States']",10028,,412d2800f964a520df0c1fe3,Yankee Stadium
16,Carl Schurz Park,Park,599 E 86th St,at East End Ave,40.77511823969361,-73.94376326618595,"[{'label': 'display', 'lat': 40.77511823969361, 'lng': -73.94376326618595}]",6234,US,New York,NY,United States,"['599 E 86th St (at East End Ave)', 'New York, NY 10028', 'United States']",10028,,49ee4a7df964a52047681fe3,Yankee Stadium
17,PlantShed,Flower Shop,555 Columbus Ave,at W 87th St,40.78699161930172,-73.97156685590744,"[{'label': 'display', 'lat': 40.78699161930172, 'lng': -73.97156685590744}]",6073,US,New York,NY,United States,"['555 Columbus Ave (at W 87th St)', 'New York, NY 10024', 'United States']",10024,,5abfa9de01235845ec89c1f4,Yankee Stadium
18,The Metropolitan Museum of Art (Metropolitan Museum of Art),Art Museum,1000 5th Ave,btwn E 80th & E 84th St,40.77972902126812,-73.96341562271118,"[{'label': 'display', 'lat': 40.77972902126812, 'lng': -73.96341562271118}]",6361,US,New York,NY,United States,"['1000 5th Ave (btwn E 80th & E 84th St)', 'New York, NY 10028', 'United States']",10028,,427c0500f964a52097211fe3,Yankee Stadium
19,Levain Bakery,Bakery,1484 3rd Ave,,40.777354,-73.955284,"[{'label': 'display', 'lat': 40.777354, 'lng': -73.955284}, {'label': 'entrance', 'lat': 40.777377, 'lng': -73.955245}]",6298,US,New York,NY,United States,"['1484 3rd Ave', 'New York, NY 10028', 'United States']",10028,,5d2ccef540f3b0002ffe517d,Yankee Stadium
20,Schaller & Weber,Butcher,1654 2nd Ave,86th St.,40.77768033358095,-73.95192930892712,"[{'label': 'display', 'lat': 40.77768033358095, 'lng': -73.95192930892712}, {'label': 'entrance', 'lat': 40.777601, 'lng': -73.951733}]",6161,US,New York,NY,United States,"['1654 2nd Ave (86th St.)', 'New York, NY 10028', 'United States']",10028,,4b2fbd84f964a520dfee24e3,Yankee Stadium
21,City Swiggers,Beer Store,320 E 86th St,btw. 1st Ave. & 2nd Ave.,40.777514591474876,-73.95082007552988,"[{'label': 'display', 'lat': 40.777514591474876, 'lng': -73.95082007552988}, {'label': 'entrance', 'lat': 40.777382, 'lng': -73.950951}]",6147,US,New York,NY,United States,"['320 E 86th St (btw. 1st Ave. & 2nd Ave.)', 'New York, NY 10028', 'United States']",10028,,4e95c2f5108168120ad2f07e,Yankee Stadium
22,Temple of Dendur,Exhibit,1000 5th Ave,at 83rd St.,40.780411446833284,-73.96267533302307,"[{'label': 'display', 'lat': 40.780411446833284, 'lng': -73.96267533302307}]",6264,US,New York,NY,United States,"['1000 5th Ave (at 83rd St.)', 'New York, NY 10028', 'United States']",10028,,4c8bd941ed3ab60c65216221,Yankee Stadium
23,"Sal, Kris & Charlie's Deli",Sandwich Place,33-12 23rd Ave,btwn 33rd & 35th St,40.773304024636666,-73.91143439217934,"[{'label': 'display', 'lat': 40.773304024636666, 'lng': -73.91143439217934}]",6392,US,Astoria,NY,United States,"['33-12 23rd Ave (btwn 33rd & 35th St)', 'Astoria, NY 11105', 'United States']",11105,,4aeddba9f964a52096cf21e3,Yankee Stadium
24,Metropolitan Museum Steps,Plaza,1000 5th Ave,at 82nd St,40.77906283716806,-73.96251440048218,"[{'label': 'display', 'lat': 40.77906283716806, 'lng': -73.96251440048218}]",6389,US,New York,NY,United States,"['1000 5th Ave (at 82nd St)', 'New York, NY 10028', 'United States']",10028,,4c30f3c166e40f477d4fc48b,Yankee Stadium
25,Kingsbridge Social Club,Pizza Place,3625 Kingsbridge Ave,,40.884581,-73.901999,"[{'label': 'entrance', 'lat': 40.884542, 'lng': -73.901935}, {'label': 'display', 'lat': 40.884581, 'lng': -73.901999}]",6461,US,Bronx,NY,United States,"['3625 Kingsbridge Ave', 'Bronx, NY 10463', 'United States']",10463,,58935fd798f8aa7c14662653,Yankee Stadium
26,SoulCycle East 83rd,Cycle Studio,1470 3rd Ave,at E 83rd St,40.77699051498346,-73.95532907885685,"[{'label': 'display', 'lat': 40.77699051498346, 'lng': -73.95532907885685}]",6337,US,New York,NY,United States,"['1470 3rd Ave (at E 83rd St)', 'New York, NY 10028', 'United States']",10028,,4be1910358102d7faed64156,Yankee Stadium
27,Riverside Park Promenade,Waterfront,Riverside Dr,at W 83rd St,40.788761710401126,-73.98291397770349,"[{'label': 'display', 'lat': 40.788761710401126, 'lng': -73.98291397770349}]",6574,US,New York,NY,United States,"['Riverside Dr (at W 83rd St)', 'New York, NY', 'United States']",,,4e653fd745ddda352ac83d80,Yankee Stadium
28,Delacorte Theater,Theater,Central Park,at 79th St,40.78026521337381,-73.96878004074097,"[{'label': 'display', 'lat': 40.78026521337381, 'lng': -73.96878004074097}]",6543,US,New York,NY,United States,"['Central Park (at 79th St)', 'New York, NY 10028', 'United States']",10028,Central Park,4a314b58f964a520ae991fe3,Yankee Stadium
29,Central Park Loop,Track,Central Park,btwn 85th & 96th St,40.77758420956305,-73.96678447723389,"[{'label': 'display', 'lat': 40.77758420956305, 'lng': -73.96678447723389}]",6709,US,New York,NY,United States,"['Central Park (btwn 85th & 96th St)', 'New York, NY 10023', 'United States']",10023,,4b76ed15f964a520366b2ee3,Yankee Stadium
30,Levain Bakery,Bakery,351 Amsterdam Ave,at W 77th St,40.781513,-73.97926,"[{'label': 'display', 'lat': 40.781513, 'lng': -73.97926}]",6955,US,New York,NY,United States,"['351 Amsterdam Ave (at W 77th St)', 'New York, NY 10024', 'United States']",10024,Upper West Side,59541640a22db738071fa21f,Yankee Stadium
31,Bethesda Fountain,Fountain,Terrace Dr,Central Park,40.77429373881737,-73.9708399772644,"[{'label': 'display', 'lat': 40.77429373881737, 'lng': -73.9708399772644}]",7199,US,New York,NY,United States,"['Terrace Dr (Central Park)', 'New York, NY 10021', 'United States']",10021,,4a6b8bf4f964a52018cf1fe3,Yankee Stadium
32,Beacon Theatre,Concert Hall,2124 Broadway,at W 74th St,40.78055425266116,-73.98043206426468,"[{'label': 'display', 'lat': 40.78055425266116, 'lng': -73.98043206426468}]",7100,US,New York,NY,United States,"['2124 Broadway (at W 74th St)', 'New York, NY 10023', 'United States']",10023,,3fd66200f964a52020e81ee3,Yankee Stadium
33,Bethesda Terrace,Plaza,Terrace Dr,at Central Park,40.77385431547793,-73.97098155596522,"[{'label': 'display', 'lat': 40.77385431547793, 'lng': -73.97098155596522}]",7247,US,New York,NY,United States,"['Terrace Dr (at Central Park)', 'New York, NY 10021', 'United States']",10021,,4be709372468c9281aff0143,Yankee Stadium
34,Ample Hills Creamery,Ice Cream Shop,34-02 30th Ave,34th St,40.765562,-73.919012,"[{'label': 'display', 'lat': 40.765562, 'lng': -73.919012}]",7154,US,Astoria,NY,United States,"['34-02 30th Ave (34th St)', 'Astoria, NY 11103', 'United States']",11103,,5ae115d7c84d18002393461a,Yankee Stadium
35,Milkflower,Pizza Place,34-12 31st Ave,btwn 34th & 35th St,40.76303652205835,-73.92070512501088,"[{'label': 'display', 'lat': 40.76303652205835, 'lng': -73.92070512501088}]",7424,US,Astoria,NY,United States,"['34-12 31st Ave (btwn 34th & 35th St)', 'Astoria, NY 11106', 'United States']",11106,"Astoria, Queens, NY",51831cbf498e954462363bd3,Yankee Stadium
36,Sorriso Italian Pork Store,Butcher,4416 30th Ave,,40.762172151396804,-73.91137852187187,"[{'label': 'display', 'lat': 40.762172151396804, 'lng': -73.91137852187187}]",7611,US,Astoria,NY,United States,"['4416 30th Ave', 'Astoria, NY 11103', 'United States']",11103,,4b5a413ff964a520cfb728e3,Yankee Stadium
37,Riverside Park South,Park,Riverside Blvd,65th & 72nd Sts,40.77832352747964,-73.98911118507385,"[{'label': 'display', 'lat': 40.77832352747964, 'lng': -73.98911118507385}]",7770,US,New York,NY,United States,"['Riverside Blvd (65th & 72nd Sts)', 'New York, NY 10069', 'United States']",10069,,4adf50e7f964a520627921e3,Yankee Stadium
38,Lincoln Center for the Performing Arts,Performing Arts Venue,70 Lincoln Center Plz,btwn Columbus & 10th Ave,40.772282300238174,-73.98294841259204,,7955,US,New York,NY,United States,"['70 Lincoln Center Plz (btwn Columbus & 10th Ave)', 'New York, NY 10023', 'United States']",10023,,3fd66200f964a52023e81ee3,Yankee Stadium
39,Central Park - Wien Walk,Park,5th Ave. and E 61st St.,,40.766565760111106,-73.97225350141525,"[{'label': 'display', 'lat': 40.766565760111106, 'lng': -73.97225350141525}]",8003,US,New York,NY,United States,"['5th Ave. and E 61st St.', 'New York, NY', 'United States']",,,4def7f02fa76c1ceac932900,Yankee Stadium
40,Barry's Bootcamp,Gym / Fitness Center,1216 2nd Ave,East 64th Street,40.763501,-73.962023,"[{'label': 'display', 'lat': 40.763501, 'lng': -73.962023}, {'label': 'entrance', 'lat': 40.76354, 'lng': -73.961997}]",7941,US,New York,NY,United States,"['1216 2nd Ave (East 64th Street)', 'New York, NY 10065', 'United States']",10065,,521c185b11d26fe322a0b139,Yankee Stadium
41,Wave Hill,Garden,675 W 252nd St,Independence Ave,40.900062189494726,-73.9124461576627,"[{'label': 'display', 'lat': 40.900062189494726, 'lng': -73.9124461576627}, {'label': 'entrance', 'lat': 40.898986, 'lng': -73.912341}]",7934,US,Bronx,NY,United States,"['675 W 252nd St (Independence Ave)', 'Bronx, NY 10471', 'United States']",10471,,49e33171f964a5206a621fe3,Yankee Stadium
42,Equinox East 63rd Street,Gym,817 Lexington Avenue,at E 63rd St,40.7644886843313,-73.96651148383634,"[{'label': 'display', 'lat': 40.7644886843313, 'lng': -73.96651148383634}]",7991,US,New York,NY,United States,"['817 Lexington Avenue (at E 63rd St)', 'New York, NY 10065', 'United States']",10065,,4a68fb35f964a52064cb1fe3,Yankee Stadium
43,The Metropolitan Opera (Metropolitan Opera),Opera House,70 Lincoln Center Plz,at Columbus Ave,40.77274188001071,-73.9844012260437,"[{'label': 'display', 'lat': 40.77274188001071, 'lng': -73.9844012260437}]",7989,US,New York,NY,United States,"['70 Lincoln Center Plz (at Columbus Ave)', 'New York, NY 10023', 'United States']",10023,,48e480eef964a52022521fe3,Yankee Stadium
44,David H. Koch Theater,Theater,Lincoln Center Plaza,at W 63rd St & Columbus Ave,40.772292228782284,-73.9832624208871,"[{'label': 'display', 'lat': 40.772292228782284, 'lng': -73.9832624208871}]",7970,US,New York,NY,United States,"['Lincoln Center Plaza (at W 63rd St & Columbus Ave)', 'New York, NY 10023', 'United States']",10023,,49ff4eecf964a52005701fe3,Yankee Stadium
45,Jim's Shoe Repair,Shoe Store,50 E 59th St,Madison/Park,40.7634125732713,-73.97110633512361,"[{'label': 'display', 'lat': 40.7634125732713, 'lng': -73.97110633512361}]",8268,US,New York,NY,United States,"['50 E 59th St (Madison/Park)', 'New York, NY 10022', 'United States']",10022,,4aae5732f964a520df6120e3,Yankee Stadium
46,Dulce de Leche,Bakery,65 Bergenline Ave,btwn 65th St & 66th St,40.793358,-74.01276,"[{'label': 'display', 'lat': 40.793358, 'lng': -74.01276}, {'label': 'entrance', 'lat': 40.793379, 'lng': -74.012773}]",8309,US,West New York,NJ,United States,"['65 Bergenline Ave (btwn 65th St & 66th St)', 'West New York, NJ 07093', 'United States']",07093,,4c9e7ff7542b224b73d8f49f,Yankee Stadium
47,NYRR RUNCenter,Community Center,320 W 57th St,Between 8th & 9th Avenue,40.767079052150685,-73.98392642532963,"[{'label': 'display', 'lat': 40.767079052150685, 'lng': -73.98392642532963}]",8474,US,New York,NY,United States,"['320 W 57th St (Between 8th & 9th Avenue)', 'New York, NY 10019', 'United States']",10019,,5717dac7498e22ad270b634a,Yankee Stadium
48,Saint Laurent,Boutique,3 E 57th St,btwn 5th Ave and 6th Ave,40.76297783182334,-73.97323146073056,"[{'label': 'entrance', 'lat': 40.762842, 'lng': -73.973356}, {'label': 'display', 'lat': 40.76297783182334, 'lng': -73.97323146073056}]",8394,US,New York,NY,United States,"['3 E 57th St (btwn 5th Ave and 6th Ave)', 'New York, NY 10022', 'United States']",10022,,4b20181bf964a5201e2d24e3,Yankee Stadium
49,Bumble & Bumble,Salon / Barbershop,146 E 56th St,at Lexington Ave,40.759833,-73.969096,"[{'label': 'entrance', 'lat': 40.759909, 'lng': -73.96904}, {'label': 'display', 'lat': 40.759833, 'lng': -73.969096}]",8553,US,New York,NY,United States,"['146 E 56th St (at Lexington Ave)', 'New York, NY 10022', 'United States']",10022,,4ac0f812f964a520369520e3,Yankee Stadium
50,Museum of Modern Art (MoMA),Art Museum,11 W 53rd St,btwn 5th & 6th Ave,40.76141150395245,-73.97746170919268,,8718,US,New York,NY,United States,"['11 W 53rd St (btwn 5th & 6th Ave)', 'New York, NY 10019', 'United States']",10019,,4af5a46af964a520b5fa21e3,Yankee Stadium
51,iLoveKickboxing,Gym,2007 Colonial Avenue,,40.8528708,-73.8280849,"[{'label': 'display', 'lat': 40.8528708, 'lng': -73.8280849}]",8685,US,Bronx,NY,United States,"['2007 Colonial Avenue', 'Bronx, NY 10461', 'United States']",10461,,58ec6b4001f0777e49e4d2a5,Yankee Stadium
52,St. Patrick's Cathedral,Church,14 E 51st St,at 5th Ave,40.758627238578065,-73.97639751434325,"[{'label': 'display', 'lat': 40.758627238578065, 'lng': -73.97639751434325}]",8947,US,New York,NY,United States,"['14 E 51st St (at 5th Ave)', 'New York, NY 10022', 'United States']",10022,,4a3d4aecf964a52012a21fe3,Yankee Stadium
53,Equinox West 50th Street,Gym,1633 Broadway,at Paramount Plz,40.761912,-73.984268,"[{'label': 'display', 'lat': 40.761912, 'lng': -73.984268}]",8968,US,New York,NY,United States,"['1633 Broadway (at Paramount Plz)', 'New York, NY 10019', 'United States']",10019,,4a66f31af964a520dcc81fe3,Yankee Stadium
54,Radio City Music Hall,Concert Hall,1260 Avenue of the Americas,at W 50th St,40.759850056828405,-73.97934397752239,"[{'label': 'display', 'lat': 40.759850056828405, 'lng': -73.97934397752239}]",8948,US,New York,NY,United States,"['1260 Avenue of the Americas (at W 50th St)', 'New York, NY 10020', 'United States']",10020,,4161e400f964a520721d1fe3,Yankee Stadium
55,Top of the Rock Observation Deck,Scenic Lookout,30 Rockefeller Plz,btwn 5th & 6th Ave,40.759095065214055,-73.97935153748539,"[{'label': 'display', 'lat': 40.759095065214055, 'lng': -73.97935153748539}]",9021,US,New York,NY,United States,"['30 Rockefeller Plz (btwn 5th & 6th Ave)', 'New York, NY 10112', 'United States']",10112,,43a48f1bf964a520502c1fe3,Yankee Stadium
56,TMPL,Gym,355 W 49th St,8th Avenue,40.762549725908436,-73.98817701719275,"[{'label': 'display', 'lat': 40.762549725908436, 'lng': -73.98817701719275}]",9092,US,New York,NY,United States,"['355 W 49th St (8th Avenue)', 'New York, NY 10019', 'United States']",10019,,566dd692498eadbfb75805ef,Yankee Stadium
57,The Cliffs at Long Island City,Climbing Gym,11-11 44th Dr,,40.74862722288911,-73.94889232182862,"[{'label': 'display', 'lat': 40.74862722288911, 'lng': -73.94889232182862}]",9207,US,Long Island City,NY,United States,"['11-11 44th Dr', 'Long Island City, NY 11101', 'United States']",11101,,51571a47e4b03e8de7ec9dbc,Yankee Stadium
58,Gantry Plaza State Park,State / Provincial Park,474 48th Ave,at Center Blvd,40.74655794031174,-73.9580512046814,"[{'label': 'display', 'lat': 40.74655794031174, 'lng': -73.9580512046814}]",9616,US,Queens,NY,United States,"['474 48th Ave (at Center Blvd)', 'Long Island City, NY 11109', 'United States']",11109,Long Island City,43222200f964a5209c271fe3,Yankee Stadium
59,Los Tacos No. 1,Taco Place,229 W 43rd St,btwn 7th & 8th Ave,40.757237,-73.987454,"[{'label': 'display', 'lat': 40.757237, 'lng': -73.987454}]",9551,US,New York,NY,United States,"['229 W 43rd St (btwn 7th & 8th Ave)', 'New York, NY 10036', 'United States']",10036,Theater District,59580ce6db1d8148fee3d383,Yankee Stadium
60,Broadway Dance Center,Dance Studio,322 W 45th St,btwn 8th & 9th Ave,40.759489759762815,-73.98956180541293,"[{'label': 'display', 'lat': 40.759489759762815, 'lng': -73.98956180541293}, {'label': 'entrance', 'lat': 40.759547, 'lng': -73.989549}]",9439,US,New York,NY,United States,"['322 W 45th St (btwn 8th & 9th Ave)', 'New York, NY 10036', 'United States']",10036,,46a9bed8f964a52054491fe3,Yankee Stadium
61,Fifth Hammer Brewing Company,Brewery,10-28 46th Ave,,40.74655304120232,-73.95143837388332,"[{'label': 'display', 'lat': 40.74655304120232, 'lng': -73.95143837388332}]",9478,US,New York,NY,United States,"['10-28 46th Ave', 'New York, NY 11101', 'United States']",11101,Hunters Point,580bbe6c38fa27d5b5a442cc,Yankee Stadium
62,Majestic Theatre,Theater,245 W 44th St,btwn 7th & 8th Ave,40.758267590709956,-73.98810677744484,"[{'label': 'display', 'lat': 40.758267590709956, 'lng': -73.98810677744484}, {'label': 'entrance', 'lat': 40.758313, 'lng': -73.988096}]",9484,US,New York,NY,United States,"['245 W 44th St (btwn 7th & 8th Ave)', 'New York, NY 10036', 'United States']",10036,,4b1074dbf964a520d47023e3,Yankee Stadium
63,Bryant Park,Park,E 42nd St,btwn 5th & 6th Ave,40.75387292806952,-73.9836287498474,"[{'label': 'display', 'lat': 40.75387292806952, 'lng': -73.9836287498474}]",9705,US,New York,NY,United States,"['E 42nd St (btwn 5th & 6th Ave)', 'New York, NY 10018', 'United States']",10018,Midtown,3fd66200f964a520d7f11ee3,Yankee Stadium
64,Books Kinokuniya,Bookstore,1073 Avenue of the Americas,btwn W 40th & W 41st St,40.75405320187223,-73.98464945969599,"[{'label': 'display', 'lat': 40.75405320187223, 'lng': -73.98464945969599}]",9730,US,New York,NY,United States,"['1073 Avenue of the Americas (btwn W 40th & W 41st St)', 'New York, NY 10018', 'United States']",10018,,49ef71e3f964a520b8681fe3,Yankee Stadium
65,New York Public Library Terrace,Plaza,476 5th Ave,btwn W 40th & W 42nd St,40.75301665207755,-73.98147986022437,"[{'label': 'display', 'lat': 40.75301665207755, 'lng': -73.98147986022437}]",9700,US,New York,NY,United States,"['476 5th Ave (btwn W 40th & W 42nd St)', 'New York, NY 10018', 'United States']",10018,,4ddaf97b183802d5373be2eb,Yankee Stadium
66,New Amsterdam Theater,Theater,214 W 42nd St,btwn Broadway & 8th Ave,40.755844024448116,-73.98832119495094,"[{'label': 'display', 'lat': 40.755844024448116, 'lng': -73.98832119495094}]",9721,US,New York,NY,United States,"['214 W 42nd St (btwn Broadway & 8th Ave)', 'New York, NY 10036', 'United States']",10036,,4f139003e4b000502e3959c2,Yankee Stadium
67,MUJI,Miscellaneous Shop,475 5th Ave,at E 41st St,40.75247095108687,-73.98134887218475,"[{'label': 'display', 'lat': 40.75247095108687, 'lng': -73.98134887218475}]",9748,US,New York,NY,United States,"['475 5th Ave (at E 41st St)', 'New York, NY 10017', 'United States']",10017,Midtown East,564e6919498e9cd069ba3df0,Yankee Stadium
68,Birria-Landia Taco Truck,Food Truck,77-99 Roosevelt Ave,78th St,40.74725134613699,-73.88771249450689,"[{'label': 'display', 'lat': 40.74725134613699, 'lng': -73.88771249450689}]",9731,US,New York,NY,United States,"['77-99 Roosevelt Ave (78th St)', 'New York, NY 11372', 'United States']",11372,,5d6b080fc391b8000833e673,Yankee Stadium
69,Hunter's Point South Park,Park,Center Boulevard and Borden Avenue,Center Boulevard and Borden Avenue,40.742631898404746,-73.96070122718811,"[{'label': 'display', 'lat': 40.742631898404746, 'lng': -73.96070122718811}]",10098,US,Queens,NY,United States,"['Center Boulevard and Borden Avenue (Center Boulevard and Borden Avenue)', 'Long Island City, NY 11101', 'United States']",11101,Long Island City,521cd1c293cd469ce13dbb47,Yankee Stadium
70,Louis Armstrong House Museum,Museum,34-56 107th St,btwn 34th & 37th Ave,40.75462065974465,-73.86137158678545,"[{'label': 'display', 'lat': 40.75462065974465, 'lng': -73.86137158678545}]",9989,US,Corona,NY,United States,"['34-56 107th St (btwn 34th & 37th Ave)', 'Corona, NY 11368', 'United States']",11368,,4bae54e7f964a520d1a33be3,Yankee Stadium
71,Kalustyan's,Gourmet Shop,123 Lexington Ave,at E 28th St,40.74283152687895,-73.98226690988776,"[{'label': 'display', 'lat': 40.74283152687895, 'lng': -73.98226690988776}, {'label': 'entrance', 'lat': 40.742795, 'lng': -73.982187}]",10739,US,New York,NY,United States,"['123 Lexington Ave (at E 28th St)', 'New York, NY 10016', 'United States']",10016,,45940e37f964a52055401fe3,Yankee Stadium
72,Madison Square Park,Park,Madison Ave,btwn E 23rd & E 26th St,40.74226204193276,-73.98800611495972,"[{'label': 'display', 'lat': 40.74226204193276, 'lng': -73.98800611495972}]",11015,US,New York,NY,United States,"['Madison Ave (btwn E 23rd & E 26th St)', 'New York, NY 10010', 'United States']",10010,,40b68100f964a5207d001fe3,Yankee Stadium
73,Bakeri,Bakery,105 Freeman St,btwn Franklin & Manhattan Ave,40.73426471796698,-73.95755265756051,"[{'label': 'display', 'lat': 40.73426471796698, 'lng': -73.95755265756051}, {'label': 'entrance', 'lat': 40.73429, 'lng': -73.957528}]",10928,US,Brooklyn,NY,United States,"['105 Freeman St (btwn Franklin & Manhattan Ave)', 'Brooklyn, NY 11222', 'United States']",11222,,534d61c4498e9beff4c74e8b,Yankee Stadium
74,Dandelion Wine,Wine Shop,153 Franklin St,,40.731667,-73.958015,"[{'label': 'entrance', 'lat': 40.731674, 'lng': -73.958013}, {'label': 'display', 'lat': 40.731667, 'lng': -73.958015}]",11218,US,Brooklyn,NY,United States,"['153 Franklin St', 'Brooklyn, NY 11222', 'United States']",11222,,4bd61b737b1876b008038c86,Yankee Stadium
75,Arthur Ashe Stadium,Tennis Stadium,Flushing Meadows - Corona Park,,40.749892455368936,-73.84703725576,"[{'label': 'display', 'lat': 40.749892455368936, 'lng': -73.84703725576}]",11116,US,Flushing,NY,United States,"['Flushing Meadows - Corona Park', 'Flushing, NY 11368', 'United States']",11368,,4bbe1ecf9474c9b66a1bd9b6,Yankee Stadium
76,Gagosian Gallery,Art Gallery,555 W 24th St,btwn 10th & 11th Ave,40.74949263854115,-74.00604977829569,"[{'label': 'display', 'lat': 40.74949263854115, 'lng': -74.00604977829569}, {'label': 'entrance', 'lat': 40.749414, 'lng': -74.005971}]",11154,US,New York,NY,United States,"['555 W 24th St (btwn 10th & 11th Ave)', 'New York, NY 10011', 'United States']",10011,,442e41b2f964a520da311fe3,Yankee Stadium
77,Equinox Gramercy,Gym,315 Park Ave S,24th St,40.74074907098539,-73.98577092778955,"[{'label': 'display', 'lat': 40.74074907098539, 'lng': -73.98577092778955}]",11078,US,New York,NY,United States,"['315 Park Ave S (24th St)', 'New York, NY 10010', 'United States']",10010,,574da377498ef19a1bd08764,Yankee Stadium
78,High Line,Park,btwn Gansevoort & W 34th St,btwn 10th & 12th Ave,40.746825,-74.005507,"[{'label': 'display', 'lat': 40.746825, 'lng': -74.005507}]",11366,US,New York,NY,United States,"['btwn Gansevoort & W 34th St (btwn 10th & 12th Ave)', 'New York, NY 10011', 'United States']",10011,,40f1d480f964a5206a0a1fe3,Yankee Stadium
79,Pier 63 Hudson River Park,Park,205 12th Ave,23rd Street,40.749500287685564,-74.00859475135803,"[{'label': 'display', 'lat': 40.749500287685564, 'lng': -74.00859475135803}]",11283,US,New York,NY,United States,"['205 12th Ave (23rd Street)', 'New York, NY 10001', 'United States']",10001,,4dd56920cc3f75159f13cb35,Yankee Stadium
80,USTA Billie Jean King National Tennis Center,Tennis Stadium,5201 111th St Ste 1,,40.749415,-73.846017,"[{'label': 'display', 'lat': 40.749415, 'lng': -73.846017}]",11210,US,Flushing,NY,United States,"['5201 111th St Ste 1', 'Flushing, NY 11368', 'United States']",11368,,504ea918e4b061de6e4eb199,Yankee Stadium
81,WNYC Transmitter Park,Park,2 Greenpoint Ave,at West St,40.729958061792885,-73.96073341369629,"[{'label': 'display', 'lat': 40.729958061792885, 'lng': -73.96073341369629}]",11458,US,Brooklyn,NY,United States,"['2 Greenpoint Ave (at West St)', 'Brooklyn, NY 11222', 'United States']",11222,,4a4e944df964a520baae1fe3,Yankee Stadium
82,SoulCycle 19th,Cycle Studio,8 W 19th St,btwn 5th & 6th Ave,40.73943353393161,-73.99216844203444,"[{'label': 'display', 'lat': 40.73943353393161, 'lng': -73.99216844203444}, {'label': 'entrance', 'lat': 40.739315, 'lng': -73.992139}]",11459,US,New York,NY,United States,"['8 W 19th St (btwn 5th & 6th Ave)', 'New York, NY 10011', 'United States']",10011,,529f289511d21133dd08a7ec,Yankee Stadium
83,Gramercy Tavern,American Restaurant,42 E 20th St,btwn Broadway & Park Ave,40.73859964402532,-73.98831951156392,"[{'label': 'display', 'lat': 40.73859964402532, 'lng': -73.98831951156392}]",11389,US,New York,NY,United States,"['42 E 20th St (btwn Broadway & Park Ave)', 'New York, NY 10003', 'United States']",10003,,3fd66200f964a520aee91ee3,Yankee Stadium
84,The Fhitting Room,Gym,31 W 19th St,btwn 5th & 6th Ave,40.739856864845336,-73.99319384310543,"[{'label': 'display', 'lat': 40.739856864845336, 'lng': -73.99319384310543}, {'label': 'entrance', 'lat': 40.739879, 'lng': -73.993022}]",11460,US,New York,NY,United States,"['31 W 19th St (btwn 5th & 6th Ave)', 'New York, NY 10011', 'United States']",10011,,54cd0dab498e6e5d8a9d7866,Yankee Stadium
85,Malt & Mold,Gourmet Shop,362 2nd Ave,btwn 21st & 22nd St,40.736677,-73.981472,"[{'label': 'display', 'lat': 40.736677, 'lng': -73.981472}]",11331,US,New York,NY,United States,"['362 2nd Ave (btwn 21st & 22nd St)', 'New York, NY 10010', 'United States']",10010,Gramercy Park,545fd218498e729596469903,Yankee Stadium
86,David Zwirner Gallery,Art Gallery,537 W 20th St,at 11th Ave,40.74663515827365,-74.007328748703,"[{'label': 'display', 'lat': 40.74663515827365, 'lng': -74.007328748703}]",11473,US,New York,NY,United States,"['537 W 20th St (at 11th Ave)', 'New York, NY 10011', 'United States']",10011,,533d96d9498e88fc19384087,Yankee Stadium
87,Fishs Eddy,Furniture / Home Store,889 Broadway,btwn E 19th & E 20th St,40.738605357398285,-73.99001680796049,"[{'label': 'display', 'lat': 40.738605357398285, 'lng': -73.99001680796049}, {'label': 'entrance', 'lat': 40.738705, 'lng': -73.990025}]",11454,US,New York,NY,United States,"['889 Broadway (btwn E 19th & E 20th St)', 'New York, NY 10003', 'United States']",10003,,4a5d186ff964a5202bbd1fe3,Yankee Stadium
88,Caffè Panna,Ice Cream Shop,77 Irving Pl,,40.736985,-73.98676,"[{'label': 'display', 'lat': 40.736985, 'lng': -73.98676}]",11490,US,New York,NY,United States,"['77 Irving Pl', 'New York, NY 10003', 'United States']",10003,,5d7d70ed72c4090008784186,Yankee Stadium
89,Paulie Gee’s,Pizza Place,708 Continental Cir #1514,,40.729801246987186,-73.95852046352437,"[{'label': 'display', 'lat': 40.729801246987186, 'lng': -73.95852046352437}]",11430,US,Brooklyn,NY,United States,"['708 Continental Cir #1514', 'Brooklyn, NY 11222', 'United States']",11222,,4b9709fcf964a520c4f434e3,Yankee Stadium
90,Union Square Greenmarket,Farmers Market,1 Union Sq W,btwn 14th & 17th St,40.736296929163295,-73.9905813271794,,11704,US,New York,NY,United States,"['1 Union Sq W (btwn 14th & 17th St)', 'New York, NY 10003', 'United States']",10003,Union Square,49c27575f964a520f1551fe3,Yankee Stadium
91,Los Tacos No. 1,Taco Place,75 9th Ave,,40.74224400629671,-74.00596115738153,"[{'label': 'display', 'lat': 40.74224400629671, 'lng': -74.00596115738153}]",11804,US,New York,NY,United States,"['75 9th Ave', 'New York, NY 10011', 'United States']",10011,Chelsea,5196b9ff498e8a6be4336a03,Yankee Stadium
92,High Line 10th Ave Amphitheatre,Scenic Lookout,High Line,10th Ave & W 17th St,40.74398136118615,-74.00684429247669,"[{'label': 'display', 'lat': 40.74398136118615, 'lng': -74.00684429247669}]",11689,US,New York,NY,United States,"['High Line (10th Ave & W 17th St)', 'New York, NY 10011', 'United States']",10011,,4eb1877fd3e36bac670d2898,Yankee Stadium
93,Soothr,Thai Restaurant,204 E 13th St,3rd Ave,40.732287,-73.987287,"[{'label': 'display', 'lat': 40.732287, 'lng': -73.987287}]",11980,US,New York,NY,United States,"['204 E 13th St (3rd Ave)', 'New York, NY 10003', 'United States']",10003,,5ee66a36459579000887cd2b,Yankee Stadium
94,Los Mariscos,Seafood Restaurant,409 West 15th St,9th Ave,40.74199972810892,-74.00589003225507,"[{'label': 'display', 'lat': 40.74199972810892, 'lng': -74.00589003225507}, {'label': 'entrance', 'lat': 40.742132, 'lng': -74.005809}]",11824,US,New York,NY,United States,"['409 West 15th St (9th Ave)', 'New York, NY 10011', 'United States']",10011,,57e9590a498e2d323e20c667,Yankee Stadium
95,Peridance Capezio Center,Dance Studio,126 E 13th St,btwn 3rd & 4th Ave,40.73298682271572,-73.98852241900113,"[{'label': 'display', 'lat': 40.73298682271572, 'lng': -73.98852241900113}]",11955,US,New York,NY,United States,"['126 E 13th St (btwn 3rd & 4th Ave)', 'New York, NY 10003', 'United States']",10003,,4b6cba70f964a520ae4f2ce3,Yankee Stadium
96,Strand Bookstore,Bookstore,828 Broadway,at E 12th St,40.73314000684355,-73.99091161094675,"[{'label': 'display', 'lat': 40.73314000684355, 'lng': -73.99091161094675}]",12029,US,New York,NY,United States,"['828 Broadway (at E 12th St)', 'New York, NY 10003', 'United States']",10003,,4a8cc1d4f964a520130f20e3,Yankee Stadium
97,Trader Joe's Wine Shop,Wine Shop,138 E 14th St,btwn Irving Pl & 3rd Ave,40.73374950502162,-73.98812798965065,"[{'label': 'display', 'lat': 40.73374950502162, 'lng': -73.98812798965065}, {'label': 'entrance', 'lat': 40.733559, 'lng': -73.988201}]",11864,US,New York,NY,United States,"['138 E 14th St (btwn Irving Pl & 3rd Ave)', 'New York, NY 10003', 'United States']",10003,,4a319883f964a520fc991fe3,Yankee Stadium
98,Forma Pasta Factory,Italian Restaurant,14 Bedford St,,40.72370682985822,-73.95148527074878,"[{'label': 'display', 'lat': 40.72370682985822, 'lng': -73.95148527074878}]",11972,US,New York,NY,United States,"['14 Bedford St', 'New York, NY 10014', 'United States']",10014,,5c6ddee8de3bbf002c44d83c,Yankee Stadium
99,Trader Joe's,Grocery Store,1350 Willow Ave.,,40.75363429975088,-74.02983232852095,"[{'label': 'display', 'lat': 40.75363429975088, 'lng': -74.02983232852095}]",12136,US,Hoboken,NJ,United States,"['1350 Willow Ave.', 'Hoboken, NJ 07030', 'United States']",07030,,590fa389018cbb785fbbd4e5,Yankee Stadium
