,name,categories,address,crossStreet,lat,lng,labeledLatLngs,distance,postalCode,cc,city,state,country,formattedAddress,neighborhood,id,point name
0,Pantheon,Monument / Landmark,Piazza della Rotonda,Via Palombella,41.89913348171708,12.47680466523532,"[{'label': 'display', 'lat': 41.89913348171708, 'lng': 12.47680466523532}]",57,00186,IT,Roma,Lazio,Italia,"['Piazza della Rotonda (Via Palombella)', '00186 Roma Lazio', 'Italia']",,4adcdac6f964a5202f5321e3,Panthéon
1,Fontana dei Quattro Fiumi,Fountain,Piazza Navona,,41.89896683723093,12.473131782782303,"[{'label': 'display', 'lat': 41.89896683723093, 'lng': 12.473131782782303}]",309,00186,IT,Roma,Lazio,Italia,"['Piazza Navona', '00186 Roma Lazio', 'Italia']",Parione,4adcdac9f964a520055421e3,Panthéon
2,Piazza Navona,Plaza,Piazza Navona,,41.89923909819951,12.473184388488416,,310,00186,IT,Roma,Lazio,Italia,"['Piazza Navona', '00186 Roma Lazio', 'Italia']",Parione,4adcdac6f964a520285321e3,Panthéon
3,Piazza della Rotonda,Plaza,Piazza della Rotonda,,41.89925302095499,12.476778774611859,"[{'label': 'display', 'lat': 41.89925302095499, 'lng': 12.476778774611859}]",71,00186,IT,Roma,Lazio,Italia,"['Piazza della Rotonda', '00186 Roma Lazio', 'Italia']",Sant'Eustachio,4be05668358fef3b6858648a,Panthéon
4,Il Panino Ingegnoso,Sandwich Place,"Piazza di Pietra, 35",,41.89998191151652,12.479194782088841,"[{'label': 'display', 'lat': 41.89998191151652, 'lng': 12.479194782088841}]",247,00186,IT,Roma,Lazio,Italia,"['Piazza di Pietra, 35', '00186 Roma Lazio', 'Italia']",,5516b0b9498efa5147ff8430,Panthéon
5,Pizza e Mozzarella,Pizza Place,Via di Piè di Marmo 32,,41.89759761479189,12.479097450483923,"[{'label': 'display', 'lat': 41.89759761479189, 'lng': 12.479097450483923}]",219,00186,IT,,,Italia,"['Via di Piè di Marmo 32', '00186', 'Italia']",,50e43f98e4b0b781c2362b32,Panthéon
6,Pane e Salame,Sandwich Place,Via di Santa Maria in Via 19,Via dei Crociferi,41.900604,12.481798,"[{'label': 'display', 'lat': 41.900604, 'lng': 12.481798}]",467,,IT,Roma,Lazio,Italia,"['Via di Santa Maria in Via 19 (Via dei Crociferi)', 'Roma Lazio', 'Italia']",Trevi,56dd7b20498ebb7ab96350ee,Panthéon
7,Piazza Venezia,Plaza,Piazza Venezia,,41.895746560967744,12.48244572340433,,564,00187,IT,Roma,Lazio,Italia,"['Piazza Venezia', '00187 Roma Lazio', 'Italia']",,4adcdac6f964a520465321e3,Panthéon
8,Venchi,Ice Cream Shop,Via degli Orfani 87,Via del Corso,41.90004164812426,12.480883171716998,"[{'label': 'display', 'lat': 41.90004164812426, 'lng': 12.480883171716998}]",371,00186,IT,Roma,Lazio,Italia,"['Via degli Orfani 87 (Via del Corso)', '00186 Roma Lazio', 'Italia']",,53ce8a93498e9707065baed5,Panthéon
9,Frigidarium,Ice Cream Shop,Via del Governo Vecchio 112,Via Sora,41.89829373805058,12.470566970920304,"[{'label': 'display', 'lat': 41.89829373805058, 'lng': 12.470566970920304}]",520,00186,IT,Roma,Lazio,Italia,"['Via del Governo Vecchio 112 (Via Sora)', '00186 Roma Lazio', 'Italia']",Parione,4c49fab99c8d2d7f9e69e668,Panthéon
10,Cipasso,Wine Bar,"Via dell orso, 71",,41.901772,12.473529,"[{'label': 'display', 'lat': 41.901772, 'lng': 12.473529}]",445,00186,IT,Roma,Lazio,Italia,"['Via dell orso, 71', '00186 Roma Lazio', 'Italia']",,5b2fa144610f04002c060e48,Panthéon
11,Basilica di Sant'Andrea della Valle,Church,Piazza di Sant'Andrea della Valle,,41.89628,12.474383,"[{'label': 'display', 'lat': 41.89628, 'lng': 12.474383}]",329,00186,IT,Roma,Lazio,Italia,"[""Piazza di Sant'Andrea della Valle"", '00186 Roma Lazio', 'Italia']",,4adcdac6f964a520035321e3,Panthéon
12,Louis Vuitton,Boutique,Piazza di San Lorenzo in Lucina 41,,41.9038492,12.4788223,"[{'label': 'display', 'lat': 41.9038492, 'lng': 12.4788223}]",605,00186,IT,Roma,Lazio,Italia,"['Piazza di San Lorenzo in Lucina 41', '00186 Roma Lazio', 'Italia']",,4f218a1be4b0b69d78a4f6ff,Panthéon
13,Piazza del Campidoglio,Plaza,Piazza del Campidoglio,,41.89332137812433,12.482955747846482,"[{'label': 'display', 'lat': 41.89332137812433, 'lng': 12.482955747846482}]",777,00186,IT,Roma,Lazio,Italia,"['Piazza del Campidoglio', '00186 Roma Lazio', 'Italia']",,4adcdac7f964a5209f5321e3,Panthéon
14,Two Sizes,Dessert Shop,Via del governo vecchio 88,Vicolo della cancelleria,41.89804758670326,12.471558376859273,"[{'label': 'display', 'lat': 41.89804758670326, 'lng': 12.471558376859273}]",441,00186,IT,Roma,Lazio,Italia,"['Via del governo vecchio 88 (Vicolo della cancelleria)', '00186 Roma Lazio', 'Italia']",,58da9ead7220e62a2580bb4a,Panthéon
15,Ponte Sant'Angelo,Bridge,Ponte Sant'Angelo,,41.901356317374734,12.466491221097717,"[{'label': 'display', 'lat': 41.901356317374734, 'lng': 12.466491221097717}]",909,00193,IT,Roma,Lazio,Italia,"[""Ponte Sant'Angelo"", '00193 Roma Lazio', 'Italia']",,4adcdac8f964a520f05321e3,Panthéon
16,Foro Romano,Historic Site,Via dei Fori Imperiali,,41.89282428381951,12.485503137107758,,965,00186,IT,Roma,Lazio,Italia,"['Via dei Fori Imperiali', '00186 Roma Lazio', 'Italia']",,4adcdac6f964a520335321e3,Panthéon
17,Bartolucci,Toy / Game Store,"Via dei Pastini, 96-98-99",,41.89982012622285,12.478811776928012,"[{'label': 'display', 'lat': 41.89982012622285, 'lng': 12.478811776928012}]",211,00186,IT,Roma,Lazio,Italia,"['Via dei Pastini, 96-98-99', '00186 Roma Lazio', 'Italia']",,4c869f6174d7b60cc8bba5d8,Panthéon
18,Il Goccetto,Wine Bar,"Via dei Banchi Vecchi, 14",Via delle Carceri,41.8978224266521,12.467379882074916,"[{'label': 'display', 'lat': 41.8978224266521, 'lng': 12.467379882074916}]",788,00186,IT,Roma,Lazio,Italia,"['Via dei Banchi Vecchi, 14 (Via delle Carceri)', '00186 Roma Lazio', 'Italia']",,4c01491cd715c92875d9fce3,Panthéon
19,Foro di Traiano,Historic Site,Piazza Foro Traiano,,41.89472893619501,12.4848713109981,"[{'label': 'display', 'lat': 41.89472893619501, 'lng': 12.4848713109981}]",794,00187,IT,Roma,Lazio,Italia,"['Piazza Foro Traiano', '00187 Roma Lazio', 'Italia']",,4c41fd5c520fa593517ccaac,Panthéon
20,Mimì e Cocò,Wine Bar,"Via del Governo Vecchio, 72",,41.89808329489454,12.471409615464415,"[{'label': 'display', 'lat': 41.89808329489454, 'lng': 12.471409615464415}]",453,00186,IT,Roma,Lazio,Italia,"['Via del Governo Vecchio, 72', '00186 Roma Lazio', 'Italia']",,4e51864dd164978659e7ad5a,Panthéon
21,Castel Sant'Angelo,Castle,Lungotevere Castello,,41.903131463609306,12.466328144073485,"[{'label': 'display', 'lat': 41.903131463609306, 'lng': 12.466328144073485}]",1005,00193,IT,Roma,Lazio,Italia,"['Lungotevere Castello', '00193 Roma Lazio', 'Italia']",,4adcdac6f964a520475321e3,Panthéon
22,Trevi-fontein (Fontana di Trevi),Fountain,Piazza di Trevi,,41.900844313166985,12.483251782820536,"[{'label': 'display', 'lat': 41.900844313166985, 'lng': 12.483251782820536}]",586,00187,IT,Roma,Lazio,Italia,"['Piazza di Trevi', '00187 Roma Lazio', 'Italia']",Trevi,4adcdac6f964a5202b5321e3,Panthéon
23,Zuil van Trajanus (Colonna Traiana),Monument / Landmark,Piazza Foro Traiano,,41.895816378556574,12.48427614569664,"[{'label': 'display', 'lat': 41.895816378556574, 'lng': 12.48427614569664}]",690,00187,IT,Roma,Lazio,Italia,"['Piazza Foro Traiano', '00187 Roma Lazio', 'Italia']",Monti,4adcdac9f964a520ff5321e3,Panthéon
24,Templio de Antonino e Faustina,Temple,Foro Romano,,41.89217881581378,12.486694157123566,"[{'label': 'display', 'lat': 41.89217881581378, 'lng': 12.486694157123566}]",1086,,IT,Roma,Lazio,Italia,"['Foro Romano', 'Roma Lazio', 'Italia']",,4f672748e4b03aa48f894aca,Panthéon
25,Roscioli CAFFè - pasticceria,Café,"Piazza Benedetto Cairoli, 16",,41.894206258050566,12.474553676709009,"[{'label': 'display', 'lat': 41.894206258050566, 'lng': 12.474553676709009}]",525,00186,IT,Roma,Lazio,Italia,"['Piazza Benedetto Cairoli, 16', '00186 Roma Lazio', 'Italia']",,569ce053498e49ebb4008aa8,Panthéon
26,Baguetteria Del Fico,Sandwich Place,"Via della Fossa, 12",,41.89915,12.47074,"[{'label': 'display', 'lat': 41.89915, 'lng': 12.47074}]",508,00186,IT,Roma,Lazio,Italia,"['Via della Fossa, 12', '00186 Roma Lazio', 'Italia']",Parione,50be6475e4b018b4ed9a01b5,Panthéon
27,Gelateria del Teatro,Ice Cream Shop,"Via dei Coronari, 65",Via di San Simone 70,41.900463,12.469451,"[{'label': 'display', 'lat': 41.900463, 'lng': 12.469451}]",645,00186,IT,Roma,Lazio,Italia,"['Via dei Coronari, 65 (Via di San Simone 70)', '00186 Roma Lazio', 'Italia']",,4b4e3495f964a52035e526e3,Panthéon
28,Foro di Cesare,Historic Site,Via dei Fori Imperiali,,41.894128094003264,12.485232435795742,"[{'label': 'display', 'lat': 41.894128094003264, 'lng': 12.485232435795742}]",856,00187,IT,Roma,Lazio,Italia,"['Via dei Fori Imperiali', '00187 Roma Lazio', 'Italia']",,4e2859d5ae60078b2fca37e1,Panthéon
29,Fontana del Moro,Fountain,Piazza Navona,,41.8980612615042,12.473235634793305,"[{'label': 'display', 'lat': 41.8980612615042, 'lng': 12.473235634793305}]",304,00186,IT,Roma,Lazio,Italia,"['Piazza Navona', '00186 Roma Lazio', 'Italia']",,4adcdac9f964a520f95321e3,Panthéon
30,Piazza di Pietra,Plaza,Piazza Di Pietra,Via de Pastini,41.900053374587394,12.479294207804463,"[{'label': 'display', 'lat': 41.900053374587394, 'lng': 12.479294207804463}]",259,00186,IT,Roma,Lazio,Italia,"['Piazza Di Pietra (Via de Pastini)', '00186 Roma Lazio', 'Italia']",,4c138d5bb7b9c9286daca937,Panthéon
31,Farnese Gardens,Garden,,,41.88992784710109,12.485715927194587,"[{'label': 'display', 'lat': 41.88992784710109, 'lng': 12.485715927194587}]",1215,,IT,Roma,Lazio,Italia,"['Roma Lazio', 'Italia']",,50801134e4b01136c1c5a38c,Panthéon
32,Chiostro del Bramante,Art Museum,"Arco della Pace, 5",Via della Pace,41.9001004374591,12.471533898156158,"[{'label': 'display', 'lat': 41.9001004374591, 'lng': 12.471533898156158}]",469,00186,IT,Roma,Lazio,Italia,"['Arco della Pace, 5 (Via della Pace)', '00186 Roma Lazio', 'Italia']",,4adcdacaf964a520895421e3,Panthéon
33,Colonna di Marco Aurelio,Monument / Landmark,Piazza Colonna,,41.90093027400436,12.480185023524555,"[{'label': 'display', 'lat': 41.90093027400436, 'lng': 12.480185023524555}]",378,00187,IT,Roma,Lazio,Italia,"['Piazza Colonna', '00187 Roma Lazio', 'Italia']",Colonna,4adcdac6f964a5203a5321e3,Panthéon
34,La Romana,Ice Cream Shop,"Via Cola Di Rienzo, 2",,41.909174,12.470601,"[{'label': 'display', 'lat': 41.909174, 'lng': 12.470601}]",1283,00193,IT,Roma,Lazio,Italia,"['Via Cola Di Rienzo, 2', '00193 Roma Lazio', 'Italia']",,55859646498ee5701031b5c7,Panthéon
35,Venchi Cioccogelateria,Ice Cream Shop,Via della Croce 26/26,,41.9063173665377,12.480129222603694,"[{'label': 'display', 'lat': 41.9063173665377, 'lng': 12.480129222603694}]",899,00187,IT,Roma,Lazio,Italia,"['Via della Croce 26/26', '00187 Roma Lazio', 'Italia']",,4df3880c7d8b18e1722f3125,Panthéon
36,Tempio del Divo Romolo,Temple,Foro Romano,,41.8918633453399,12.487125992774962,"[{'label': 'display', 'lat': 41.8918633453399, 'lng': 12.487125992774962}]",1136,,IT,Roma,Lazio,Italia,"['Foro Romano', 'Roma Lazio', 'Italia']",,4e92cba98231bf0d178c6e8d,Panthéon
37,Albergo Del Senato,Hotel,,,41.899185603061476,12.476947545598017,"[{'label': 'display', 'lat': 41.899185603061476, 'lng': 12.476947545598017}]",64,,IT,Roma,Lazio,Italia,"['Roma Lazio', 'Italia']",Sant'Eustachio,4c0236e19a7920a1a12ace79,Panthéon
38,Tazza d'Oro,Coffee Shop,"Via degli Orfani, 84",,41.89943500478219,12.477359207618287,"[{'label': 'display', 'lat': 41.89943500478219, 'lng': 12.477359207618287}]",101,00186,IT,Roma,Lazio,Italia,"['Via degli Orfani, 84', '00186 Roma Lazio', 'Italia']",Sant'Eustachio,4adcdac4f964a5208a5221e3,Panthéon
39,Obelisco Flaminio,Monument / Landmark,Piazza del Popolo,,41.91075083324522,12.476385007103985,"[{'label': 'display', 'lat': 41.91075083324522, 'lng': 12.476385007103985}]",1351,,IT,Roma,Lazio,Italia,"['Piazza del Popolo', 'Roma Lazio', 'Italia']",Campo Marzio,4e9474c2775b564ca3221e61,Panthéon
40,Roscioli,Gourmet Shop,"Via Dei Giubbonari, 21",,41.89425,12.47431,"[{'label': 'display', 'lat': 41.89425, 'lng': 12.47431}]",529,00186,IT,Roma,Lazio,Italia,"['Via Dei Giubbonari, 21', '00186 Roma Lazio', 'Italia']",Sant'Eustachio,4dc3e01d922e0c63b7341c76,Panthéon
41,Mercati di Traiano - Museo dei Fori Imperiali,History Museum,"Via IV Novembre, 94",,41.8962879734008,12.485972954465614,"[{'label': 'display', 'lat': 41.8962879734008, 'lng': 12.485972954465614}]",800,00187,IT,Roma,Lazio,Italia,"['Via IV Novembre, 94', '00187 Roma Lazio', 'Italia']",,4e81b3936c2587afae481a48,Panthéon
42,Portico d'Ottavia,Historic Site,Via del Portico d'Ottavia,,41.89238205192686,12.4784995472442,"[{'label': 'display', 'lat': 41.89238205192686, 'lng': 12.4784995472442}]",707,00186,IT,Roma,Lazio,Italia,"[""Via del Portico d'Ottavia"", '00186 Roma Lazio', 'Italia']",,4adcdac8f964a520db5321e3,Panthéon
43,Fiocco Di Neve at the Pantheon,Ice Cream Shop,Via del Pantheon 51,,41.89988462037772,12.476702018879315,"[{'label': 'display', 'lat': 41.89988462037772, 'lng': 12.476702018879315}]",141,00186,IT,Roma,Lazio,Italia,"['Via del Pantheon 51', '00186 Roma Lazio', 'Italia']",,4bd842eae914a5935ac352fa,Panthéon
44,Terrazza del Pincio,Plaza,Piazzale Napoleone I,,41.9112039954345,12.479159832000732,"[{'label': 'display', 'lat': 41.9112039954345, 'lng': 12.479159832000732}]",1414,,IT,Roma,Lazio,Italia,"['Piazzale Napoleone I', 'Roma Lazio', 'Italia']",,4ca722cdb7106dcb97a664a5,Panthéon
45,La Prosciutteria,Italian Restaurant,"Via della Scala, 71",,41.890663353051025,12.468548293973516,"[{'label': 'display', 'lat': 41.890663353051025, 'lng': 12.468548293973516}]",1120,,IT,Roma,Lazio,Italia,"['Via della Scala, 71', 'Roma Lazio', 'Italia']",,54a9304f498e51ca1dbd9ee7,Panthéon
46,Terrazza delle Quadrighe,Scenic Lookout,Piazza Venezia,,41.894345941422216,12.483335689583733,"[{'label': 'display', 'lat': 41.894345941422216, 'lng': 12.483335689583733}]",718,00186,IT,Roma,Lazio,Italia,"['Piazza Venezia', '00186 Roma Lazio', 'Italia']",,4f0c212be4b020a8d94f991b,Panthéon
47,Piazza di Spagna,Plaza,Piazza di Spagna,,41.9060459968911,12.482056617736816,"[{'label': 'display', 'lat': 41.9060459968911, 'lng': 12.482056617736816}]",933,00187,IT,Roma,Lazio,Italia,"['Piazza di Spagna', '00187 Roma Lazio', 'Italia']",Campo Marzio,4adcdac6f964a520295321e3,Panthéon
48,My Ale,Sandwich Place,Via dei Cappellari 79,,41.89686794616527,12.46989976946625,"[{'label': 'display', 'lat': 41.89686794616527, 'lng': 12.46989976946625}]",606,00186,IT,Roma,Lazio,Italia,"['Via dei Cappellari 79', '00186 Roma Lazio', 'Italia']",,5377a1e5498eda27e043a8e7,Panthéon
49,Hotel de Russie,Hotel,Via del Babuino 9,,41.91012621746897,12.477775107588972,"[{'label': 'display', 'lat': 41.91012621746897, 'lng': 12.477775107588972}]",1283,00187,IT,Roma,Lazio,Italia,"['Via del Babuino 9', '00187 Roma Lazio', 'Italia']",,4adcdac1f964a520ce5121e3,Panthéon
50,Fontana del Nettuno,Fountain,Piazza Navona,,41.899729589074305,12.473060601200002,"[{'label': 'display', 'lat': 41.899729589074305, 'lng': 12.473060601200002}]",336,00186,IT,Roma,Lazio,Italia,"['Piazza Navona', '00186 Roma Lazio', 'Italia']",,4adcdac9f964a520065421e3,Panthéon
51,Giardino degli Aranci,Garden,Piazza Pietro d'Illaria,,41.88520615570125,12.480141520500181,"[{'label': 'display', 'lat': 41.88520615570125, 'lng': 12.480141520500181}]",1517,00153,IT,Roma,Lazio,Italia,"[""Piazza Pietro d'Illaria"", '00153 Roma Lazio', 'Italia']",,4c0a74e9a1b32d7fe64d99f0,Panthéon
52,La Prosciutteria,Italian Restaurant,"Via Della Panetteria, 34",,41.90188821230828,12.484467183172217,"[{'label': 'display', 'lat': 41.90188821230828, 'lng': 12.484467183172217}]",729,,IT,Roma,Lazio,Italia,"['Via Della Panetteria, 34', 'Roma Lazio', 'Italia']",Trevi,52fa76ba498ebc45669803ce,Panthéon
53,Trapizzino Trilussa,Sandwich Place,46 Piazza Trilussa,,41.89164109701531,12.470058018151445,"[{'label': 'display', 'lat': 41.89164109701531, 'lng': 12.470058018151445}]",958,00153,IT,Roma,Lazio,Italia,"['46 Piazza Trilussa', '00153 Roma Lazio', 'Italia']",,59d07a95dee77042f8861b9a,Panthéon
54,Campo de' Fiori,Plaza,Campo de' Fiori,,41.895702283600706,12.4720196946437,"[{'label': 'display', 'lat': 41.895702283600706, 'lng': 12.4720196946437}]",514,00186,IT,Roma,Lazio,Italia,"[""Campo de' Fiori"", '00186 Roma Lazio', 'Italia']",,4adcdac8f964a520e55321e3,Panthéon
55,Zuma Roma,Japanese Restaurant,"Via della Fontanella di Borghese, 48,",,41.90462399361811,12.478445931681245,"[{'label': 'display', 'lat': 41.90462399361811, 'lng': 12.478445931681245}]",682,00186,IT,Roma,Lazio,Italia,"['Via della Fontanella di Borghese, 48,', '00186 Roma Lazio', 'Italia']",,57123127498ea9ddf6846517,Panthéon
56,Giolitti,Ice Cream Shop,"Via degli Uffici del Vicario, 40",,41.90110820957347,12.477202186270606,"[{'label': 'display', 'lat': 41.90110820957347, 'lng': 12.477202186270606}]",279,00186,IT,Roma,Lazio,Italia,"['Via degli Uffici del Vicario, 40', '00186 Roma Lazio', 'Italia']",Sant'Eustachio,4adcdac2f964a520025221e3,Panthéon
57,Palazzo Venezia,Monument / Landmark,3 Piazza Venezia,,41.895965,12.481852,"[{'label': 'display', 'lat': 41.895965, 'lng': 12.481852}]",509,00187,IT,Roma,Lazio,Italia,"['3 Piazza Venezia', '00187 Roma Lazio', 'Italia']",,4adcdac7f964a520b45321e3,Panthéon
58,Palazzo Altemps,Art Museum,"Piazza di Sant'Apollinare, 46",,41.90076984019772,12.473156392850095,"[{'label': 'display', 'lat': 41.90076984019772, 'lng': 12.473156392850095}]",387,00186,IT,Roma,Lazio,Italia,"[""Piazza di Sant'Apollinare, 46"", '00186 Roma Lazio', 'Italia']",,4adcdacaf964a5207b5421e3,Panthéon
59,Colosseo,Historic Site,Piazza del Colosseo,Via dei Fori Imperiali,41.89063339494293,12.492377758026123,"[{'label': 'display', 'lat': 41.89063339494293, 'lng': 12.492377758026123}]",1564,00184,IT,Roma,Lazio,Italia,"['Piazza del Colosseo (Via dei Fori Imperiali)', '00184 Roma Lazio', 'Italia']",,4adcdac6f964a520355321e3,Panthéon
60,Antico Forno Roscioli,Bakery,Via dei Chiavari 34,,41.894624313352836,12.474326707965298,"[{'label': 'display', 'lat': 41.894624313352836, 'lng': 12.474326707965298}]",490,00186,IT,Roma,Lazio,Italia,"['Via dei Chiavari 34', '00186 Roma Lazio', 'Italia']",,4bdeba5fffdec9283a5de9a1,Panthéon
61,Largo di Torre Argentina,Plaza,Largo di Torre Argentina,,41.895797054670886,12.476851876633738,"[{'label': 'display', 'lat': 41.895797054670886, 'lng': 12.476851876633738}]",313,00186,IT,Roma,Lazio,Italia,"['Largo di Torre Argentina', '00186 Roma Lazio', 'Italia']",,4adcdac9f964a520365421e3,Panthéon
62,Sala Del Perseo,Museum,,,41.902905,12.466359,"[{'label': 'display', 'lat': 41.902905, 'lng': 12.466359}]",990,00193,IT,Roma,Lazio,Italia,"['00193 Roma Lazio', 'Italia']",,58ff5fa0b9ac3810e9f4b344,Panthéon
63,Terrazza del Gianicolo,Scenic Lookout,Piazzale Giuseppe Garibaldi,,41.89155637967782,12.461348446833272,"[{'label': 'display', 'lat': 41.89155637967782, 'lng': 12.461348446833272}]",1504,00165,IT,Roma,Lazio,Italia,"['Piazzale Giuseppe Garibaldi', '00165 Roma Lazio', 'Italia']",,4c557ad3fd2ea593e1a7cd2b,Panthéon
64,Barnum Cafè,Café,Via del Pellegrino 87,,41.897079,12.469898,"[{'label': 'display', 'lat': 41.897079, 'lng': 12.469898}]",599,00186,IT,Roma,Lazio,Italia,"['Via del Pellegrino 87', '00186 Roma Lazio', 'Italia']",Regola,4bbb84013de8c9b6f0d899ad,Panthéon
65,Cantina e Cucina,Italian Restaurant,"Via Del Governo Vecchio, 87",,41.8980017968182,12.471656830324028,"[{'label': 'display', 'lat': 41.8980017968182, 'lng': 12.471656830324028}]",434,00186,IT,Roma,Lazio,Italia,"['Via Del Governo Vecchio, 87', '00186 Roma Lazio', 'Italia']",Parione,4d84a28b8de9721e0fa23451,Panthéon
66,Salotto 42,Lounge,"Piazza di Pietra, 42",,41.900048515738646,12.479425482842286,"[{'label': 'display', 'lat': 41.900048515738646, 'lng': 12.479425482842286}]",267,00186,IT,Roma,Lazio,Italia,"['Piazza di Pietra, 42', '00186 Roma Lazio', 'Italia']",,4bdb27ecc79cc928e56681e9,Panthéon
67,Piazza di Santa Maria in Trastevere,Plaza,Piazza di Santa Maria in Trastevere,,41.889518,12.470252,"[{'label': 'display', 'lat': 41.889518, 'lng': 12.470252}]",1150,00153,IT,Roma,Lazio,Italia,"['Piazza di Santa Maria in Trastevere', '00153 Roma Lazio', 'Italia']",Trastevere,4ea9dbd0775bf08569518ffe,Panthéon
68,Obelisco Vaticano,Monument / Landmark,Piazza San Pietro,,41.90223312173371,12.45726227760315,"[{'label': 'display', 'lat': 41.90223312173371, 'lng': 12.45726227760315}]",1670,00120,VA,Vatican,,Vatican,"['Piazza San Pietro', '00120 Vatican City', 'Vatican']",Città del Vaticano,4adcdac8f964a520c85321e3,Panthéon
69,Palatino,Historic Site,Via San Gregorio 30,,41.88823370053188,12.487209141254423,"[{'label': 'display', 'lat': 41.88823370053188, 'lng': 12.487209141254423}]",1440,00184,IT,Roma,Lazio,Italia,"['Via San Gregorio 30', '00184 Roma Lazio', 'Italia']",,4bffa730daf9c9b61579faef,Panthéon
70,Piazza San Pietro,Plaza,Piazza San Pietro,,41.902225136415936,12.457026243209839,"[{'label': 'display', 'lat': 41.902225136415936, 'lng': 12.457026243209839}]",1689,00120,VA,Vatican,,Vatican,"['Piazza San Pietro', '00120 Vatican City', 'Vatican']",Città del Vaticano,4adcdac7f964a520735321e3,Panthéon
71,San Marcello al Corso,Church,Piazza di San Marcello 5,,41.89859386692398,12.481445831084763,"[{'label': 'display', 'lat': 41.89859386692398, 'lng': 12.481445831084763}]",382,00187,IT,Roma,Lazio,Italia,"['Piazza di San Marcello 5', '00187 Roma Lazio', 'Italia']",,4bf4885d13a6b713f8385d33,Panthéon
72,Le LEVAIN,Breakfast Spot,Via Luigi Santini 22,,41.88710363088132,12.468741766027662,"[{'label': 'display', 'lat': 41.88710363088132, 'lng': 12.468741766027662}]",1446,00153,IT,Roma,Lazio,Italia,"['Via Luigi Santini 22', '00153 Roma Lazio', 'Italia']",,54aed694498e1f1081af78ad,Panthéon
73,Basilica di Santa Maria Maggiore,Church,Piazza di Santa Maria Maggiore,,41.897629420367046,12.498428821563719,"[{'label': 'display', 'lat': 41.897629420367046, 'lng': 12.498428821563719}]",1792,00184,IT,Roma,Lazio,Italia,"['Piazza di Santa Maria Maggiore', '00184 Roma Lazio', 'Italia']",,4c1df65ffcf8c9b6fb8bac0b,Panthéon
74,Basilica di Santa Maria in Trastevere,Church,Piazza di Santa Maria in Trastevere,,41.889414,12.469551,"[{'label': 'display', 'lat': 41.889414, 'lng': 12.469551}]",1188,00153,IT,Roma,Lazio,Italia,"['Piazza di Santa Maria in Trastevere', '00153 Roma Lazio', 'Italia']",,4adcdac6f964a5200e5321e3,Panthéon
75,Piazza del Popolo,Plaza,Piazza del Popolo,,41.91068300860548,12.476342493364426,"[{'label': 'display', 'lat': 41.91068300860548, 'lng': 12.476342493364426}]",1343,00187,IT,Roma,Lazio,Italia,"['Piazza del Popolo', '00187 Roma Lazio', 'Italia']",,4adcdac7f964a520935321e3,Panthéon
76,Panino Divino,Sandwich Place,Via dei Gracchi 11a,Via Ottaviano,41.906839,12.458221,"[{'label': 'display', 'lat': 41.906839, 'lng': 12.458221}]",1793,00192,IT,Roma,Lazio,Italia,"['Via dei Gracchi 11a (Via Ottaviano)', '00192 Roma Lazio', 'Italia']",,519cadbc498ed52c32ea3fff,Panthéon
77,Villa Borghese,Park,Piazzale Flaminio,,41.914653074615394,12.483644485473633,"[{'label': 'display', 'lat': 41.914653074615394, 'lng': 12.483644485473633}]",1872,00196,IT,Roma,Lazio,Italia,"['Piazzale Flaminio', '00196 Roma Lazio', 'Italia']",,4adcdac6f964a5203c5321e3,Panthéon
78,Arco di Tito,Monument / Landmark,Via Sacra,,41.89064936847651,12.488536834716797,,1314,00186,IT,Roma,Lazio,Italia,"['Via Sacra', '00186 Roma Lazio', 'Italia']",Campitelli,4c5be145857ca593ab7fc8cb,Panthéon
79,Emma,Pizza Place,"Via del Monte della Farina, 28/29",at Via di Sant'Anna,41.89475814792712,12.475082357778922,"[{'label': 'display', 'lat': 41.89475814792712, 'lng': 12.475082357778922}]",453,00186,IT,Roma,Lazio,Italia,"[""Via del Monte della Farina, 28/29 (at Via di Sant'Anna)"", '00186 Roma Lazio', 'Italia']",,5388df60498e1afc163697b8,Panthéon
80,Teatro di Marcello,Historic Site,"Piazza Monte Savello, 30",,41.891931,12.479798,"[{'label': 'display', 'lat': 41.891931, 'lng': 12.479798}]",783,00186,IT,Roma,Lazio,Italia,"['Piazza Monte Savello, 30', '00186 Roma Lazio', 'Italia']",,4adcdac6f964a5203d5321e3,Panthéon
81,Pompi,Dessert Shop,Via della Croce 82,,41.90641833068196,12.480571319300683,"[{'label': 'display', 'lat': 41.90641833068196, 'lng': 12.480571319300683}]",922,00187,IT,Roma,Lazio,Italia,"['Via della Croce 82', '00187 Roma Lazio', 'Italia']",,4eef417c93add02fce2d708c,Panthéon
82,Cremilla,Ice Cream Shop,Via di Porta Castello 39,,41.904209457176435,12.463329434394835,"[{'label': 'display', 'lat': 41.904209457176435, 'lng': 12.463329434394835}]",1280,,IT,Roma,Lazio,Italia,"['Via di Porta Castello 39', 'Roma Lazio', 'Italia']",,5b5cb6d3625a66002c2fc67a,Panthéon
83,Fontana dell'Acqua Paola,Fountain,"Via Giuseppe Garibaldi, 35",,41.88890056827302,12.46435772780594,"[{'label': 'display', 'lat': 41.88890056827302, 'lng': 12.46435772780594}]",1496,00153,IT,Roma,Lazio,Italia,"['Via Giuseppe Garibaldi, 35', '00153 Roma Lazio', 'Italia']",Trastevere,4da499bc593f8eeccd497e35,Panthéon
84,Taverna Trilussa,Italian Restaurant,"Via del Politeama, 21",,41.890683094660616,12.471348158697301,"[{'label': 'display', 'lat': 41.890683094660616, 'lng': 12.471348158697301}]",993,00153,IT,Roma,Lazio,Italia,"['Via del Politeama, 21', '00153 Roma Lazio', 'Italia']",,4b463a89f964a520c21a26e3,Panthéon
85,Piazza Trilussa,Plaza,Piazza Trilussa,,41.89182965100398,12.469993198021283,"[{'label': 'display', 'lat': 41.89182965100398, 'lng': 12.469993198021283}]",944,,IT,Roma,Lazio,Italia,"['Piazza Trilussa', 'Roma Lazio', 'Italia']",,4ba8e59ef964a5201ff839e3,Panthéon
86,Basilica di San Pietro (Basilica Sancti Petri),Church,Piazza San Pietro,,41.902133305189565,12.453582286834715,"[{'label': 'display', 'lat': 41.902133305189565, 'lng': 12.453582286834715}]",1965,00120,VA,Vatican,,Vatican,"['Piazza San Pietro', '00120 Città del Vaticano', 'Vatican']",Città del Vaticano,4adcdac6f964a520105321e3,Panthéon
87,Cupola di San Pietro,Scenic Lookout,Piazza San Pietro,,41.90220976115311,12.453407016695822,"[{'label': 'display', 'lat': 41.90220976115311, 'lng': 12.453407016695822}]",1981,,IT,Città del Vaticano,Città del Vaticano,Italia,"['Piazza San Pietro', 'Città del Vaticano Città del Vaticano', 'Italia']",Città del Vaticano,5043382de4b072dc96b3796d,Panthéon
88,Ma Che Siete Venuti A Fà,Pub,"Via Benedetta, 25",,41.891743486258214,12.469147502251712,"[{'label': 'display', 'lat': 41.891743486258214, 'lng': 12.469147502251712}]",995,00153,IT,Roma,Lazio,Italia,"['Via Benedetta, 25', '00153 Roma Lazio', 'Italia']",Trastevere,4b157a56f964a52071ad23e3,Panthéon
89,Ai Tre Scalini,Wine Bar,"Via Panisperna, 251",,41.896347818830705,12.490418011337228,"[{'label': 'display', 'lat': 41.896347818830705, 'lng': 12.490418011337228}]",1153,00184,IT,Roma,Lazio,Italia,"['Via Panisperna, 251', '00184 Roma Lazio', 'Italia']",Monti,4bd73fba09ecb7130975467c,Panthéon
90,Fontana delle Tartarughe,Fountain,Piazza Mattei,,41.8938494614327,12.477513541077055,"[{'label': 'display', 'lat': 41.8938494614327, 'lng': 12.477513541077055}]",533,00186,IT,Roma,Lazio,Italia,"['Piazza Mattei', '00186 Roma Lazio', 'Italia']",,4adcdac7f964a5206d5321e3,Panthéon
91,Stadio palatino (Stadio palatino | Stadio di Domiziano),Historic Site,,Palatino,41.8875823767912,12.487496137619017,"[{'label': 'display', 'lat': 41.8875823767912, 'lng': 12.487496137619017}]",1513,,IT,Roma,Lazio,Italia,"['Roma Lazio', 'Italia']",,51c95c8c498e482954f2ed7d,Panthéon
92,Piazza del Quirinale,Plaza,Piazza del Quirinale,,41.899294578473324,12.486820794047116,"[{'label': 'display', 'lat': 41.899294578473324, 'lng': 12.486820794047116}]",830,00187,IT,Roma,Lazio,Italia,"['Piazza del Quirinale', '00187 Roma Lazio', 'Italia']",,4eb4072902d5f33e91f1edbe,Panthéon
93,Scalinata di Trinità dei Monti,Historic Site,Piazza Trinità dei Monti 17,Piazza di Spagna,41.90597413328674,12.482646703720091,"[{'label': 'display', 'lat': 41.90597413328674, 'lng': 12.482646703720091}]",950,00187,IT,Roma,Lazio,Italia,"['Piazza Trinità dei Monti 17 (Piazza di Spagna)', '00187 Roma Lazio', 'Italia']",,4aabd1cff964a5203c5a20e3,Panthéon
94,Forno Campo de' Fiori,Bakery,"Piazza Campo de' Fiori, 22",,41.895807535774246,12.471559156578298,"[{'label': 'display', 'lat': 41.895807535774246, 'lng': 12.471559156578298}]",537,00186,IT,Roma,Lazio,Italia,"[""Piazza Campo de' Fiori, 22"", '00186 Roma Lazio', 'Italia']",Campo de' Fiori,4adcdad2f964a520c55621e3,Panthéon
95,Vineria Il Chianti,Italian Restaurant,"Via del Lavatore, 81","Via del Lavatore, 81",41.90105083141092,12.484178044162327,"[{'label': 'display', 'lat': 41.90105083141092, 'lng': 12.484178044162327}]",666,00187,IT,Roma,Lazio,Italia,"['Via del Lavatore, 81 (Via del Lavatore, 81)', '00187 Roma Lazio', 'Italia']",Trevi,4be93f86ee96c928b8ecfebf,Panthéon
96,Sofitel Rome Villa Borghese,Hotel,Via Lombardia 47,,41.90762116595226,12.486660550107331,"[{'label': 'display', 'lat': 41.90762116595226, 'lng': 12.486660550107331}]",1291,00187,IT,Roma,Lazio,Italia,"['Via Lombardia 47', '00187 Roma Lazio', 'Italia']",,4adcdabef964a520295121e3,Panthéon
97,La Romana,Ice Cream Shop,"Via Venti Settembre, 60",Via Piave,41.90772475553485,12.49898435190215,"[{'label': 'display', 'lat': 41.90772475553485, 'lng': 12.49898435190215}]",2096,00187,IT,Roma,Lazio,Italia,"['Via Venti Settembre, 60 (Via Piave)', '00187 Roma Lazio', 'Italia']",,51a0bced498ee3b3eb8a6f9c,Panthéon
98,Le Jardin de Russie,Mediterranean Restaurant,Via del Babuino 9,,41.91018398321711,12.477783729438615,"[{'label': 'display', 'lat': 41.91018398321711, 'lng': 12.477783729438615}]",1290,00187,IT,Roma,Lazio,Italia,"['Via del Babuino 9', '00187 Roma Lazio', 'Italia']",,4adcdad0f964a520d85521e3,Panthéon
99,Rome Style Hotel,Hotel,Via dei Due Macelli 106,,41.90331004865928,12.485086231738164,"[{'label': 'display', 'lat': 41.90331004865928, 'lng': 12.485086231738164}]",860,00187,IT,Roma,Lazio,Italia,"['Via dei Due Macelli 106', '00187 Roma Lazio', 'Italia']",,5725ccd0498eb1720d74768c,Panthéon
0,Eiffelturm (Tour Eiffel),Monument / Landmark,5 avenue Anatole France,,48.85825817805569,2.294423282146454,"[{'label': 'display', 'lat': 48.85825817805569, 'lng': 2.294423282146454}]",5,75007,FR,Paris,Île-de-France,France,"['5 avenue Anatole France', '75007 Paris', 'France']",Tour Eiffel - Parc du Champ-de-Mars,51a2445e5019c80b56934c75,Eiffel Tower
1,Place du Trocadéro,Plaza,Place du Trocadéro et du 11 Novembre,,48.86295026846909,2.287205457687378,"[{'label': 'display', 'lat': 48.86295026846909, 'lng': 2.287205457687378}]",746,75016,FR,Paris,Île-de-France,France,"['Place du Trocadéro et du 11 Novembre', '75016 Paris', 'France']",,4bb381b7eb3e9521d738cb0a,Eiffel Tower
2,Sommet de la Tour Eiffel,Scenic Lookout,5 avenue Anatole France,,48.85833092066099,2.2945008587019395,"[{'label': 'display', 'lat': 48.85833092066099, 'lng': 2.2945008587019395}]",7,75007,FR,Paris,Île-de-France,France,"['5 avenue Anatole France', '75007 Paris', 'France']",,58c41f2b0e0a1e57d8dc841c,Eiffel Tower
3,Palais de Tokyo,Art Museum,13 avenue du Président Wilson,,48.864206594101105,2.2967004776000977,"[{'label': 'display', 'lat': 48.864206594101105, 'lng': 2.2967004776000977}]",681,75016,FR,Paris,Île-de-France,France,"['13 avenue du Président Wilson', '75016 Paris', 'France']",Chaillot,4adcda10f964a5208d3521e3,Eiffel Tower
4,Shangri-La Hotel Paris,Hotel,10 avenue d'Iéna,,48.86376194312927,2.293444275856018,"[{'label': 'display', 'lat': 48.86376194312927, 'lng': 2.293444275856018}]",617,75116,FR,Paris,Île-de-France,France,"[""10 avenue d'Iéna"", '75116 Paris', 'France']",,4bd36c0eb221c9b66fbdd9d0,Eiffel Tower
5,Jardins du Trocadéro,Garden,Avenue des Nations Unies,,48.86121394630214,2.289919853210449,"[{'label': 'display', 'lat': 48.86121394630214, 'lng': 2.289919853210449}]",469,75016,FR,Paris,Île-de-France,France,"['Avenue des Nations Unies', '75016 Paris', 'France']",,4adcda09f964a520063421e3,Eiffel Tower
6,Hôtel Plaza Athénée,Hotel,25 avenue Montaigne,Rue Clément Marot,48.86623539871467,2.304373677060653,"[{'label': 'display', 'lat': 48.86623539871467, 'lng': 2.304373677060653}]",1145,75008,FR,Paris,Île-de-France,France,"['25 avenue Montaigne (Rue Clément Marot)', '75008 Paris', 'France']",,4b817458f964a52024a730e3,Eiffel Tower
7,La Girafe,Restaurant,"Palais de Chaillot 1, Place du Trocadéro",,48.862179807057025,2.2888498289765167,"[{'label': 'display', 'lat': 48.862179807057025, 'lng': 2.2888498289765167}]",601,75016,FR,Paris,Île-de-France,France,"['Palais de Chaillot 1, Place du Trocadéro', '75016 Paris', 'France']",,5b61826df193c0002cfec9d5,Eiffel Tower
8,Hôtel Four Seasons George V,Hotel,31 avenue George V,,48.868849,2.300683,"[{'label': 'display', 'lat': 48.868849, 'lng': 2.300683}]",1262,75008,FR,Paris,Île-de-France,France,"['31 avenue George V', '75008 Paris', 'France']",,4adcda00f964a520ba3021e3,Eiffel Tower
9,Cité de l'Architecture et du Patrimoine,Museum,Palais de Chaillot,,48.862703234437916,2.28865385055542,"[{'label': 'display', 'lat': 48.862703234437916, 'lng': 2.28865385055542}]",654,75016,FR,Paris,Île-de-France,France,"['Palais de Chaillot', '75016 Paris', 'France']",Muette,4adcda10f964a520bb3521e3,Eiffel Tower
10,Parc du Champ de Mars (Jardin du Champ-de-Mars),Garden,Jardin du Champ-de-Mars,,48.855566953673204,2.298760414123535,"[{'label': 'display', 'lat': 48.855566953673204, 'lng': 2.298760414123535}]",432,75007,FR,Paris,Île-de-France,France,"['Jardin du Champ-de-Mars', '75007 Paris', 'France']",,4b0d54cbf964a520764623e3,Eiffel Tower
11,L'Ami Jean,French Restaurant,27 rue Malar,,48.860296563890564,2.305888511863262,"[{'label': 'display', 'lat': 48.860296563890564, 'lng': 2.305888511863262}]",864,75007,FR,Paris,Île-de-France,France,"['27 rue Malar', '75007 Paris', 'France']",,4adcda13f964a520ad3621e3,Eiffel Tower
12,The Peninsula Paris,Hotel,19 avenue Kléber,,48.87065006073456,2.293524742126465,"[{'label': 'display', 'lat': 48.87065006073456, 'lng': 2.293524742126465}]",1381,75116,FR,Paris,Île-de-France,France,"['19 avenue Kléber', '75116 Paris', 'France']",,4df4832f14954f21cf31ff92,Eiffel Tower
13,L'Oiseau Blanc,French Restaurant,19 avenue Kléber,,48.8704542282736,2.293594479560852,"[{'label': 'display', 'lat': 48.8704542282736, 'lng': 2.293594479560852}]",1359,75116,FR,Paris,Île-de-France,France,"['19 avenue Kléber', '75116 Paris', 'France']",Chaillot,53f72f4f498e240441adcfc5,Eiffel Tower
14,Monsieur Bleu,French Restaurant,20 avenue de New York,,48.8635741834836,2.2969249928711486,"[{'label': 'display', 'lat': 48.8635741834836, 'lng': 2.2969249928711486}]",617,75016,FR,Paris,Île-de-France,France,"['20 avenue de New York', '75016 Paris', 'France']",,51580302e4b0bca312253d27,Eiffel Tower
15,Le Cinq,French Restaurant,31 avenue George V,,48.868798433029255,2.300564761718998,"[{'label': 'display', 'lat': 48.868798433029255, 'lng': 2.300564761718998}]",1254,75008,FR,Paris,Île-de-France,France,"['31 avenue George V', '75008 Paris', 'France']",,4adcda13f964a520d33621e3,Eiffel Tower
16,Place des Invalides,Plaza,Place des Invalides,,48.85863052623177,2.3129439353942867,"[{'label': 'display', 'lat': 48.85863052623177, 'lng': 2.3129439353942867}]",1351,75007,FR,Paris,Île-de-France,France,"['Place des Invalides', '75007 Paris', 'France']",,50c5c94690e732743b022d32,Eiffel Tower
17,Christian Dior,Tailor Shop,34 Avenue Montaigne,,48.866974558476585,2.3068569498080738,"[{'label': 'display', 'lat': 48.866974558476585, 'lng': 2.3068569498080738}]",1326,75008,FR,Paris,Île-de-France,France,"['34 Avenue Montaigne', '75008 Paris', 'France']",,4adcda1ff964a5205b3921e3,Eiffel Tower
18,Jardin du Musée Rodin,Garden,79 rue de Varenne,Musée Rodin,48.85583847334092,2.3158099297222425,"[{'label': 'display', 'lat': 48.85583847334092, 'lng': 2.3158099297222425}]",1583,75014,FR,Paris,Île-de-France,France,"['79 rue de Varenne (Musée Rodin)', '75014 Paris', 'France']",,4dc790c01fc72e86376fc69c,Eiffel Tower
19,Hôtel Prince de Galles,Hotel,33 avenue George V,,48.869143,2.3006579,"[{'label': 'display', 'lat': 48.869143, 'lng': 2.3006579}]",1292,75008,FR,Paris,Île-de-France,France,"['33 avenue George V', '75008 Paris', 'France']",,4b730be2f964a520f4972de3,Eiffel Tower
20,Dior Institut au Plaza Athénée,Spa,25 avenue Montaigne,,48.866165368503935,2.304220629465135,"[{'label': 'display', 'lat': 48.866165368503935, 'lng': 2.304220629465135}]",1131,75008,FR,Paris,Île-de-France,France,"['25 avenue Montaigne', '75008 Paris', 'France']",,4c76308c604a3704ebb78449,Eiffel Tower
21,Louis Vuitton,Boutique,22 avenue Montaigne,,48.86626935918871,2.3054136259725055,"[{'label': 'display', 'lat': 48.86626935918871, 'lng': 2.3054136259725055}]",1197,75008,FR,Paris,Île-de-France,France,"['22 avenue Montaigne', '75008 Paris', 'France']",,4c24ced0f1272d7f189d83c5,Eiffel Tower
22,Grand Palais,Historic Site,3 avenue du Général Eisenhower,Avenue Winston Churchill,48.86611219637595,2.3126220703125,"[{'label': 'display', 'lat': 48.86611219637595, 'lng': 2.3126220703125}]",1589,75008,FR,Paris,Île-de-France,France,"['3 avenue du Général Eisenhower (Avenue Winston Churchill)', '75008 Paris', 'France']",,4c25f508a852c9281ab1e56c,Eiffel Tower
23,CHANEL,Boutique,42 Avenue Montaigne,,48.867341876477525,2.3075029300593997,"[{'label': 'display', 'lat': 48.867341876477525, 'lng': 2.3075029300593997}]",1388,75008,FR,Paris,Île-de-France,France,"['42 Avenue Montaigne', '75008 Paris', 'France']",,4ba22c2cf964a52033e137e3,Eiffel Tower
24,Hôtel Barrière Le Fouquet's,Hotel,46 avenue George V,,48.87107877236529,2.301236093044281,"[{'label': 'display', 'lat': 48.87107877236529, 'lng': 2.301236093044281}]",1509,75008,FR,Paris,Île-de-France,France,"['46 avenue George V', '75008 Paris', 'France']",,4b8be0ccf964a52018b032e3,Eiffel Tower
25,Guerlain,Cosmetics Shop,68 avenue des Champs-Élysées,,48.87097594,2.30514516,"[{'label': 'display', 'lat': 48.87097594, 'lng': 2.30514516}]",1615,75008,FR,Paris,Île-de-France,France,"['68 avenue des Champs-Élysées', '75008 Paris', 'France']",,4adcda1ef964a520423921e3,Eiffel Tower
26,Hôtel National des Invalides – Musée de l'Armée (Hôtel National des Invalides),Historic Site,Esplanade des Invalides,,48.856816405674856,2.3127615451812744,"[{'label': 'display', 'lat': 48.856816405674856, 'lng': 2.3127615451812744}]",1347,75007,FR,Paris,Île-de-France,France,"['Esplanade des Invalides', '75007 Paris', 'France']",,4adcda09f964a520fd3321e3,Eiffel Tower
27,Berges de Seine – Rive gauche,Pedestrian Plaza,Quais de Seine,Entre la Tour Eiffel et le Pont des Arts,48.8630533475824,2.3135475165272785,"[{'label': 'display', 'lat': 48.8630533475824, 'lng': 2.3135475165272785}]",1493,,FR,Paris,Île-de-France,France,"['Quais de Seine (Entre la Tour Eiffel et le Pont des Arts)', 'Paris', 'France']",,4cc12b69873c236abc55b723,Eiffel Tower
28,Hôtel de Crillon,Hotel,10 place de la Concorde,,48.867329626506944,2.321140766143799,"[{'label': 'display', 'lat': 48.867329626506944, 'lng': 2.321140766143799}]",2196,75008,FR,Paris,Île-de-France,France,"['10 place de la Concorde', '75008 Paris', 'France']",,539788f1498e4e052ed81c7b,Eiffel Tower
29,Musée Rodin,Art Museum,79 rue de Varenne,Boulevard des Invalides,48.85538341572399,2.3158621788024902,"[{'label': 'display', 'lat': 48.85538341572399, 'lng': 2.3158621788024902}]",1597,75007,FR,Paris,Île-de-France,France,"['79 rue de Varenne (Boulevard des Invalides)', '75007 Paris', 'France']",,4adcda10f964a520b13521e3,Eiffel Tower
30,Le Bristol,Hotel,112 rue du Faubourg Saint-Honoré,,48.871804266610006,2.314902422735974,"[{'label': 'display', 'lat': 48.871804266610006, 'lng': 2.314902422735974}]",2122,75008,FR,Paris,Île-de-France,France,"['112 rue du Faubourg Saint-Honoré', '75008 Paris', 'France']",,4adcda00f964a520e13021e3,Eiffel Tower
31,Hôtel Le Royal Monceau Raffles,Hotel,37 Avenue Hoche,,48.87574467646414,2.300355060747923,"[{'label': 'display', 'lat': 48.87574467646414, 'lng': 2.300355060747923}]",1993,75008,FR,Paris,Île-de-France,France,"['37 Avenue Hoche', '75008 Paris', 'France']",,4ca46f77b0ff8cfa746fbf5e,Eiffel Tower
32,La Cantina Chic,Italian Restaurant,14 rue de l'Étoile,,48.877338784282294,2.2954969783446963,"[{'label': 'display', 'lat': 48.877338784282294, 'lng': 2.2954969783446963}]",2125,75017,FR,Paris,Île-de-France,France,"[""14 rue de l'Étoile"", '75017 Paris', 'France']",,5127d6aee4b0e1bb8f8a9f42,Eiffel Tower
33,Coya,Peruvian Restaurant,83-85 rue du Bac,,48.85423204166965,2.3246128857135773,"[{'label': 'display', 'lat': 48.85423204166965, 'lng': 2.3246128857135773}]",2250,75007,FR,Paris,Île-de-France,France,"['83-85 rue du Bac', '75007 Paris', 'France']",,5d6ae3b0ca1763000823441b,Eiffel Tower
34,Musée d'Orsay,Art Museum,1 rue de la Légion d'Honneur,Quai Anatole France,48.85999283813253,2.3263871669769287,"[{'label': 'display', 'lat': 48.85999283813253, 'lng': 2.3263871669769287}]",2343,75007,FR,Paris,Île-de-France,France,"[""1 rue de la Légion d'Honneur (Quai Anatole France)"", '75007 Paris', 'France']",,4adcda10f964a5208b3521e3,Eiffel Tower
35,Cartier,Jewelry Store,154 avenue des Champs Elysées,,48.8734797,2.2974633,"[{'label': 'display', 'lat': 48.8734797, 'lng': 2.2974633}]",1708,75008,FR,Paris,Île-de-France,France,"['154 avenue des Champs Elysées', '75008 Paris', 'France']",,4bd816a009ecb7135f03487c,Eiffel Tower
36,Jardin des Tuileries,Garden,Rue de Rivoli,Quai des Tuileries,48.863641957269515,2.326483726501465,"[{'label': 'display', 'lat': 48.863641957269515, 'lng': 2.326483726501465}]",2417,75001,FR,Paris,Île-de-France,France,"['Rue de Rivoli (Quai des Tuileries)', '75001 Paris', 'France']",Tuilerie,4b30f9bbf964a5208ffd24e3,Eiffel Tower
37,Place de la Concorde,Plaza,Place de la Concorde,,48.8655899274154,2.321215867996216,"[{'label': 'display', 'lat': 48.8655899274154, 'lng': 2.321215867996216}]",2119,75008,FR,Paris,Île-de-France,France,"['Place de la Concorde', '75008 Paris', 'France']",,4adcda09f964a520f73321e3,Eiffel Tower
38,La Marée,Seafood Restaurant,1 rue Daru,avenue des Ternes,48.87733613263744,2.300487756729126,"[{'label': 'display', 'lat': 48.87733613263744, 'lng': 2.300487756729126}]",2168,75008,FR,Paris,Île-de-France,France,"['1 rue Daru (avenue des Ternes)', '75008 Paris', 'France']",,4bc83e6b92b376b02707513a,Eiffel Tower
39,Jardins des Champs-Élysées,Garden,Avenue des Champs-Élysées,,48.86785025032083,2.314540838373373,"[{'label': 'display', 'lat': 48.86785025032083, 'lng': 2.314540838373373}]",1814,75008,FR,Paris,Île-de-France,France,"['Avenue des Champs-Élysées', '75008 Paris', 'France']",,4adcda09f964a520fe3321e3,Eiffel Tower
40,Musée de l'Orangerie,Art Museum,Jardin des Tuileries,Place de la Concorde,48.86379017505446,2.322664260864258,"[{'label': 'display', 'lat': 48.86379017505446, 'lng': 2.322664260864258}]",2152,75001,FR,Paris,Île-de-France,France,"['Jardin des Tuileries (Place de la Concorde)', '75001 Paris', 'France']",Tuileries,4adcda10f964a520983521e3,Eiffel Tower
41,Le Bon Marché,Department Store,24 rue de Sèvres,Rue Velpeau,48.851091,2.324381,"[{'label': 'display', 'lat': 48.851091, 'lng': 2.324381}]",2329,75007,FR,Paris,Île-de-France,France,"['24 rue de Sèvres (Rue Velpeau)', '75007 Paris', 'France']",Saint Thomas d'Aquin,4b2e385bf964a52067dd24e3,Eiffel Tower
42,Sormani,Italian Restaurant,4 rue du Général Lanrezac,,48.87589691362336,2.293698672623153,"[{'label': 'display', 'lat': 48.87589691362336, 'lng': 2.293698672623153}]",1964,75017,FR,Paris,Île-de-France,France,"['4 rue du Général Lanrezac', '75017 Paris', 'France']",,4adcda11f964a520343621e3,Eiffel Tower
43,Parc Monceau,Park,35-41 boulevard de Courcelles,Avenue Ferdousi,48.87958041734081,2.3091804903585342,"[{'label': 'display', 'lat': 48.87958041734081, 'lng': 2.3091804903585342}]",2605,75008,FR,Paris,Île-de-France,France,"['35-41 boulevard de Courcelles (Avenue Ferdousi)', '75008 Paris', 'France']",,4adcda09f964a5200d3421e3,Eiffel Tower
44,La Grande Épicerie de Paris,Gourmet Shop,38 rue de Sèvres,,48.85028720733153,2.3240691222224763,"[{'label': 'display', 'lat': 48.85028720733153, 'lng': 2.3240691222224763}]",2340,75007,FR,Paris,Île-de-France,France,"['38 rue de Sèvres', '75007 Paris', 'France']",,4adcda21f964a520fc3921e3,Eiffel Tower
45,Mori Yoshida,Pastry Shop,65 avenue de Breteuil,,48.84797603907342,2.312234491109848,"[{'label': 'display', 'lat': 48.84797603907342, 'lng': 2.312234491109848}]",1731,75007,FR,Paris,Île-de-France,France,"['65 avenue de Breteuil', '75007 Paris', 'France']",,51602778e4b01c5e825f4878,Eiffel Tower
46,Matsuhisa Paris,Japanese Restaurant,35-37 avenue Hoche,Hôtel Le Royal Monceau,48.87553448739521,2.3006366193294525,"[{'label': 'display', 'lat': 48.87553448739521, 'lng': 2.3006366193294525}]",1974,75008,FR,Paris,Île-de-France,France,"['35-37 avenue Hoche (Hôtel Le Royal Monceau)', '75008 Paris', 'France']",,50abd239e4b0869279d6a3af,Eiffel Tower
47,Musée Marmottan Monet,Art Museum,2 rue Louis Boilly,Avenue Raphael,48.859152437679086,2.267524203751436,,1978,75016,FR,Paris,Île-de-France,France,"['2 rue Louis Boilly (Avenue Raphael)', '75016 Paris', 'France']",,4adcda10f964a5209a3521e3,Eiffel Tower
48,Sofitel Paris Arc de Triomphe,Hotel,14 Rue Beaujon,,48.8750421406568,2.301292924713607,"[{'label': 'display', 'lat': 48.8750421406568, 'lng': 2.301292924713607}]",1933,75008,FR,Paris,Île-de-France,France,"['14 Rue Beaujon', '75008 Paris', 'France']",Champs,4b1fde88f964a520012a24e3,Eiffel Tower
49,Hôtel Ritz,Hotel,15 place Vendôme,,48.86810594329886,2.3288923501968384,"[{'label': 'display', 'lat': 48.86810594329886, 'lng': 2.3288923501968384}]",2746,75001,FR,Paris,Île-de-France,France,"['15 place Vendôme', '75001 Paris', 'France']",,53b65301498e8cb57224f80c,Eiffel Tower
50,Musée Jacquemart-André,Art Museum,158 boulevard Haussmann,,48.87543448596967,2.3105406761169434,"[{'label': 'display', 'lat': 48.87543448596967, 'lng': 2.3105406761169434}]",2243,75008,FR,Paris,Île-de-France,France,"['158 boulevard Haussmann', '75008 Paris', 'France']",,4bbddcf1593fef3b31ea0356,Eiffel Tower
51,Hôtel Park Hyatt Paris-Vendôme,Hotel,5 rue de la Paix,,48.86889283393748,2.3303380608558655,"[{'label': 'display', 'lat': 48.86889283393748, 'lng': 2.3303380608558655}]",2879,75002,FR,Paris,Île-de-France,France,"['5 rue de la Paix', '75002 Paris', 'France']",,4adcda03f964a520d83121e3,Eiffel Tower
52,Hôtel Mandarin Oriental,Hotel,251 rue Saint-Honoré,,48.86698662076993,2.327178418636322,"[{'label': 'display', 'lat': 48.86698662076993, 'lng': 2.327178418636322}]",2582,75001,FR,Paris,Île-de-France,France,"['251 rue Saint-Honoré', '75001 Paris', 'France']",,4d61286a1ee8721e010db321,Eiffel Tower
53,Afaria,Basque Restaurant,15 rue Desnouettes,,48.83604881674399,2.291782907861589,"[{'label': 'display', 'lat': 48.83604881674399, 'lng': 2.291782907861589}]",2480,75015,FR,Paris,Île-de-France,France,"['15 rue Desnouettes', '75015 Paris', 'France']",,4bd88a0f11dcc9284ac7f633,Eiffel Tower
54,Place Vendôme,Plaza,Place Vendôme,,48.86779769319868,2.3297411847276526,"[{'label': 'display', 'lat': 48.86779769319868, 'lng': 2.3297411847276526}]",2790,75001,FR,Paris,Île-de-France,France,"['Place Vendôme', '75001 Paris', 'France']",,4adcda09f964a5200e3421e3,Eiffel Tower
55,Librairie du Musée d'Orsay,Bookstore,1 rue de la Légion d'Honneur,,48.86003108965947,2.3261019732284596,"[{'label': 'display', 'lat': 48.86003108965947, 'lng': 2.3261019732284596}]",2322,75007,FR,Paris,Île-de-France,France,"[""1 rue de la Légion d'Honneur"", '75007 Paris', 'France']",,4eee19d802d514a36abd0d87,Eiffel Tower
56,Ralph Lauren,Clothing Store,173 Boulevard Saint Germain,,48.85422390287324,2.330624111027735,"[{'label': 'display', 'lat': 48.85422390287324, 'lng': 2.330624111027735}]",2683,75006,FR,Paris,Île-de-France,France,"['173 Boulevard Saint Germain', '75006 Paris', 'France']",,4bc094f1920eb713a51b192c,Eiffel Tower
57,Place de l'Opéra,Plaza,Place de l'Opéra,,48.87086688393964,2.3321523722815702,"[{'label': 'display', 'lat': 48.87086688393964, 'lng': 2.3321523722815702}]",3093,75009,FR,Paris,Île-de-France,France,"[""Place de l'Opéra"", '75009 Paris', 'France']",,4bc30cc12a89ef3bf670f488,Eiffel Tower
58,Amorino,Ice Cream Shop,Jardin des Tuileries,Place de la Concorde,48.86421536708272,2.324462294850483,"[{'label': 'display', 'lat': 48.86421536708272, 'lng': 2.324462294850483}]",2292,75001,FR,Paris,Île-de-France,France,"['Jardin des Tuileries (Place de la Concorde)', '75001 Paris', 'France']",,4e0dee1b62843e04afa5f37f,Eiffel Tower
59,Librairie Galignani,Bookstore,224 rue de Rivoli,,48.864989,2.32857,"[{'label': 'display', 'lat': 48.864989, 'lng': 2.32857}]",2605,75001,FR,Paris,Île-de-France,France,"['224 rue de Rivoli', '75001 Paris', 'France']",,4b487de3f964a5202d4e26e3,Eiffel Tower
60,CHANEL,Boutique,31 rue Cambon,Rue Des Capucines,48.86818882792764,2.3266343030758208,"[{'label': 'display', 'lat': 48.86818882792764, 'lng': 2.3266343030758208}]",2599,75001,FR,Paris,Île-de-France,France,"['31 rue Cambon (Rue Des Capucines)', '75001 Paris', 'France']",,4adcda1df964a5202a3921e3,Eiffel Tower
61,Opéra Garnier,Opera House,8 rue Scribe,Rue Auber,48.872124954463864,2.331708669662475,"[{'label': 'display', 'lat': 48.872124954463864, 'lng': 2.331708669662475}]",3131,75009,FR,Paris,Île-de-France,France,"['8 rue Scribe (Rue Auber)', '75009 Paris', 'France']",,4b54148df964a520b0b127e3,Eiffel Tower
62,L'Olympia,Concert Hall,28 boulevard des Capucines,,48.870212,2.328331,"[{'label': 'display', 'lat': 48.870212, 'lng': 2.328331}]",2812,75009,FR,Paris,Île-de-France,France,"['28 boulevard des Capucines', '75009 Paris', 'France']",,4adcda15f964a520c53721e3,Eiffel Tower
63,Musée du Louvre,Art Museum,Rue de Rivoli,Place du Carrousel,48.86084691113991,2.336440086364746,"[{'label': 'display', 'lat': 48.86084691113991, 'lng': 2.336440086364746}]",3085,75001,FR,Paris,Île-de-France,France,"['Rue de Rivoli (Place du Carrousel)', '75001 Paris', 'France']",Le Louvre,4adcda10f964a520af3521e3,Eiffel Tower
64,Vestige de la Forteresse du Louvre,Historic Site,Palais du Louvre,,48.86157701632968,2.3335077597365377,"[{'label': 'display', 'lat': 48.86157701632968, 'lng': 2.3335077597365377}]",2880,75001,FR,Paris,Île-de-France,France,"['Palais du Louvre', '75001 Paris', 'France']",,4f6dabf5003944083fe0002e,Eiffel Tower
65,Il était une Oie dans le Sud-Ouest,French Restaurant,8 rue Gustave Flaubert,,48.881448262539706,2.2991192622008687,"[{'label': 'display', 'lat': 48.881448262539706, 'lng': 2.2991192622008687}]",2603,75017,FR,Paris,Île-de-France,France,"['8 rue Gustave Flaubert', '75017 Paris', 'France']",,4c113790ce57c928a42383d2,Eiffel Tower
66,La Vénus de Milo (Vénus de Milo),Exhibit,Musée du Louvre,"Aile Sully, rdc, salle 346",48.859943428504316,2.3372340202331543,"[{'label': 'display', 'lat': 48.859943428504316, 'lng': 2.3372340202331543}]",3135,75001,FR,Paris,Île-de-France,France,"['Musée du Louvre (Aile Sully, rdc, salle 346)', '75001 Paris', 'France']","Louvre, Paris",5864efb745c3ed1e7d88e96d,Eiffel Tower
67,Jardin du Luxembourg,Garden,Place Edmond Rostand,Rue de Médicis,48.84705290819862,2.3365044593811035,"[{'label': 'display', 'lat': 48.84705290819862, 'lng': 2.3365044593811035}]",3320,75006,FR,Paris,Île-de-France,France,"['Place Edmond Rostand (Rue de Médicis)', '75006 Paris', 'France']",,4ba8b203f964a520a6e739e3,Eiffel Tower
68,Jardin du Palais Royal,Garden,Palais Royal,,48.86494061245833,2.3377275466918945,"[{'label': 'display', 'lat': 48.86494061245833, 'lng': 2.3377275466918945}]",3251,75001,FR,Paris,Île-de-France,France,"['Palais Royal', '75001 Paris', 'France']",,4ba8b650f964a520f5e839e3,Eiffel Tower
69,Balagan,Israeli Restaurant,9 rue d'Alger,,48.865432333548,2.3296802389659015,"[{'label': 'display', 'lat': 48.865432333548, 'lng': 2.3296802389659015}]",2697,75001,FR,Paris,Île-de-France,France,"[""9 rue d'Alger"", '75001 Paris', 'France']",,59288f080d173f5887669625,Eiffel Tower
70,Grand Bassin du Jardin du Luxembourg,Fountain,Jardin du Luxembourg,,48.8469042547371,2.3371830582618713,"[{'label': 'display', 'lat': 48.8469042547371, 'lng': 2.3371830582618713}]",3372,75006,FR,Paris,Île-de-France,France,"['Jardin du Luxembourg', '75006 Paris', 'France']",Odéon,55536fca498e1bf662c2ed7d,Eiffel Tower
71,Cour Carrée du Louvre,Pedestrian Plaza,Rue de Rivoli,Place du Louvre,48.8603598795578,2.3385429382324214,"[{'label': 'display', 'lat': 48.8603598795578, 'lng': 2.3385429382324214}]",3234,75001,FR,Paris,Île-de-France,France,"['Rue de Rivoli (Place du Louvre)', '75001 Paris', 'France']",,4c079d740ed3c928b6be797d,Eiffel Tower
72,Hermès,Tailor Shop,17 rue de Sèvres,,48.851562496952035,2.3276853561401367,"[{'label': 'display', 'lat': 48.851562496952035, 'lng': 2.3276853561401367}]",2542,75007,FR,Paris,Île-de-France,France,"['17 rue de Sèvres', '75007 Paris', 'France']",Notre-Dame-des-Champs,4ce573dd7785a1cdf4e519b9,Eiffel Tower
73,Perruche,Lounge,"Printemps de l’Homme, 9e étage",2 rue du Havre,48.8738,2.327341,"[{'label': 'display', 'lat': 48.8738, 'lng': 2.327341}]",2962,75009,FR,Paris,Île-de-France,France,"['Printemps de l’Homme, 9e étage (2 rue du Havre)', '75009 Paris', 'France']",,5b5781704f0e58002c86a5e8,Eiffel Tower
74,Grand Bassin Rond,Fountain,Jardin des Tuileries,,48.862879687441755,2.3292946815490723,"[{'label': 'display', 'lat': 48.862879687441755, 'lng': 2.3292946815490723}]",2599,75001,FR,Paris,Île-de-France,France,"['Jardin des Tuileries', '75001 Paris', 'France']",,51584deee4b0bca3145abc8a,Eiffel Tower
75,Place Saint-Germain-des-Prés,Plaza,Place Saint-Germain-des-Prés,,48.85418334331855,2.3335111141204834,"[{'label': 'display', 'lat': 48.85418334331855, 'lng': 2.3335111141204834}]",2893,75006,FR,Paris,Île-de-France,France,"['Place Saint-Germain-des-Prés', '75006 Paris', 'France']",Saint-Germain-des-Prés,4bc07b0eb492d13af546a460,Eiffel Tower
76,Bar 8,Hotel Bar,251 rue Saint-Honoré,Hôtel Mandarin Oriental,48.8669653,2.3271337,"[{'label': 'display', 'lat': 48.8669653, 'lng': 2.3271337}]",2578,75001,FR,Paris,Île-de-France,France,"['251 rue Saint-Honoré (Hôtel Mandarin Oriental)', '75001 Paris', 'France']",Place Vendôme,4f593369e4b07f0bf5903183,Eiffel Tower
77,Galeries Lafayette Gourmet,Gourmet Shop,35 boulevard Haussmann,,48.873046,2.330438,"[{'label': 'display', 'lat': 48.873046, 'lng': 2.330438}]",3104,75009,FR,Paris,Île-de-France,France,"['35 boulevard Haussmann', '75009 Paris', 'France']",,4b673be3f964a520e5422be3,Eiffel Tower
78,Ladurée,Dessert Shop,14 rue Castiglione,,48.86612102985312,2.3284493959564543,"[{'label': 'display', 'lat': 48.86612102985312, 'lng': 2.3284493959564543}]",2635,75001,FR,Paris,Île-de-France,France,"['14 rue Castiglione', '75001 Paris', 'France']",Place Vendôme,50e16cdfe4b0439f0718ba5a,Eiffel Tower
79,Palais Royal,Historic Site,Place du Palais Royal,,48.86323576771446,2.3371267318725586,"[{'label': 'display', 'lat': 48.86323576771446, 'lng': 2.3371267318725586}]",3170,75001,FR,Paris,Île-de-France,France,"['Place du Palais Royal', '75001 Paris', 'France']",,4adcda09f964a520ed3321e3,Eiffel Tower
80,"Pavillon des Sessions – Arts d'Afrique, d'Asie, d'Océanie et des Amériques",Art Museum,Musée du Louvre,,48.860724043718605,2.332121414307368,"[{'label': 'display', 'lat': 48.860724043718605, 'lng': 2.332121414307368}]",2768,75001,FR,Paris,Île-de-France,France,"['Musée du Louvre', '75001 Paris', 'France']",,588ba9a9fc5a5f18a36a2a05,Eiffel Tower
81,Breizh Café,Creperie,1 rue de l'Odéon,,48.851638,2.338804,"[{'label': 'display', 'lat': 48.851638, 'lng': 2.338804}]",3327,75006,FR,Paris,Île-de-France,France,"[""1 rue de l'Odéon"", '75006 Paris', 'France']",,59468bd1898bdc07ffc0d6ac,Eiffel Tower
82,Bistrotters,Bistro,9 rue Decrès,,48.832929252166196,2.3147047696213474,"[{'label': 'display', 'lat': 48.832929252166196, 'lng': 2.3147047696213474}]",3184,75014,FR,Paris,Île-de-France,France,"['9 rue Decrès', '75014 Paris', 'France']",,50a3836fe4b08f00ef2d3f44,Eiffel Tower
83,Grom,Ice Cream Shop,81 rue de Seine,,48.853338281725925,2.336956549841011,"[{'label': 'display', 'lat': 48.853338281725925, 'lng': 2.336956549841011}]",3157,75006,FR,Paris,Île-de-France,France,"['81 rue de Seine', '75006 Paris', 'France']",,4ae9fafdf964a5202cb821e3,Eiffel Tower
84,Terrasse des Galeries Lafayette,Roof Deck,40 boulevard Haussmann,Galeries Lafayette Haussmann,48.87333870999123,2.332170009613037,"[{'label': 'display', 'lat': 48.87333870999123, 'lng': 2.332170009613037}]",3229,75009,FR,Paris,Île-de-France,France,"['40 boulevard Haussmann (Galeries Lafayette Haussmann)', '75009 Paris', 'France']",,4bc9d4260687ef3b1b88dacc,Eiffel Tower
85,Chez Nous,Wine Bar,10 rue Dauphine,,48.855823217287835,2.340271085661046,"[{'label': 'display', 'lat': 48.855823217287835, 'lng': 2.340271085661046}]",3363,75006,FR,Paris,Île-de-France,France,"['10 rue Dauphine', '75006 Paris', 'France']",,53568d3e498e92e5a3a56f36,Eiffel Tower
86,Place Saint-Sulpice,Plaza,Place Saint-Sulpice,Rue Bonaparte,48.850822987537555,2.333323359489441,"[{'label': 'display', 'lat': 48.850822987537555, 'lng': 2.333323359489441}]",2961,75006,FR,Paris,Île-de-France,France,"['Place Saint-Sulpice (Rue Bonaparte)', '75006 Paris', 'France']",,4cbc4e56d78f4688815ac773,Eiffel Tower
87,Sanukiya,Udon Restaurant,9 rue d'Argenteuil,,48.86471330060748,2.333805151283741,"[{'label': 'display', 'lat': 48.86471330060748, 'lng': 2.333805151283741}]",2966,75001,FR,Paris,Île-de-France,France,"[""9 rue d'Argenteuil"", '75001 Paris', 'France']",,4f0b706de5e8207020057ed7,Eiffel Tower
88,Cour Napoléon,Plaza,Place du Carrousel,,48.86117159622847,2.3350882530212402,"[{'label': 'display', 'lat': 48.86117159622847, 'lng': 2.3350882530212402}]",2990,75001,FR,Paris,Île-de-France,France,"['Place du Carrousel', '75001 Paris', 'France']",,5072efe7e4b0c34b5146e7fd,Eiffel Tower
89,Amorino,Ice Cream Shop,4 rue Vavin,,48.84472335853748,2.3321104795364187,"[{'label': 'display', 'lat': 48.84472335853748, 'lng': 2.3321104795364187}]",3140,75006,FR,Paris,Île-de-France,France,"['4 rue Vavin', '75006 Paris', 'France']",,4bcb2d36cc8cd13a6bc9becf,Eiffel Tower
90,Jardin d'Acclimatation,Garden,Avenue du Mahatma Gandhi,Bois de Boulogne,48.87854623378722,2.264835834503174,"[{'label': 'display', 'lat': 48.87854623378722, 'lng': 2.264835834503174}]",3133,75016,FR,Paris,Île-de-France,France,"['Avenue du Mahatma Gandhi (Bois de Boulogne)', '75016 Paris', 'France']",,4adcda23f964a520543a21e3,Eiffel Tower
91,Place du Louvre,Plaza,Place du Louvre,,48.859841,2.340822,"[{'label': 'display', 'lat': 48.859841, 'lng': 2.340822}]",3397,75001,FR,Paris,Île-de-France,France,"['Place du Louvre', '75001 Paris', 'France']",,4f979c8ae4b05465dae0714f,Eiffel Tower
92,Bistro du Périgord,French Restaurant,69-73 rue Saint-Jacques,,48.84988629254856,2.345055089074744,"[{'label': 'display', 'lat': 48.84988629254856, 'lng': 2.345055089074744}]",3818,75005,FR,Paris,Île-de-France,France,"['69-73 rue Saint-Jacques', '75005 Paris', 'France']",,50d5be47e4b0fb6ff8363c5f,Eiffel Tower
93,Maison Sauvage,French Restaurant,5 rue de Buci,,48.85374384095544,2.337993110279558,"[{'label': 'display', 'lat': 48.85374384095544, 'lng': 2.337993110279558}]",3225,75006,FR,Paris,Île-de-France,France,"['5 rue de Buci', '75006 Paris', 'France']",,58f3634235f98340ef64a066,Eiffel Tower
94,L'Avant Comptoir,Wine Bar,3 carrefour de l'Odéon,,48.85203883164107,2.3388125002384186,"[{'label': 'display', 'lat': 48.85203883164107, 'lng': 2.3388125002384186}]",3318,75006,FR,Paris,Île-de-France,France,"[""3 carrefour de l'Odéon"", '75006 Paris', 'France']",,4afd8300f964a5203a2822e3,Eiffel Tower
95,Little Breizh,Breton Restaurant,11 rue Grégoire de Tours,,48.85323350489557,2.3378657230160544,"[{'label': 'display', 'lat': 48.85323350489557, 'lng': 2.3378657230160544}]",3225,75006,FR,Paris,Île-de-France,France,"['11 rue Grégoire de Tours', '75006 Paris', 'France']",,4d9f8e297ec88cfa0cdc865a,Eiffel Tower
96,Place Dauphine,Plaza,Place Dauphine,,48.85663993129474,2.342362403869629,"[{'label': 'display', 'lat': 48.85663993129474, 'lng': 2.342362403869629}]",3510,75001,FR,Paris,Île-de-France,France,"['Place Dauphine', '75001 Paris', 'France']",,4adcda09f964a520eb3321e3,Eiffel Tower
97,Shakespeare & Company,Bookstore,37 rue de la Bûcherie,,48.85256839809226,2.3470958322286606,"[{'label': 'display', 'lat': 48.85256839809226, 'lng': 2.3470958322286606}]",3904,75005,FR,Paris,Île-de-France,France,"['37 rue de la Bûcherie', '75005 Paris', 'France']",,4adcda21f964a520f23921e3,Eiffel Tower
98,Hôtel d'Aubusson,Hotel,33 rue Dauphine,,48.85472883599233,2.3395052403718175,"[{'label': 'display', 'lat': 48.85472883599233, 'lng': 2.3395052403718175}]",3319,75006,FR,Paris,Île-de-France,France,"['33 rue Dauphine', '75006 Paris', 'France']",,4adcda00f964a520de3021e3,Eiffel Tower
99,Prescription Cocktail Club,Cocktail Bar,23 rue Mazarine,,48.854921,2.337768,"[{'label': 'display', 'lat': 48.854921, 'lng': 2.337768}]",3190,75006,FR,Paris,Île-de-France,France,"['23 rue Mazarine', '75006 Paris', 'France']",,4b22eca6f964a5206c5024e3,Eiffel Tower
0,The Peninsula Paris,Hotel,19 avenue Kléber,,48.87065006073456,2.293524742126465,"[{'label': 'display', 'lat': 48.87065006073456, 'lng': 2.293524742126465}]",365,75116,FR,Paris,Île-de-France,France,"['19 avenue Kléber', '75116 Paris', 'France']",,4df4832f14954f21cf31ff92,Arc de Triomphe
1,L'Oiseau Blanc,French Restaurant,19 avenue Kléber,,48.8704542282736,2.293594479560852,"[{'label': 'display', 'lat': 48.8704542282736, 'lng': 2.293594479560852}]",384,75116,FR,Paris,Île-de-France,France,"['19 avenue Kléber', '75116 Paris', 'France']",Chaillot,53f72f4f498e240441adcfc5,Arc de Triomphe
2,La Cantina Chic,Italian Restaurant,14 rue de l'Étoile,,48.877338784282294,2.2954969783446963,"[{'label': 'display', 'lat': 48.877338784282294, 'lng': 2.2954969783446963}]",397,75017,FR,Paris,Île-de-France,France,"[""14 rue de l'Étoile"", '75017 Paris', 'France']",,5127d6aee4b0e1bb8f8a9f42,Arc de Triomphe
3,Hôtel Four Seasons George V,Hotel,31 avenue George V,,48.868849,2.300683,"[{'label': 'display', 'lat': 48.868849, 'lng': 2.300683}]",687,75008,FR,Paris,Île-de-France,France,"['31 avenue George V', '75008 Paris', 'France']",,4adcda00f964a520ba3021e3,Arc de Triomphe
4,Hôtel Le Royal Monceau Raffles,Hotel,37 Avenue Hoche,,48.87574467646414,2.300355060747923,"[{'label': 'display', 'lat': 48.87574467646414, 'lng': 2.300355060747923}]",446,75008,FR,Paris,Île-de-France,France,"['37 Avenue Hoche', '75008 Paris', 'France']",,4ca46f77b0ff8cfa746fbf5e,Arc de Triomphe
5,Cartier,Jewelry Store,154 avenue des Champs Elysées,,48.8734797,2.2974633,"[{'label': 'display', 'lat': 48.8734797, 'lng': 2.2974633}]",180,75008,FR,Paris,Île-de-France,France,"['154 avenue des Champs Elysées', '75008 Paris', 'France']",,4bd816a009ecb7135f03487c,Arc de Triomphe
6,La Marée,Seafood Restaurant,1 rue Daru,avenue des Ternes,48.87733613263744,2.300487756729126,"[{'label': 'display', 'lat': 48.87733613263744, 'lng': 2.300487756729126}]",562,75008,FR,Paris,Île-de-France,France,"['1 rue Daru (avenue des Ternes)', '75008 Paris', 'France']",,4bc83e6b92b376b02707513a,Arc de Triomphe
7,Sormani,Italian Restaurant,4 rue du Général Lanrezac,,48.87589691362336,2.293698672623153,"[{'label': 'display', 'lat': 48.87589691362336, 'lng': 2.293698672623153}]",255,75017,FR,Paris,Île-de-France,France,"['4 rue du Général Lanrezac', '75017 Paris', 'France']",,4adcda11f964a520343621e3,Arc de Triomphe
8,Le Cinq,French Restaurant,31 avenue George V,,48.868798433029255,2.300564761718998,"[{'label': 'display', 'lat': 48.868798433029255, 'lng': 2.300564761718998}]",686,75008,FR,Paris,Île-de-France,France,"['31 avenue George V', '75008 Paris', 'France']",,4adcda13f964a520d33621e3,Arc de Triomphe
9,Hôtel Barrière Le Fouquet's,Hotel,46 avenue George V,,48.87107877236529,2.301236093044281,"[{'label': 'display', 'lat': 48.87107877236529, 'lng': 2.301236093044281}]",544,75008,FR,Paris,Île-de-France,France,"['46 avenue George V', '75008 Paris', 'France']",,4b8be0ccf964a52018b032e3,Arc de Triomphe
10,Hôtel Plaza Athénée,Hotel,25 avenue Montaigne,Rue Clément Marot,48.86623539871467,2.304373677060653,"[{'label': 'display', 'lat': 48.86623539871467, 'lng': 2.304373677060653}]",1082,75008,FR,Paris,Île-de-France,France,"['25 avenue Montaigne (Rue Clément Marot)', '75008 Paris', 'France']",,4b817458f964a52024a730e3,Arc de Triomphe
11,Hôtel Prince de Galles,Hotel,33 avenue George V,,48.869143,2.3006579,"[{'label': 'display', 'lat': 48.869143, 'lng': 2.3006579}]",660,75008,FR,Paris,Île-de-France,France,"['33 avenue George V', '75008 Paris', 'France']",,4b730be2f964a520f4972de3,Arc de Triomphe
12,Matsuhisa Paris,Japanese Restaurant,35-37 avenue Hoche,Hôtel Le Royal Monceau,48.87553448739521,2.3006366193294525,"[{'label': 'display', 'lat': 48.87553448739521, 'lng': 2.3006366193294525}]",454,75008,FR,Paris,Île-de-France,France,"['35-37 avenue Hoche (Hôtel Le Royal Monceau)', '75008 Paris', 'France']",,50abd239e4b0869279d6a3af,Arc de Triomphe
13,Palais de Tokyo,Art Museum,13 avenue du Président Wilson,,48.864206594101105,2.2967004776000977,"[{'label': 'display', 'lat': 48.864206594101105, 'lng': 2.2967004776000977}]",1072,75016,FR,Paris,Île-de-France,France,"['13 avenue du Président Wilson', '75016 Paris', 'France']",Chaillot,4adcda10f964a5208d3521e3,Arc de Triomphe
14,Guerlain,Cosmetics Shop,68 avenue des Champs-Élysées,,48.87097594,2.30514516,"[{'label': 'display', 'lat': 48.87097594, 'lng': 2.30514516}]",803,75008,FR,Paris,Île-de-France,France,"['68 avenue des Champs-Élysées', '75008 Paris', 'France']",,4adcda1ef964a520423921e3,Arc de Triomphe
15,Parc Monceau,Park,35-41 boulevard de Courcelles,Avenue Ferdousi,48.87958041734081,2.3091804903585342,"[{'label': 'display', 'lat': 48.87958041734081, 'lng': 2.3091804903585342}]",1220,75008,FR,Paris,Île-de-France,France,"['35-41 boulevard de Courcelles (Avenue Ferdousi)', '75008 Paris', 'France']",,4adcda09f964a5200d3421e3,Arc de Triomphe
16,Sofitel Paris Arc de Triomphe,Hotel,14 Rue Beaujon,,48.8750421406568,2.301292924713607,"[{'label': 'display', 'lat': 48.8750421406568, 'lng': 2.301292924713607}]",479,75008,FR,Paris,Île-de-France,France,"['14 Rue Beaujon', '75008 Paris', 'France']",Champs,4b1fde88f964a520012a24e3,Arc de Triomphe
17,Shangri-La Hotel Paris,Hotel,10 avenue d'Iéna,,48.86376194312927,2.293444275856018,"[{'label': 'display', 'lat': 48.86376194312927, 'lng': 2.293444275856018}]",1121,75116,FR,Paris,Île-de-France,France,"[""10 avenue d'Iéna"", '75116 Paris', 'France']",,4bd36c0eb221c9b66fbdd9d0,Arc de Triomphe
18,Place du Trocadéro,Plaza,Place du Trocadéro et du 11 Novembre,,48.86295026846909,2.287205457687378,"[{'label': 'display', 'lat': 48.86295026846909, 'lng': 2.287205457687378}]",1334,75016,FR,Paris,Île-de-France,France,"['Place du Trocadéro et du 11 Novembre', '75016 Paris', 'France']",,4bb381b7eb3e9521d738cb0a,Arc de Triomphe
19,Il était une Oie dans le Sud-Ouest,French Restaurant,8 rue Gustave Flaubert,,48.881448262539706,2.2991192622008687,"[{'label': 'display', 'lat': 48.881448262539706, 'lng': 2.2991192622008687}]",904,75017,FR,Paris,Île-de-France,France,"['8 rue Gustave Flaubert', '75017 Paris', 'France']",,4c113790ce57c928a42383d2,Arc de Triomphe
20,Christian Dior,Tailor Shop,34 Avenue Montaigne,,48.866974558476585,2.3068569498080738,"[{'label': 'display', 'lat': 48.866974558476585, 'lng': 2.3068569498080738}]",1150,75008,FR,Paris,Île-de-France,France,"['34 Avenue Montaigne', '75008 Paris', 'France']",,4adcda1ff964a5205b3921e3,Arc de Triomphe
21,Le Bristol,Hotel,112 rue du Faubourg Saint-Honoré,,48.871804266610006,2.314902422735974,"[{'label': 'display', 'lat': 48.871804266610006, 'lng': 2.314902422735974}]",1471,75008,FR,Paris,Île-de-France,France,"['112 rue du Faubourg Saint-Honoré', '75008 Paris', 'France']",,4adcda00f964a520e13021e3,Arc de Triomphe
22,CHANEL,Boutique,42 Avenue Montaigne,,48.867341876477525,2.3075029300593997,"[{'label': 'display', 'lat': 48.867341876477525, 'lng': 2.3075029300593997}]",1160,75008,FR,Paris,Île-de-France,France,"['42 Avenue Montaigne', '75008 Paris', 'France']",,4ba22c2cf964a52033e137e3,Arc de Triomphe
23,Louis Vuitton,Boutique,22 avenue Montaigne,,48.86626935918871,2.3054136259725055,"[{'label': 'display', 'lat': 48.86626935918871, 'lng': 2.3054136259725055}]",1129,75008,FR,Paris,Île-de-France,France,"['22 avenue Montaigne', '75008 Paris', 'France']",,4c24ced0f1272d7f189d83c5,Arc de Triomphe
24,Dior Institut au Plaza Athénée,Spa,25 avenue Montaigne,,48.866165368503935,2.304220629465135,"[{'label': 'display', 'lat': 48.866165368503935, 'lng': 2.304220629465135}]",1081,75008,FR,Paris,Île-de-France,France,"['25 avenue Montaigne', '75008 Paris', 'France']",,4c76308c604a3704ebb78449,Arc de Triomphe
25,Grand Palais,Historic Site,3 avenue du Général Eisenhower,Avenue Winston Churchill,48.86611219637595,2.3126220703125,"[{'label': 'display', 'lat': 48.86611219637595, 'lng': 2.3126220703125}]",1544,75008,FR,Paris,Île-de-France,France,"['3 avenue du Général Eisenhower (Avenue Winston Churchill)', '75008 Paris', 'France']",,4c25f508a852c9281ab1e56c,Arc de Triomphe
26,Eiffelturm (Tour Eiffel),Monument / Landmark,5 avenue Anatole France,,48.85825817805569,2.294423282146454,"[{'label': 'display', 'lat': 48.85825817805569, 'lng': 2.294423282146454}]",1728,75007,FR,Paris,Île-de-France,France,"['5 avenue Anatole France', '75007 Paris', 'France']",Tour Eiffel - Parc du Champ-de-Mars,51a2445e5019c80b56934c75,Arc de Triomphe
27,Musée Jacquemart-André,Art Museum,158 boulevard Haussmann,,48.87543448596967,2.3105406761169434,"[{'label': 'display', 'lat': 48.87543448596967, 'lng': 2.3105406761169434}]",1149,75008,FR,Paris,Île-de-France,France,"['158 boulevard Haussmann', '75008 Paris', 'France']",,4bbddcf1593fef3b31ea0356,Arc de Triomphe
28,Cité de l'Architecture et du Patrimoine,Museum,Palais de Chaillot,,48.862703234437916,2.28865385055542,"[{'label': 'display', 'lat': 48.862703234437916, 'lng': 2.28865385055542}]",1318,75016,FR,Paris,Île-de-France,France,"['Palais de Chaillot', '75016 Paris', 'France']",Muette,4adcda10f964a520bb3521e3,Arc de Triomphe
29,La Girafe,Restaurant,"Palais de Chaillot 1, Place du Trocadéro",,48.862179807057025,2.2888498289765167,"[{'label': 'display', 'lat': 48.862179807057025, 'lng': 2.2888498289765167}]",1368,75016,FR,Paris,Île-de-France,France,"['Palais de Chaillot 1, Place du Trocadéro', '75016 Paris', 'France']",,5b61826df193c0002cfec9d5,Arc de Triomphe
30,Hôtel de Crillon,Hotel,10 place de la Concorde,,48.867329626506944,2.321140766143799,"[{'label': 'display', 'lat': 48.867329626506944, 'lng': 2.321140766143799}]",2041,75008,FR,Paris,Île-de-France,France,"['10 place de la Concorde', '75008 Paris', 'France']",,539788f1498e4e052ed81c7b,Arc de Triomphe
31,Monsieur Bleu,French Restaurant,20 avenue de New York,,48.8635741834836,2.2969249928711486,"[{'label': 'display', 'lat': 48.8635741834836, 'lng': 2.2969249928711486}]",1144,75016,FR,Paris,Île-de-France,France,"['20 avenue de New York', '75016 Paris', 'France']",,51580302e4b0bca312253d27,Arc de Triomphe
32,Jardins du Trocadéro,Garden,Avenue des Nations Unies,,48.86121394630214,2.289919853210449,"[{'label': 'display', 'lat': 48.86121394630214, 'lng': 2.289919853210449}]",1448,75016,FR,Paris,Île-de-France,France,"['Avenue des Nations Unies', '75016 Paris', 'France']",,4adcda09f964a520063421e3,Arc de Triomphe
33,L'Ami Jean,French Restaurant,27 rue Malar,,48.860296563890564,2.305888511863262,"[{'label': 'display', 'lat': 48.860296563890564, 'lng': 2.305888511863262}]",1698,75007,FR,Paris,Île-de-France,France,"['27 rue Malar', '75007 Paris', 'France']",,4adcda13f964a520ad3621e3,Arc de Triomphe
34,Jardins des Champs-Élysées,Garden,Avenue des Champs-Élysées,,48.86785025032083,2.314540838373373,"[{'label': 'display', 'lat': 48.86785025032083, 'lng': 2.314540838373373}]",1573,75008,FR,Paris,Île-de-France,France,"['Avenue des Champs-Élysées', '75008 Paris', 'France']",,4adcda09f964a520fe3321e3,Arc de Triomphe
35,Sommet de la Tour Eiffel,Scenic Lookout,5 avenue Anatole France,,48.85833092066099,2.2945008587019395,"[{'label': 'display', 'lat': 48.85833092066099, 'lng': 2.2945008587019395}]",1720,75007,FR,Paris,Île-de-France,France,"['5 avenue Anatole France', '75007 Paris', 'France']",,58c41f2b0e0a1e57d8dc841c,Arc de Triomphe
36,Place de la Concorde,Plaza,Place de la Concorde,,48.8655899274154,2.321215867996216,"[{'label': 'display', 'lat': 48.8655899274154, 'lng': 2.321215867996216}]",2122,75008,FR,Paris,Île-de-France,France,"['Place de la Concorde', '75008 Paris', 'France']",,4adcda09f964a520f73321e3,Arc de Triomphe
37,Berges de Seine – Rive gauche,Pedestrian Plaza,Quais de Seine,Entre la Tour Eiffel et le Pont des Arts,48.8630533475824,2.3135475165272785,"[{'label': 'display', 'lat': 48.8630533475824, 'lng': 2.3135475165272785}]",1806,,FR,Paris,Île-de-France,France,"['Quais de Seine (Entre la Tour Eiffel et le Pont des Arts)', 'Paris', 'France']",,4cc12b69873c236abc55b723,Arc de Triomphe
38,Place des Invalides,Plaza,Place des Invalides,,48.85863052623177,2.3129439353942867,"[{'label': 'display', 'lat': 48.85863052623177, 'lng': 2.3129439353942867}]",2136,75007,FR,Paris,Île-de-France,France,"['Place des Invalides', '75007 Paris', 'France']",,50c5c94690e732743b022d32,Arc de Triomphe
39,Jardin des Tuileries,Garden,Rue de Rivoli,Quai des Tuileries,48.863641957269515,2.326483726501465,"[{'label': 'display', 'lat': 48.863641957269515, 'lng': 2.326483726501465}]",2564,75001,FR,Paris,Île-de-France,France,"['Rue de Rivoli (Quai des Tuileries)', '75001 Paris', 'France']",Tuilerie,4b30f9bbf964a5208ffd24e3,Arc de Triomphe
40,Hôtel Ritz,Hotel,15 place Vendôme,,48.86810594329886,2.3288923501968384,"[{'label': 'display', 'lat': 48.86810594329886, 'lng': 2.3288923501968384}]",2558,75001,FR,Paris,Île-de-France,France,"['15 place Vendôme', '75001 Paris', 'France']",,53b65301498e8cb57224f80c,Arc de Triomphe
41,Jardin du Musée Rodin,Garden,79 rue de Varenne,Musée Rodin,48.85583847334092,2.3158099297222425,"[{'label': 'display', 'lat': 48.85583847334092, 'lng': 2.3158099297222425}]",2510,75014,FR,Paris,Île-de-France,France,"['79 rue de Varenne (Musée Rodin)', '75014 Paris', 'France']",,4dc790c01fc72e86376fc69c,Arc de Triomphe
42,Musée de l'Orangerie,Art Museum,Jardin des Tuileries,Place de la Concorde,48.86379017505446,2.322664260864258,"[{'label': 'display', 'lat': 48.86379017505446, 'lng': 2.322664260864258}]",2308,75001,FR,Paris,Île-de-France,France,"['Jardin des Tuileries (Place de la Concorde)', '75001 Paris', 'France']",Tuileries,4adcda10f964a520983521e3,Arc de Triomphe
43,Opéra Garnier,Opera House,8 rue Scribe,Rue Auber,48.872124954463864,2.331708669662475,"[{'label': 'display', 'lat': 48.872124954463864, 'lng': 2.331708669662475}]",2691,75009,FR,Paris,Île-de-France,France,"['8 rue Scribe (Rue Auber)', '75009 Paris', 'France']",,4b54148df964a520b0b127e3,Arc de Triomphe
44,Hôtel Park Hyatt Paris-Vendôme,Hotel,5 rue de la Paix,,48.86889283393748,2.3303380608558655,"[{'label': 'display', 'lat': 48.86889283393748, 'lng': 2.3303380608558655}]",2641,75002,FR,Paris,Île-de-France,France,"['5 rue de la Paix', '75002 Paris', 'France']",,4adcda03f964a520d83121e3,Arc de Triomphe
45,Place de l'Opéra,Plaza,Place de l'Opéra,,48.87086688393964,2.3321523722815702,"[{'label': 'display', 'lat': 48.87086688393964, 'lng': 2.3321523722815702}]",2736,75009,FR,Paris,Île-de-France,France,"[""Place de l'Opéra"", '75009 Paris', 'France']",,4bc30cc12a89ef3bf670f488,Arc de Triomphe
46,Musée d'Orsay,Art Museum,1 rue de la Légion d'Honneur,Quai Anatole France,48.85999283813253,2.3263871669769287,"[{'label': 'display', 'lat': 48.85999283813253, 'lng': 2.3263871669769287}]",2761,75007,FR,Paris,Île-de-France,France,"[""1 rue de la Légion d'Honneur (Quai Anatole France)"", '75007 Paris', 'France']",,4adcda10f964a5208b3521e3,Arc de Triomphe
47,Perruche,Lounge,"Printemps de l’Homme, 9e étage",2 rue du Havre,48.8738,2.327341,"[{'label': 'display', 'lat': 48.8738, 'lng': 2.327341}]",2365,75009,FR,Paris,Île-de-France,France,"['Printemps de l’Homme, 9e étage (2 rue du Havre)', '75009 Paris', 'France']",,5b5781704f0e58002c86a5e8,Arc de Triomphe
48,L'Olympia,Concert Hall,28 boulevard des Capucines,,48.870212,2.328331,"[{'label': 'display', 'lat': 48.870212, 'lng': 2.328331}]",2469,75009,FR,Paris,Île-de-France,France,"['28 boulevard des Capucines', '75009 Paris', 'France']",,4adcda15f964a520c53721e3,Arc de Triomphe
49,CMG Sports Club One Saint-Lazare,Gym / Fitness Center,11-13 rue Boursault,,48.88317466053196,2.320217720595173,"[{'label': 'display', 'lat': 48.88317466053196, 'lng': 2.320217720595173}]",2119,75017,FR,Paris,Île-de-France,France,"['11-13 rue Boursault', '75017 Paris', 'France']",,5719271b498e465e2d6525fa,Arc de Triomphe
50,Hôtel Mandarin Oriental,Hotel,251 rue Saint-Honoré,,48.86698662076993,2.327178418636322,"[{'label': 'display', 'lat': 48.86698662076993, 'lng': 2.327178418636322}]",2471,75001,FR,Paris,Île-de-France,France,"['251 rue Saint-Honoré', '75001 Paris', 'France']",,4d61286a1ee8721e010db321,Arc de Triomphe
51,Place Vendôme,Plaza,Place Vendôme,,48.86779769319868,2.3297411847276526,"[{'label': 'display', 'lat': 48.86779769319868, 'lng': 2.3297411847276526}]",2626,75001,FR,Paris,Île-de-France,France,"['Place Vendôme', '75001 Paris', 'France']",,4adcda09f964a5200e3421e3,Arc de Triomphe
52,Parc du Champ de Mars (Jardin du Champ-de-Mars),Garden,Jardin du Champ-de-Mars,,48.855566953673204,2.298760414123535,"[{'label': 'display', 'lat': 48.855566953673204, 'lng': 2.298760414123535}]",2045,75007,FR,Paris,Île-de-France,France,"['Jardin du Champ-de-Mars', '75007 Paris', 'France']",,4b0d54cbf964a520764623e3,Arc de Triomphe
53,Galeries Lafayette Gourmet,Gourmet Shop,35 boulevard Haussmann,,48.873046,2.330438,"[{'label': 'display', 'lat': 48.873046, 'lng': 2.330438}]",2593,75009,FR,Paris,Île-de-France,France,"['35 boulevard Haussmann', '75009 Paris', 'France']",,4b673be3f964a520e5422be3,Arc de Triomphe
54,CHANEL,Boutique,31 rue Cambon,Rue Des Capucines,48.86818882792764,2.3266343030758208,"[{'label': 'display', 'lat': 48.86818882792764, 'lng': 2.3266343030758208}]",2395,75001,FR,Paris,Île-de-France,France,"['31 rue Cambon (Rue Des Capucines)', '75001 Paris', 'France']",,4adcda1df964a5202a3921e3,Arc de Triomphe
55,Jardin d'Acclimatation,Garden,Avenue du Mahatma Gandhi,Bois de Boulogne,48.87854623378722,2.264835834503174,"[{'label': 'display', 'lat': 48.87854623378722, 'lng': 2.264835834503174}]",2273,75016,FR,Paris,Île-de-France,France,"['Avenue du Mahatma Gandhi (Bois de Boulogne)', '75016 Paris', 'France']",,4adcda23f964a520543a21e3,Arc de Triomphe
56,Hôtel National des Invalides – Musée de l'Armée (Hôtel National des Invalides),Historic Site,Esplanade des Invalides,,48.856816405674856,2.3127615451812744,"[{'label': 'display', 'lat': 48.856816405674856, 'lng': 2.3127615451812744}]",2291,75007,FR,Paris,Île-de-France,France,"['Esplanade des Invalides', '75007 Paris', 'France']",,4adcda09f964a520fd3321e3,Arc de Triomphe
57,Cinéma des Cinéastes,Indie Movie Theater,7 avenue de Clichy,,48.88429274484065,2.327012258753519,"[{'label': 'display', 'lat': 48.88429274484065, 'lng': 2.327012258753519}]",2617,75017,FR,Paris,Île-de-France,France,"['7 avenue de Clichy', '75017 Paris', 'France']",,4adcda15f964a520b43721e3,Arc de Triomphe
58,Musée Rodin,Art Museum,79 rue de Varenne,Boulevard des Invalides,48.85538341572399,2.3158621788024902,"[{'label': 'display', 'lat': 48.85538341572399, 'lng': 2.3158621788024902}]",2553,75007,FR,Paris,Île-de-France,France,"['79 rue de Varenne (Boulevard des Invalides)', '75007 Paris', 'France']",,4adcda10f964a520b13521e3,Arc de Triomphe
59,Coya,Peruvian Restaurant,83-85 rue du Bac,,48.85423204166965,2.3246128857135773,"[{'label': 'display', 'lat': 48.85423204166965, 'lng': 2.3246128857135773}]",3070,75007,FR,Paris,Île-de-France,France,"['83-85 rue du Bac', '75007 Paris', 'France']",,5d6ae3b0ca1763000823441b,Arc de Triomphe
60,Librairie Galignani,Bookstore,224 rue de Rivoli,,48.864989,2.32857,"[{'label': 'display', 'lat': 48.864989, 'lng': 2.32857}]",2643,75001,FR,Paris,Île-de-France,France,"['224 rue de Rivoli', '75001 Paris', 'France']",,4b487de3f964a5202d4e26e3,Arc de Triomphe
61,Terrasse des Galeries Lafayette,Roof Deck,40 boulevard Haussmann,Galeries Lafayette Haussmann,48.87333870999123,2.332170009613037,"[{'label': 'display', 'lat': 48.87333870999123, 'lng': 2.332170009613037}]",2719,75009,FR,Paris,Île-de-France,France,"['40 boulevard Haussmann (Galeries Lafayette Haussmann)', '75009 Paris', 'France']",,4bc9d4260687ef3b1b88dacc,Arc de Triomphe
62,Amorino,Ice Cream Shop,Jardin des Tuileries,Place de la Concorde,48.86421536708272,2.324462294850483,"[{'label': 'display', 'lat': 48.86421536708272, 'lng': 2.324462294850483}]",2403,75001,FR,Paris,Île-de-France,France,"['Jardin des Tuileries (Place de la Concorde)', '75001 Paris', 'France']",,4e0dee1b62843e04afa5f37f,Arc de Triomphe
63,Balagan,Israeli Restaurant,9 rue d'Alger,,48.865432333548,2.3296802389659015,"[{'label': 'display', 'lat': 48.865432333548, 'lng': 2.3296802389659015}]",2701,75001,FR,Paris,Île-de-France,France,"[""9 rue d'Alger"", '75001 Paris', 'France']",,59288f080d173f5887669625,Arc de Triomphe
64,Jardin du Palais Royal,Garden,Palais Royal,,48.86494061245833,2.3377275466918945,"[{'label': 'display', 'lat': 48.86494061245833, 'lng': 2.3377275466918945}]",3277,75001,FR,Paris,Île-de-France,France,"['Palais Royal', '75001 Paris', 'France']",,4ba8b650f964a520f5e839e3,Arc de Triomphe
65,Bar 8,Hotel Bar,251 rue Saint-Honoré,Hôtel Mandarin Oriental,48.8669653,2.3271337,"[{'label': 'display', 'lat': 48.8669653, 'lng': 2.3271337}]",2469,75001,FR,Paris,Île-de-France,France,"['251 rue Saint-Honoré (Hôtel Mandarin Oriental)', '75001 Paris', 'France']",Place Vendôme,4f593369e4b07f0bf5903183,Arc de Triomphe
66,Musée Marmottan Monet,Art Museum,2 rue Louis Boilly,Avenue Raphael,48.859152437679086,2.267524203751436,,2590,75016,FR,Paris,Île-de-France,France,"['2 rue Louis Boilly (Avenue Raphael)', '75016 Paris', 'France']",,4adcda10f964a5209a3521e3,Arc de Triomphe
67,Ladurée,Dessert Shop,14 rue Castiglione,,48.86612102985312,2.3284493959564543,"[{'label': 'display', 'lat': 48.86612102985312, 'lng': 2.3284493959564543}]",2590,75001,FR,Paris,Île-de-France,France,"['14 rue Castiglione', '75001 Paris', 'France']",Place Vendôme,50e16cdfe4b0439f0718ba5a,Arc de Triomphe
68,Vestige de la Forteresse du Louvre,Historic Site,Palais du Louvre,,48.86157701632968,2.3335077597365377,"[{'label': 'display', 'lat': 48.86157701632968, 'lng': 2.3335077597365377}]",3127,75001,FR,Paris,Île-de-France,France,"['Palais du Louvre', '75001 Paris', 'France']",,4f6dabf5003944083fe0002e,Arc de Triomphe
69,Musée du Louvre,Art Museum,Rue de Rivoli,Place du Carrousel,48.86084691113991,2.336440086364746,"[{'label': 'display', 'lat': 48.86084691113991, 'lng': 2.336440086364746}]",3356,75001,FR,Paris,Île-de-France,France,"['Rue de Rivoli (Place du Carrousel)', '75001 Paris', 'France']",Le Louvre,4adcda10f964a520af3521e3,Arc de Triomphe
70,Librairie du Musée d'Orsay,Bookstore,1 rue de la Légion d'Honneur,,48.86003108965947,2.3261019732284596,"[{'label': 'display', 'lat': 48.86003108965947, 'lng': 2.3261019732284596}]",2741,75007,FR,Paris,Île-de-France,France,"[""1 rue de la Légion d'Honneur"", '75007 Paris', 'France']",,4eee19d802d514a36abd0d87,Arc de Triomphe
71,Boulangerie Alexine,Bakery,40 rue Lepic,,48.88614133131494,2.3344767093658447,"[{'label': 'display', 'lat': 48.88614133131494, 'lng': 2.3344767093658447}]",3198,75018,FR,Paris,Île-de-France,France,"['40 rue Lepic', '75018 Paris', 'France']",,4d541304d4a6721e9b5691ac,Arc de Triomphe
72,Grand Bassin Rond,Fountain,Jardin des Tuileries,,48.862879687441755,2.3292946815490723,"[{'label': 'display', 'lat': 48.862879687441755, 'lng': 2.3292946815490723}]",2786,75001,FR,Paris,Île-de-France,France,"['Jardin des Tuileries', '75001 Paris', 'France']",,51584deee4b0bca3145abc8a,Arc de Triomphe
73,Cour Carrée du Louvre,Pedestrian Plaza,Rue de Rivoli,Place du Louvre,48.8603598795578,2.3385429382324214,"[{'label': 'display', 'lat': 48.8603598795578, 'lng': 2.3385429382324214}]",3518,75001,FR,Paris,Île-de-France,France,"['Rue de Rivoli (Place du Louvre)', '75001 Paris', 'France']",,4c079d740ed3c928b6be797d,Arc de Triomphe
74,Palais Royal,Historic Site,Place du Palais Royal,,48.86323576771446,2.3371267318725586,"[{'label': 'display', 'lat': 48.86323576771446, 'lng': 2.3371267318725586}]",3297,75001,FR,Paris,Île-de-France,France,"['Place du Palais Royal', '75001 Paris', 'France']",,4adcda09f964a520ed3321e3,Arc de Triomphe
75,La Vénus de Milo (Vénus de Milo),Exhibit,Musée du Louvre,"Aile Sully, rdc, salle 346",48.859943428504316,2.3372340202331543,"[{'label': 'display', 'lat': 48.859943428504316, 'lng': 2.3372340202331543}]",3452,75001,FR,Paris,Île-de-France,France,"['Musée du Louvre (Aile Sully, rdc, salle 346)', '75001 Paris', 'France']","Louvre, Paris",5864efb745c3ed1e7d88e96d,Arc de Triomphe
76,Le Bon Marché,Department Store,24 rue de Sèvres,Rue Velpeau,48.851091,2.324381,"[{'label': 'display', 'lat': 48.851091, 'lng': 2.324381}]",3316,75007,FR,Paris,Île-de-France,France,"['24 rue de Sèvres (Rue Velpeau)', '75007 Paris', 'France']",Saint Thomas d'Aquin,4b2e385bf964a52067dd24e3,Arc de Triomphe
77,Le Pantruche,French Restaurant,3 rue Victor Massé,,48.88056015343903,2.339729019034071,"[{'label': 'display', 'lat': 48.88056015343903, 'lng': 2.339729019034071}]",3357,75009,FR,Paris,Île-de-France,France,"['3 rue Victor Massé', '75009 Paris', 'France']",Saint-Georges,4d230a536e8c370402f210a0,Arc de Triomphe
78,La Grande Épicerie de Paris,Gourmet Shop,38 rue de Sèvres,,48.85028720733153,2.3240691222224763,"[{'label': 'display', 'lat': 48.85028720733153, 'lng': 2.3240691222224763}]",3370,75007,FR,Paris,Île-de-France,France,"['38 rue de Sèvres', '75007 Paris', 'France']",,4adcda21f964a520fc3921e3,Arc de Triomphe
79,Max Linder Panorama,Indie Movie Theater,24 boulevard Poissonnière,,48.87138398457992,2.344808578491211,"[{'label': 'display', 'lat': 48.87138398457992, 'lng': 2.344808578491211}]",3653,75009,FR,Paris,Île-de-France,France,"['24 boulevard Poissonnière', '75009 Paris', 'France']",,4b0ec8cdf964a520fb5a23e3,Arc de Triomphe
80,Sanukiya,Udon Restaurant,9 rue d'Argenteuil,,48.86471330060748,2.333805151283741,"[{'label': 'display', 'lat': 48.86471330060748, 'lng': 2.333805151283741}]",3012,75001,FR,Paris,Île-de-France,France,"[""9 rue d'Argenteuil"", '75001 Paris', 'France']",,4f0b706de5e8207020057ed7,Arc de Triomphe
81,Ralph Lauren,Clothing Store,173 Boulevard Saint Germain,,48.85422390287324,2.330624111027735,"[{'label': 'display', 'lat': 48.85422390287324, 'lng': 2.330624111027735}]",3395,75006,FR,Paris,Île-de-France,France,"['173 Boulevard Saint Germain', '75006 Paris', 'France']",,4bc094f1920eb713a51b192c,Arc de Triomphe
82,Hôtel Particulier Montmartre,Hotel,23 avenue Junot,,48.88789684317782,2.3352523263968803,"[{'label': 'display', 'lat': 48.88789684317782, 'lng': 2.3352523263968803}]",3337,75018,FR,Paris,Île-de-France,France,"['23 avenue Junot', '75018 Paris', 'France']",,4b806b0bf964a520867030e3,Arc de Triomphe
83,Parc de Bagatelle,Botanical Garden,Route de Sèvres à Neuilly,Route du Champ d'Entraînement,48.870600661627506,2.2481203079223633,"[{'label': 'display', 'lat': 48.870600661627506, 'lng': 2.2481203079223633}]",3453,75016,FR,Paris,Île-de-France,France,"[""Route de Sèvres à Neuilly (Route du Champ d'Entraînement)"", '75016 Paris', 'France']",,4bcd8a9b8920b7130ad49fdc,Arc de Triomphe
84,"Pavillon des Sessions – Arts d'Afrique, d'Asie, d'Océanie et des Amériques",Art Museum,Musée du Louvre,,48.860724043718605,2.332121414307368,"[{'label': 'display', 'lat': 48.860724043718605, 'lng': 2.332121414307368}]",3079,75001,FR,Paris,Île-de-France,France,"['Musée du Louvre', '75001 Paris', 'France']",,588ba9a9fc5a5f18a36a2a05,Arc de Triomphe
85,La Boîte aux Lettres,Bistro,108 rue Lepic,,48.886840636111586,2.338186204433441,"[{'label': 'display', 'lat': 48.886840636111586, 'lng': 2.338186204433441}]",3477,75018,FR,Paris,Île-de-France,France,"['108 rue Lepic', '75018 Paris', 'France']",,51c5f55d498e59e2ebcc7742,Arc de Triomphe
86,Hôtel des Grands Boulevards,Hotel,17 boulevard Poissonnière,,48.870800399082455,2.3448864108663963,"[{'label': 'display', 'lat': 48.870800399082455, 'lng': 2.3448864108663963}]",3664,75002,FR,Paris,Île-de-France,France,"['17 boulevard Poissonnière', '75002 Paris', 'France']",,5a626b3d2632ec04b3b341b3,Arc de Triomphe
87,The Hoxton Paris,Hotel,30-32 Rue du Sentier,,48.8701794,2.3466316,"[{'label': 'display', 'lat': 48.8701794, 'lng': 2.3466316}]",3798,75002,FR,Paris,Île-de-France,France,"['30-32 Rue du Sentier', '75002 Paris', 'France']",,599f10d89b04730cde6d8bf4,Arc de Triomphe
88,Galerie Vivienne,Historic Site,Galerie Vivienne,,48.86673055550591,2.339799701984434,"[{'label': 'display', 'lat': 48.86673055550591, 'lng': 2.339799701984434}]",3370,75002,FR,Paris,Île-de-France,France,"['Galerie Vivienne', '75002 Paris', 'France']",Vivienne,4b095936f964a5200a1623e3,Arc de Triomphe
89,Al Caratello,Italian Restaurant,5 rue Audran,,48.885247747757155,2.3360022863109475,"[{'label': 'display', 'lat': 48.885247747757155, 'lng': 2.3360022863109475}]",3259,75018,FR,Paris,Île-de-France,France,"['5 rue Audran', '75018 Paris', 'France']",,4b980630f964a520ed2635e3,Arc de Triomphe
90,Place des Abbesses,Plaza,Place des Abbesses,Rue des Abbesses,48.8844058138571,2.338537573814392,"[{'label': 'display', 'lat': 48.8844058138571, 'lng': 2.338537573814392}]",3397,75018,FR,Paris,Île-de-France,France,"['Place des Abbesses (Rue des Abbesses)', '75018 Paris', 'France']",,4b115ed4f964a520157b23e3,Arc de Triomphe
91,Papacionu,Corsican Restaurant,7 rue Cadet,,48.87479244142873,2.3429168066774655,"[{'label': 'display', 'lat': 48.87479244142873, 'lng': 2.3429168066774655}]",3507,75009,FR,Paris,Île-de-France,France,"['7 rue Cadet', '75009 Paris', 'France']",,5287d6be11d2ff5189847a10,Arc de Triomphe
92,Place Saint-Germain-des-Prés,Plaza,Place Saint-Germain-des-Prés,,48.85418334331855,2.3335111141204834,"[{'label': 'display', 'lat': 48.85418334331855, 'lng': 2.3335111141204834}]",3563,75006,FR,Paris,Île-de-France,France,"['Place Saint-Germain-des-Prés', '75006 Paris', 'France']",Saint-Germain-des-Prés,4bc07b0eb492d13af546a460,Arc de Triomphe
93,Cour Napoléon,Plaza,Place du Carrousel,,48.86117159622847,2.3350882530212402,"[{'label': 'display', 'lat': 48.86117159622847, 'lng': 2.3350882530212402}]",3251,75001,FR,Paris,Île-de-France,France,"['Place du Carrousel', '75001 Paris', 'France']",,5072efe7e4b0c34b5146e7fd,Arc de Triomphe
94,Mori Yoshida,Pastry Shop,65 avenue de Breteuil,,48.84797603907342,2.312234491109848,"[{'label': 'display', 'lat': 48.84797603907342, 'lng': 2.312234491109848}]",3136,75007,FR,Paris,Île-de-France,France,"['65 avenue de Breteuil', '75007 Paris', 'France']",,51602778e4b01c5e825f4878,Arc de Triomphe
95,Hardware Société,Breakfast Spot,10 rue Lamarck,,48.886901473803164,2.3444633609475147,"[{'label': 'display', 'lat': 48.886901473803164, 'lng': 2.3444633609475147}]",3902,75018,FR,Paris,Île-de-France,France,"['10 rue Lamarck', '75018 Paris', 'France']",,5710c77a498e3021c0641aa9,Arc de Triomphe
96,Hoppy Corner,Beer Bar,34 rue des Petits Carreaux,,48.86772619731469,2.3473745971313704,"[{'label': 'display', 'lat': 48.86772619731469, 'lng': 2.3473745971313704}]",3890,75002,FR,Paris,Île-de-France,France,"['34 rue des Petits Carreaux', '75002 Paris', 'France']",,57054c44498ed5a375ce4b86,Arc de Triomphe
97,Place du Louvre,Plaza,Place du Louvre,,48.859841,2.340822,"[{'label': 'display', 'lat': 48.859841, 'lng': 2.340822}]",3694,75001,FR,Paris,Île-de-France,France,"['Place du Louvre', '75001 Paris', 'France']",,4f979c8ae4b05465dae0714f,Arc de Triomphe
98,Dôme de la Basilique du Sacré-Cœur,Scenic Lookout,35 rue du Chevalier de la Barre,,48.886808713500535,2.343006134033203,"[{'label': 'display', 'lat': 48.886808713500535, 'lng': 2.343006134033203}]",3799,75018,FR,Paris,Île-de-France,France,"['35 rue du Chevalier de la Barre', '75018 Paris', 'France']",,572ef46d498e6a2426bb341e,Arc de Triomphe
99,Jardin du Luxembourg,Garden,Place Edmond Rostand,Rue de Médicis,48.84705290819862,2.3365044593811035,"[{'label': 'display', 'lat': 48.84705290819862, 'lng': 2.3365044593811035}]",4251,75006,FR,Paris,Île-de-France,France,"['Place Edmond Rostand (Rue de Médicis)', '75006 Paris', 'France']",,4ba8b203f964a520a6e739e3,Arc de Triomphe
0,Cour Carrée du Louvre,Pedestrian Plaza,Rue de Rivoli,Place du Louvre,48.8603598795578,2.3385429382324214,"[{'label': 'display', 'lat': 48.8603598795578, 'lng': 2.3385429382324214}]",95,75001,FR,Paris,Île-de-France,France,"['Rue de Rivoli (Place du Louvre)', '75001 Paris', 'France']",,4c079d740ed3c928b6be797d,Louvre Museum
1,Musée du Louvre,Art Museum,Rue de Rivoli,Place du Carrousel,48.86084691113991,2.336440086364746,"[{'label': 'display', 'lat': 48.86084691113991, 'lng': 2.336440086364746}]",120,75001,FR,Paris,Île-de-France,France,"['Rue de Rivoli (Place du Carrousel)', '75001 Paris', 'France']",Le Louvre,4adcda10f964a520af3521e3,Louvre Museum
2,La Vénus de Milo (Vénus de Milo),Exhibit,Musée du Louvre,"Aile Sully, rdc, salle 346",48.859943428504316,2.3372340202331543,"[{'label': 'display', 'lat': 48.859943428504316, 'lng': 2.3372340202331543}]",146,75001,FR,Paris,Île-de-France,France,"['Musée du Louvre (Aile Sully, rdc, salle 346)', '75001 Paris', 'France']","Louvre, Paris",5864efb745c3ed1e7d88e96d,Louvre Museum
3,Jardin du Palais Royal,Garden,Palais Royal,,48.86494061245833,2.3377275466918945,"[{'label': 'display', 'lat': 48.86494061245833, 'lng': 2.3377275466918945}]",422,75001,FR,Paris,Île-de-France,France,"['Palais Royal', '75001 Paris', 'France']",,4ba8b650f964a520f5e839e3,Louvre Museum
4,Palais Royal,Historic Site,Place du Palais Royal,,48.86323576771446,2.3371267318725586,"[{'label': 'display', 'lat': 48.86323576771446, 'lng': 2.3371267318725586}]",241,75001,FR,Paris,Île-de-France,France,"['Place du Palais Royal', '75001 Paris', 'France']",,4adcda09f964a520ed3321e3,Louvre Museum
5,Vestige de la Forteresse du Louvre,Historic Site,Palais du Louvre,,48.86157701632968,2.3335077597365377,"[{'label': 'display', 'lat': 48.86157701632968, 'lng': 2.3335077597365377}]",334,75001,FR,Paris,Île-de-France,France,"['Palais du Louvre', '75001 Paris', 'France']",,4f6dabf5003944083fe0002e,Louvre Museum
6,Place du Louvre,Plaza,Place du Louvre,,48.859841,2.340822,"[{'label': 'display', 'lat': 48.859841, 'lng': 2.340822}]",251,75001,FR,Paris,Île-de-France,France,"['Place du Louvre', '75001 Paris', 'France']",,4f979c8ae4b05465dae0714f,Louvre Museum
7,Jardin des Tuileries,Garden,Rue de Rivoli,Quai des Tuileries,48.863641957269515,2.326483726501465,"[{'label': 'display', 'lat': 48.863641957269515, 'lng': 2.326483726501465}]",889,75001,FR,Paris,Île-de-France,France,"['Rue de Rivoli (Quai des Tuileries)', '75001 Paris', 'France']",Tuilerie,4b30f9bbf964a5208ffd24e3,Louvre Museum
8,Musée d'Orsay,Art Museum,1 rue de la Légion d'Honneur,Quai Anatole France,48.85999283813253,2.3263871669769287,"[{'label': 'display', 'lat': 48.85999283813253, 'lng': 2.3263871669769287}]",862,75007,FR,Paris,Île-de-France,France,"[""1 rue de la Légion d'Honneur (Quai Anatole France)"", '75007 Paris', 'France']",,4adcda10f964a5208b3521e3,Louvre Museum
9,Chez Nous,Wine Bar,10 rue Dauphine,,48.855823217287835,2.340271085661046,"[{'label': 'display', 'lat': 48.855823217287835, 'lng': 2.340271085661046}]",615,75006,FR,Paris,Île-de-France,France,"['10 rue Dauphine', '75006 Paris', 'France']",,53568d3e498e92e5a3a56f36,Louvre Museum
10,Cour Napoléon,Plaza,Place du Carrousel,,48.86117159622847,2.3350882530212402,"[{'label': 'display', 'lat': 48.86117159622847, 'lng': 2.3350882530212402}]",215,75001,FR,Paris,Île-de-France,France,"['Place du Carrousel', '75001 Paris', 'France']",,5072efe7e4b0c34b5146e7fd,Louvre Museum
11,Hôtel Ritz,Hotel,15 place Vendôme,,48.86810594329886,2.3288923501968384,"[{'label': 'display', 'lat': 48.86810594329886, 'lng': 2.3288923501968384}]",1023,75001,FR,Paris,Île-de-France,France,"['15 place Vendôme', '75001 Paris', 'France']",,53b65301498e8cb57224f80c,Louvre Museum
12,Place Dauphine,Plaza,Place Dauphine,,48.85663993129474,2.342362403869629,"[{'label': 'display', 'lat': 48.85663993129474, 'lng': 2.342362403869629}]",593,75001,FR,Paris,Île-de-France,France,"['Place Dauphine', '75001 Paris', 'France']",,4adcda09f964a520eb3321e3,Louvre Museum
13,Hôtel Park Hyatt Paris-Vendôme,Hotel,5 rue de la Paix,,48.86889283393748,2.3303380608558655,"[{'label': 'display', 'lat': 48.86889283393748, 'lng': 2.3303380608558655}]",1029,75002,FR,Paris,Île-de-France,France,"['5 rue de la Paix', '75002 Paris', 'France']",,4adcda03f964a520d83121e3,Louvre Museum
14,Place de l'Opéra,Plaza,Place de l'Opéra,,48.87086688393964,2.3321523722815702,"[{'label': 'display', 'lat': 48.87086688393964, 'lng': 2.3321523722815702}]",1164,75009,FR,Paris,Île-de-France,France,"[""Place de l'Opéra"", '75009 Paris', 'France']",,4bc30cc12a89ef3bf670f488,Louvre Museum
15,59 Rivoli,Art Gallery,28 Rue de Rivoli,Rue des Déchargeurs,48.859172279057745,2.3456481099128723,"[{'label': 'display', 'lat': 48.859172279057745, 'lng': 2.3456481099128723}]",599,75004,FR,Paris,Île-de-France,France,"['28 Rue de Rivoli (Rue des Déchargeurs)', '75004 Paris', 'France']",,4e0766702271dfa46baee474,Louvre Museum
16,Place Vendôme,Plaza,Place Vendôme,,48.86779769319868,2.3297411847276526,"[{'label': 'display', 'lat': 48.86779769319868, 'lng': 2.3297411847276526}]",957,75001,FR,Paris,Île-de-France,France,"['Place Vendôme', '75001 Paris', 'France']",,4adcda09f964a5200e3421e3,Louvre Museum
17,"Pavillon des Sessions – Arts d'Afrique, d'Asie, d'Océanie et des Amériques",Art Museum,Musée du Louvre,,48.860724043718605,2.332121414307368,"[{'label': 'display', 'lat': 48.860724043718605, 'lng': 2.332121414307368}]",435,75001,FR,Paris,Île-de-France,France,"['Musée du Louvre', '75001 Paris', 'France']",,588ba9a9fc5a5f18a36a2a05,Louvre Museum
18,Hoppy Corner,Beer Bar,34 rue des Petits Carreaux,,48.86772619731469,2.3473745971313704,"[{'label': 'display', 'lat': 48.86772619731469, 'lng': 2.3473745971313704}]",1002,75002,FR,Paris,Île-de-France,France,"['34 rue des Petits Carreaux', '75002 Paris', 'France']",,57054c44498ed5a375ce4b86,Louvre Museum
19,Shakespeare & Company,Bookstore,37 rue de la Bûcherie,,48.85256839809226,2.3470958322286606,"[{'label': 'display', 'lat': 48.85256839809226, 'lng': 2.3470958322286606}]",1163,75005,FR,Paris,Île-de-France,France,"['37 rue de la Bûcherie', '75005 Paris', 'France']",,4adcda21f964a520f23921e3,Louvre Museum
20,Galerie Vivienne,Historic Site,Galerie Vivienne,,48.86673055550591,2.339799701984434,"[{'label': 'display', 'lat': 48.86673055550591, 'lng': 2.339799701984434}]",634,75002,FR,Paris,Île-de-France,France,"['Galerie Vivienne', '75002 Paris', 'France']",Vivienne,4b095936f964a5200a1623e3,Louvre Museum
21,Sanukiya,Udon Restaurant,9 rue d'Argenteuil,,48.86471330060748,2.333805151283741,"[{'label': 'display', 'lat': 48.86471330060748, 'lng': 2.333805151283741}]",503,75001,FR,Paris,Île-de-France,France,"[""9 rue d'Argenteuil"", '75001 Paris', 'France']",,4f0b706de5e8207020057ed7,Louvre Museum
22,Coya,Peruvian Restaurant,83-85 rue du Bac,,48.85423204166965,2.3246128857135773,"[{'label': 'display', 'lat': 48.85423204166965, 'lng': 2.3246128857135773}]",1248,75007,FR,Paris,Île-de-France,France,"['83-85 rue du Bac', '75007 Paris', 'France']",,5d6ae3b0ca1763000823441b,Louvre Museum
23,Opéra Garnier,Opera House,8 rue Scribe,Rue Auber,48.872124954463864,2.331708669662475,"[{'label': 'display', 'lat': 48.872124954463864, 'lng': 2.331708669662475}]",1306,75009,FR,Paris,Île-de-France,France,"['8 rue Scribe (Rue Auber)', '75009 Paris', 'France']",,4b54148df964a520b0b127e3,Louvre Museum
24,Librairie Galignani,Bookstore,224 rue de Rivoli,,48.864989,2.32857,"[{'label': 'display', 'lat': 48.864989, 'lng': 2.32857}]",813,75001,FR,Paris,Île-de-France,France,"['224 rue de Rivoli', '75001 Paris', 'France']",,4b487de3f964a5202d4e26e3,Louvre Museum
25,Place des Victoires,Plaza,Place des Victoires,,48.865759373109775,2.341219220887502,"[{'label': 'display', 'lat': 48.865759373109775, 'lng': 2.341219220887502}]",564,75002,FR,Paris,Île-de-France,France,"['Place des Victoires', '75002 Paris', 'France']",,4b408661f964a520bbb825e3,Louvre Museum
26,Breizh Café,Creperie,1 rue de l'Odéon,,48.851638,2.338804,"[{'label': 'display', 'lat': 48.851638, 'lng': 2.338804}]",1060,75006,FR,Paris,Île-de-France,France,"[""1 rue de l'Odéon"", '75006 Paris', 'France']",,59468bd1898bdc07ffc0d6ac,Louvre Museum
27,Max Linder Panorama,Indie Movie Theater,24 boulevard Poissonnière,,48.87138398457992,2.344808578491211,"[{'label': 'display', 'lat': 48.87138398457992, 'lng': 2.344808578491211}]",1243,75009,FR,Paris,Île-de-France,France,"['24 boulevard Poissonnière', '75009 Paris', 'France']",,4b0ec8cdf964a520fb5a23e3,Louvre Museum
28,Place Saint-Germain-des-Prés,Plaza,Place Saint-Germain-des-Prés,,48.85418334331855,2.3335111141204834,"[{'label': 'display', 'lat': 48.85418334331855, 'lng': 2.3335111141204834}]",842,75006,FR,Paris,Île-de-France,France,"['Place Saint-Germain-des-Prés', '75006 Paris', 'France']",Saint-Germain-des-Prés,4bc07b0eb492d13af546a460,Louvre Museum
29,Ralph Lauren,Clothing Store,173 Boulevard Saint Germain,,48.85422390287324,2.330624111027735,"[{'label': 'display', 'lat': 48.85422390287324, 'lng': 2.330624111027735}]",942,75006,FR,Paris,Île-de-France,France,"['173 Boulevard Saint Germain', '75006 Paris', 'France']",,4bc094f1920eb713a51b192c,Louvre Museum
30,Hôtel de Crillon,Hotel,10 place de la Concorde,,48.867329626506944,2.321140766143799,"[{'label': 'display', 'lat': 48.867329626506944, 'lng': 2.321140766143799}]",1415,75008,FR,Paris,Île-de-France,France,"['10 place de la Concorde', '75008 Paris', 'France']",,539788f1498e4e052ed81c7b,Louvre Museum
31,Balagan,Israeli Restaurant,9 rue d'Alger,,48.865432333548,2.3296802389659015,"[{'label': 'display', 'lat': 48.865432333548, 'lng': 2.3296802389659015}]",775,75001,FR,Paris,Île-de-France,France,"[""9 rue d'Alger"", '75001 Paris', 'France']",,59288f080d173f5887669625,Louvre Museum
32,The Hoxton Paris,Hotel,30-32 Rue du Sentier,,48.8701794,2.3466316,"[{'label': 'display', 'lat': 48.8701794, 'lng': 2.3466316}]",1186,75002,FR,Paris,Île-de-France,France,"['30-32 Rue du Sentier', '75002 Paris', 'France']",,599f10d89b04730cde6d8bf4,Louvre Museum
33,Grom,Ice Cream Shop,81 rue de Seine,,48.853338281725925,2.336956549841011,"[{'label': 'display', 'lat': 48.853338281725925, 'lng': 2.336956549841011}]",872,75006,FR,Paris,Île-de-France,France,"['81 rue de Seine', '75006 Paris', 'France']",,4ae9fafdf964a5202cb821e3,Louvre Museum
34,Hôtel d'Aubusson,Hotel,33 rue Dauphine,,48.85472883599233,2.3395052403718175,"[{'label': 'display', 'lat': 48.85472883599233, 'lng': 2.3395052403718175}]",722,75006,FR,Paris,Île-de-France,France,"['33 rue Dauphine', '75006 Paris', 'France']",,4adcda00f964a520de3021e3,Louvre Museum
35,Bistro du Périgord,French Restaurant,69-73 rue Saint-Jacques,,48.84988629254856,2.345055089074744,"[{'label': 'display', 'lat': 48.84988629254856, 'lng': 2.345055089074744}]",1355,75005,FR,Paris,Île-de-France,France,"['69-73 rue Saint-Jacques', '75005 Paris', 'France']",,50d5be47e4b0fb6ff8363c5f,Louvre Museum
36,LEGO® Store,Toy / Game Store,Passage de la Canopée,Forum des Halles,48.86181771883298,2.3471906738969803,"[{'label': 'display', 'lat': 48.86181771883298, 'lng': 2.3471906738969803}]",675,75001,FR,Paris,Île-de-France,France,"['Passage de la Canopée (Forum des Halles)', '75001 Paris', 'France']",,57035c8b498ebcbc85d70c40,Louvre Museum
37,Hôtel Mandarin Oriental,Hotel,251 rue Saint-Honoré,,48.86698662076993,2.327178418636322,"[{'label': 'display', 'lat': 48.86698662076993, 'lng': 2.327178418636322}]",1026,75001,FR,Paris,Île-de-France,France,"['251 rue Saint-Honoré', '75001 Paris', 'France']",,4d61286a1ee8721e010db321,Louvre Museum
38,Grand Bassin Rond,Fountain,Jardin des Tuileries,,48.862879687441755,2.3292946815490723,"[{'label': 'display', 'lat': 48.862879687441755, 'lng': 2.3292946815490723}]",667,75001,FR,Paris,Île-de-France,France,"['Jardin des Tuileries', '75001 Paris', 'France']",,51584deee4b0bca3145abc8a,Louvre Museum
39,Maison Sauvage,French Restaurant,5 rue de Buci,,48.85374384095544,2.337993110279558,"[{'label': 'display', 'lat': 48.85374384095544, 'lng': 2.337993110279558}]",824,75006,FR,Paris,Île-de-France,France,"['5 rue de Buci', '75006 Paris', 'France']",,58f3634235f98340ef64a066,Louvre Museum
40,Hôtel des Grands Boulevards,Hotel,17 boulevard Poissonnière,,48.870800399082455,2.3448864108663963,"[{'label': 'display', 'lat': 48.870800399082455, 'lng': 2.3448864108663963}]",1186,75002,FR,Paris,Île-de-France,France,"['17 boulevard Poissonnière', '75002 Paris', 'France']",,5a626b3d2632ec04b3b341b3,Louvre Museum
41,Grand Bassin du Jardin du Luxembourg,Fountain,Jardin du Luxembourg,,48.8469042547371,2.3371830582618713,"[{'label': 'display', 'lat': 48.8469042547371, 'lng': 2.3371830582618713}]",1586,75006,FR,Paris,Île-de-France,France,"['Jardin du Luxembourg', '75006 Paris', 'France']",Odéon,55536fca498e1bf662c2ed7d,Louvre Museum
42,Prescription Cocktail Club,Cocktail Bar,23 rue Mazarine,,48.854921,2.337768,"[{'label': 'display', 'lat': 48.854921, 'lng': 2.337768}]",693,75006,FR,Paris,Île-de-France,France,"['23 rue Mazarine', '75006 Paris', 'France']",,4b22eca6f964a5206c5024e3,Louvre Museum
43,Jardin du Luxembourg,Garden,Place Edmond Rostand,Rue de Médicis,48.84705290819862,2.3365044593811035,"[{'label': 'display', 'lat': 48.84705290819862, 'lng': 2.3365044593811035}]",1572,75006,FR,Paris,Île-de-France,France,"['Place Edmond Rostand (Rue de Médicis)', '75006 Paris', 'France']",,4ba8b203f964a520a6e739e3,Louvre Museum
44,Glace Bachir,Ice Cream Shop,Rue Rambuteau 58,,48.86172091008543,2.3514014997634534,"[{'label': 'display', 'lat': 48.86172091008543, 'lng': 2.3514014997634534}]",981,75004,FR,Paris,Île-de-France,France,"['Rue Rambuteau 58', '75004 Paris', 'France']",,58728968d4ab735c99ae0c5e,Louvre Museum
45,Musée de l'Orangerie,Art Museum,Jardin des Tuileries,Place de la Concorde,48.86379017505446,2.322664260864258,"[{'label': 'display', 'lat': 48.86379017505446, 'lng': 2.322664260864258}]",1162,75001,FR,Paris,Île-de-France,France,"['Jardin des Tuileries (Place de la Concorde)', '75001 Paris', 'France']",Tuileries,4adcda10f964a520983521e3,Louvre Museum
46,Centre Pompidou – Musée National d'Art Moderne,Art Museum,Place Georges Pompidou,Rue Beaubourg,48.860729707273954,2.351660414040774,"[{'label': 'display', 'lat': 48.860729707273954, 'lng': 2.351660414040774}]",999,75004,FR,Paris,Île-de-France,France,"['Place Georges Pompidou (Rue Beaubourg)', '75004 Paris', 'France']",,4adcda0af964a520623421e3,Louvre Museum
47,Laïzé 來座 (Laïzé),Bubble Tea Shop,19 rue de Montmorency,,48.86307722773456,2.355072994853153,"[{'label': 'display', 'lat': 48.86307722773456, 'lng': 2.355072994853153}]",1266,75003,FR,Paris,Île-de-France,France,"['19 rue de Montmorency', '75003 Paris', 'France']",Rambuteau,5a8c1166e1f22874f4fc9714,Louvre Museum
48,L'Olympia,Concert Hall,28 boulevard des Capucines,,48.870212,2.328331,"[{'label': 'display', 'lat': 48.870212, 'lng': 2.328331}]",1233,75009,FR,Paris,Île-de-France,France,"['28 boulevard des Capucines', '75009 Paris', 'France']",,4adcda15f964a520c53721e3,Louvre Museum
49,Partisan,Coffee Shop,36 rue de Turbigo,,48.86475435958546,2.3530692174680863,"[{'label': 'display', 'lat': 48.86475435958546, 'lng': 2.3530692174680863}]",1172,75003,FR,Paris,Île-de-France,France,"['36 rue de Turbigo', '75003 Paris', 'France']",,5ae44cf7dd8442002cc065ca,Louvre Museum
50,Place de la Concorde,Plaza,Place de la Concorde,,48.8655899274154,2.321215867996216,"[{'label': 'display', 'lat': 48.8655899274154, 'lng': 2.321215867996216}]",1326,75008,FR,Paris,Île-de-France,France,"['Place de la Concorde', '75008 Paris', 'France']",,4adcda09f964a520f73321e3,Louvre Museum
51,Librairie du Musée d'Orsay,Bookstore,1 rue de la Légion d'Honneur,,48.86003108965947,2.3261019732284596,"[{'label': 'display', 'lat': 48.86003108965947, 'lng': 2.3261019732284596}]",882,75007,FR,Paris,Île-de-France,France,"[""1 rue de la Légion d'Honneur"", '75007 Paris', 'France']",,4eee19d802d514a36abd0d87,Louvre Museum
52,Fleux',Furniture / Home Store,39 et 52 rue Sainte-Croix de la Bretonnerie,,48.85876287681194,2.3541614413261414,"[{'label': 'display', 'lat': 48.85876287681194, 'lng': 2.3541614413261414}]",1211,75004,FR,Paris,Île-de-France,France,"['39 et 52 rue Sainte-Croix de la Bretonnerie', '75004 Paris', 'France']",,4b533b45f964a520509327e3,Louvre Museum
53,L'Avant Comptoir,Wine Bar,3 carrefour de l'Odéon,,48.85203883164107,2.3388125002384186,"[{'label': 'display', 'lat': 48.85203883164107, 'lng': 2.3388125002384186}]",1015,75006,FR,Paris,Île-de-France,France,"[""3 carrefour de l'Odéon"", '75006 Paris', 'France']",,4afd8300f964a5203a2822e3,Louvre Museum
54,Little Breizh,Breton Restaurant,11 rue Grégoire de Tours,,48.85323350489557,2.3378657230160544,"[{'label': 'display', 'lat': 48.85323350489557, 'lng': 2.3378657230160544}]",881,75006,FR,Paris,Île-de-France,France,"['11 rue Grégoire de Tours', '75006 Paris', 'France']",,4d9f8e297ec88cfa0cdc865a,Louvre Museum
55,La Maison d'Isabelle,Bakery,47 ter boulevard Saint-Germain,,48.850006666984385,2.348443370314823,"[{'label': 'display', 'lat': 48.850006666984385, 'lng': 2.348443370314823}]",1456,75005,FR,Paris,Île-de-France,France,"['47 ter boulevard Saint-Germain', '75005 Paris', 'France']",,5b394cae92e7a9002c724cf9,Louvre Museum
56,CHANEL,Boutique,31 rue Cambon,Rue Des Capucines,48.86818882792764,2.3266343030758208,"[{'label': 'display', 'lat': 48.86818882792764, 'lng': 2.3266343030758208}]",1144,75001,FR,Paris,Île-de-France,France,"['31 rue Cambon (Rue Des Capucines)', '75001 Paris', 'France']",,4adcda1df964a5202a3921e3,Louvre Museum
57,Ladurée,Dessert Shop,14 rue Castiglione,,48.86612102985312,2.3284493959564543,"[{'label': 'display', 'lat': 48.86612102985312, 'lng': 2.3284493959564543}]",893,75001,FR,Paris,Île-de-France,France,"['14 rue Castiglione', '75001 Paris', 'France']",Place Vendôme,50e16cdfe4b0439f0718ba5a,Louvre Museum
58,Mmmozza,Sandwich Place,57 rue de Bretagne,,48.86391016055883,2.360590696334839,"[{'label': 'display', 'lat': 48.86391016055883, 'lng': 2.360590696334839}]",1680,75003,FR,Paris,Île-de-France,France,"['57 rue de Bretagne', '75003 Paris', 'France']",,4d974096a2c654814aa6d353,Louvre Museum
59,Galeries Lafayette Gourmet,Gourmet Shop,35 boulevard Haussmann,,48.873046,2.330438,"[{'label': 'display', 'lat': 48.873046, 'lng': 2.330438}]",1436,75009,FR,Paris,Île-de-France,France,"['35 boulevard Haussmann', '75009 Paris', 'France']",,4b673be3f964a520e5422be3,Louvre Museum
60,Le Bon Marché,Department Store,24 rue de Sèvres,Rue Velpeau,48.851091,2.324381,"[{'label': 'display', 'lat': 48.851091, 'lng': 2.324381}]",1500,75007,FR,Paris,Île-de-France,France,"['24 rue de Sèvres (Rue Velpeau)', '75007 Paris', 'France']",Saint Thomas d'Aquin,4b2e385bf964a52067dd24e3,Louvre Museum
61,Place de l'Hôtel de Ville – Esplanade de la Libération,Plaza,Place de l'Hôtel de Ville,,48.85700999748231,2.351656181823647,,1099,75004,FR,Paris,Île-de-France,France,"[""Place de l'Hôtel de Ville"", '75004 Paris', 'France']",,4bf41231e5eba59334341f90,Louvre Museum
62,Maison Aleph,Pastry Shop,20 rue de la Verrerie,,48.857348,2.354873,"[{'label': 'display', 'lat': 48.857348, 'lng': 2.354873}]",1304,75004,FR,Paris,Île-de-France,France,"['20 rue de la Verrerie', '75004 Paris', 'France']",,59247f4e0d2be70573edd834,Louvre Museum
63,Passage du Grand Cerf,Pedestrian Plaza,Passage du Grand Cerf,,48.86476,2.349486,"[{'label': 'display', 'lat': 48.86476, 'lng': 2.349486}]",930,75002,FR,Paris,Île-de-France,France,"['Passage du Grand Cerf', '75002 Paris', 'France']",,4c457e8d8c1f20a195ce3d99,Louvre Museum
64,La Gaîté Lyrique,Concert Hall,3 bis rue Papin,Boulevard de Sébastopol,48.86667327655077,2.3534345626831055,"[{'label': 'display', 'lat': 48.86667327655077, 'lng': 2.3534345626831055}]",1285,75003,FR,Paris,Île-de-France,France,"['3 bis rue Papin (Boulevard de Sébastopol)', '75003 Paris', 'France']",,4bac75f4f964a5201df63ae3,Louvre Museum
65,Place Saint-Michel,Plaza,Place Saint-Michel,,48.853344747670214,2.3438747802055206,"[{'label': 'display', 'lat': 48.853344747670214, 'lng': 2.3438747802055206}]",968,75005,FR,Paris,Île-de-France,France,"['Place Saint-Michel', '75005 Paris', 'France']",,4b530766f964a520f88c27e3,Louvre Museum
66,Bar 8,Hotel Bar,251 rue Saint-Honoré,Hôtel Mandarin Oriental,48.8669653,2.3271337,"[{'label': 'display', 'lat': 48.8669653, 'lng': 2.3271337}]",1027,75001,FR,Paris,Île-de-France,France,"['251 rue Saint-Honoré (Hôtel Mandarin Oriental)', '75001 Paris', 'France']",Place Vendôme,4f593369e4b07f0bf5903183,Louvre Museum
67,Monoprix,Supermarket,164 rue du Temple,,48.866149910688705,2.3615482449531555,"[{'label': 'display', 'lat': 48.866149910688705, 'lng': 2.3615482449531555}]",1810,75003,FR,Paris,Île-de-France,France,"['164 rue du Temple', '75003 Paris', 'France']",,4af5aeaaf964a5203cfb21e3,Louvre Museum
68,Amorino,Ice Cream Shop,Jardin des Tuileries,Place de la Concorde,48.86421536708272,2.324462294850483,"[{'label': 'display', 'lat': 48.86421536708272, 'lng': 2.324462294850483}]",1050,75001,FR,Paris,Île-de-France,France,"['Jardin des Tuileries (Place de la Concorde)', '75001 Paris', 'France']",,4e0dee1b62843e04afa5f37f,Louvre Museum
69,Terrasse des Galeries Lafayette,Roof Deck,40 boulevard Haussmann,Galeries Lafayette Haussmann,48.87333870999123,2.332170009613037,"[{'label': 'display', 'lat': 48.87333870999123, 'lng': 2.332170009613037}]",1423,75009,FR,Paris,Île-de-France,France,"['40 boulevard Haussmann (Galeries Lafayette Haussmann)', '75009 Paris', 'France']",,4bc9d4260687ef3b1b88dacc,Louvre Museum
70,Jardin du Musée Rodin,Garden,79 rue de Varenne,Musée Rodin,48.85583847334092,2.3158099297222425,"[{'label': 'display', 'lat': 48.85583847334092, 'lng': 2.3158099297222425}]",1731,75014,FR,Paris,Île-de-France,France,"['79 rue de Varenne (Musée Rodin)', '75014 Paris', 'France']",,4dc790c01fc72e86376fc69c,Louvre Museum
71,La Grande Épicerie de Paris,Gourmet Shop,38 rue de Sèvres,,48.85028720733153,2.3240691222224763,"[{'label': 'display', 'lat': 48.85028720733153, 'lng': 2.3240691222224763}]",1583,75007,FR,Paris,Île-de-France,France,"['38 rue de Sèvres', '75007 Paris', 'France']",,4adcda21f964a520fc3921e3,Louvre Museum
72,La Filmothèque du Quartier Latin,Indie Movie Theater,9 rue Champollion,,48.84956850411322,2.3426390287381453,"[{'label': 'display', 'lat': 48.84956850411322, 'lng': 2.3426390287381453}]",1332,75005,FR,Paris,Île-de-France,France,"['9 rue Champollion', '75005 Paris', 'France']",,4bc0790f4cdfc9b6b4de9221,Louvre Museum
73,Place Saint-Sulpice,Plaza,Place Saint-Sulpice,Rue Bonaparte,48.850822987537555,2.333323359489441,"[{'label': 'display', 'lat': 48.850822987537555, 'lng': 2.333323359489441}]",1199,75006,FR,Paris,Île-de-France,France,"['Place Saint-Sulpice (Rue Bonaparte)', '75006 Paris', 'France']",,4cbc4e56d78f4688815ac773,Louvre Museum
74,Perruche,Lounge,"Printemps de l’Homme, 9e étage",2 rue du Havre,48.8738,2.327341,"[{'label': 'display', 'lat': 48.8738, 'lng': 2.327341}]",1611,75009,FR,Paris,Île-de-France,France,"['Printemps de l’Homme, 9e étage (2 rue du Havre)', '75009 Paris', 'France']",,5b5781704f0e58002c86a5e8,Louvre Museum
75,Eels,French Restaurant,27 rue d'Hauteville,,48.873119,2.350133,"[{'label': 'display', 'lat': 48.873119, 'lng': 2.350133}]",1600,75010,FR,Paris,Île-de-France,France,"[""27 rue d'Hauteville"", '75010 Paris', 'France']",,59822a59e96d0c565387343e,Louvre Museum
76,Place des Vosges,Plaza,Place des Vosges,,48.85562342675294,2.365531325340271,"[{'label': 'display', 'lat': 48.85562342675294, 'lng': 2.365531325340271}]",2106,75004,FR,Paris,Île-de-France,France,"['Place des Vosges', '75004 Paris', 'France']",,4b82c9adf964a520f7e430e3,Louvre Museum
77,Papacionu,Corsican Restaurant,7 rue Cadet,,48.87479244142873,2.3429168066774655,"[{'label': 'display', 'lat': 48.87479244142873, 'lng': 2.3429168066774655}]",1560,75009,FR,Paris,Île-de-France,France,"['7 rue Cadet', '75009 Paris', 'France']",,5287d6be11d2ff5189847a10,Louvre Museum
78,Hermès,Tailor Shop,17 rue de Sèvres,,48.851562496952035,2.3276853561401367,"[{'label': 'display', 'lat': 48.851562496952035, 'lng': 2.3276853561401367}]",1308,75007,FR,Paris,Île-de-France,France,"['17 rue de Sèvres', '75007 Paris', 'France']",Notre-Dame-des-Champs,4ce573dd7785a1cdf4e519b9,Louvre Museum
79,Le Barav,Wine Bar,6 rue Charles-François Dupuis,Rue de la Corderie,48.86516646209463,2.363154888153076,"[{'label': 'display', 'lat': 48.86516646209463, 'lng': 2.363154888153076}]",1893,75003,FR,Paris,Île-de-France,France,"['6 rue Charles-François Dupuis (Rue de la Corderie)', '75003 Paris', 'France']",,4b68a117f964a520c8832be3,Louvre Museum
80,0fr.,Bookstore,20 rue Dupetit-Thouars,,48.86574636171658,2.361235606513219,"[{'label': 'display', 'lat': 48.86574636171658, 'lng': 2.361235606513219}]",1774,75003,FR,Paris,Île-de-France,France,"['20 rue Dupetit-Thouars', '75003 Paris', 'France']",,4b61e549f964a520cd292ae3,Louvre Museum
81,CopperBay,Cocktail Bar,5 rue Bouchardon,,48.869828541386525,2.357344943460087,"[{'label': 'display', 'lat': 48.869828541386525, 'lng': 2.357344943460087}]",1713,75010,FR,Paris,Île-de-France,France,"['5 rue Bouchardon', '75010 Paris', 'France']",,5415ae4f498e9aee38f6a39e,Louvre Museum
82,Place des Invalides,Plaza,Place des Invalides,,48.85863052623177,2.3129439353942867,"[{'label': 'display', 'lat': 48.85863052623177, 'lng': 2.3129439353942867}]",1858,75007,FR,Paris,Île-de-France,France,"['Place des Invalides', '75007 Paris', 'France']",,50c5c94690e732743b022d32,Louvre Museum
83,Le Bristol,Hotel,112 rue du Faubourg Saint-Honoré,,48.871804266610006,2.314902422735974,"[{'label': 'display', 'lat': 48.871804266610006, 'lng': 2.314902422735974}]",2067,75008,FR,Paris,Île-de-France,France,"['112 rue du Faubourg Saint-Honoré', '75008 Paris', 'France']",,4adcda00f964a520e13021e3,Louvre Museum
84,Chez Alain Miam Miam,Sandwich Place,26 rue Charlon,,48.862369156725826,2.361949874504966,"[{'label': 'display', 'lat': 48.862369156725826, 'lng': 2.361949874504966}]",1757,75003,FR,Paris,Île-de-France,France,"['26 rue Charlon', '75003 Paris', 'France']",,5b546a4a82a750002c940e7f,Louvre Museum
85,Grand Palais,Historic Site,3 avenue du Général Eisenhower,Avenue Winston Churchill,48.86611219637595,2.3126220703125,"[{'label': 'display', 'lat': 48.86611219637595, 'lng': 2.3126220703125}]",1940,75008,FR,Paris,Île-de-France,France,"['3 avenue du Général Eisenhower (Avenue Winston Churchill)', '75008 Paris', 'France']",,4c25f508a852c9281ab1e56c,Louvre Museum
86,Miznon,Israeli Restaurant,22 rue des Écouffes,,48.857200621424404,2.3589573284780676,"[{'label': 'display', 'lat': 48.857200621424404, 'lng': 2.3589573284780676}]",1594,75004,FR,Paris,Île-de-France,France,"['22 rue des Écouffes', '75004 Paris', 'France']",,526d201d11d2d42b81af4ee6,Louvre Museum
87,Panthéon,Monument / Landmark,Place du Panthéon,,48.846229,2.346084,"[{'label': 'display', 'lat': 48.846229, 'lng': 2.346084}]",1762,75005,FR,Paris,Île-de-France,France,"['Place du Panthéon', '75005 Paris', 'France']",,4adcda09f964a520ea3321e3,Louvre Museum
88,Boulangerie Julhès,Bakery,56 rue du Faubourg Saint-Denis,,48.87241941039108,2.3541485720462534,"[{'label': 'display', 'lat': 48.87241941039108, 'lng': 2.3541485720462534}]",1722,75010,FR,Paris,Île-de-France,France,"['56 rue du Faubourg Saint-Denis', '75010 Paris', 'France']",,55ab746d498e124b1e4a89b7,Louvre Museum
89,Artazart Design Bookstore,Bookstore,83 quai de Valmy,Rue de Lancry,48.872701633153994,2.3637729768961435,"[{'label': 'display', 'lat': 48.872701633153994, 'lng': 2.3637729768961435}]",2282,75010,FR,Paris,Île-de-France,France,"['83 quai de Valmy (Rue de Lancry)', '75010 Paris', 'France']",,4c012b5f9a950f47ffa308c6,Louvre Museum
90,Musée Rodin,Art Museum,79 rue de Varenne,Boulevard des Invalides,48.85538341572399,2.3158621788024902,"[{'label': 'display', 'lat': 48.85538341572399, 'lng': 2.3158621788024902}]",1745,75007,FR,Paris,Île-de-France,France,"['79 rue de Varenne (Boulevard des Invalides)', '75007 Paris', 'France']",,4adcda10f964a520b13521e3,Louvre Museum
91,Marché des Enfants Rouges,Farmers Market,39 rue de Bretagne,,48.862805577255905,2.3619961738586426,"[{'label': 'display', 'lat': 48.862805577255905, 'lng': 2.3619961738586426}]",1764,75003,FR,Paris,Île-de-France,France,"['39 rue de Bretagne', '75003 Paris', 'France']",,4b75734cf964a5202c0d2ee3,Louvre Museum
92,Berges de Seine – Rive gauche,Pedestrian Plaza,Quais de Seine,Entre la Tour Eiffel et le Pont des Arts,48.8630533475824,2.3135475165272785,"[{'label': 'display', 'lat': 48.8630533475824, 'lng': 2.3135475165272785}]",1805,,FR,Paris,Île-de-France,France,"['Quais de Seine (Entre la Tour Eiffel et le Pont des Arts)', 'Paris', 'France']",,4cc12b69873c236abc55b723,Louvre Museum
93,Canal Saint-Martin,Canal,Quai de Valmy,Quai de Jemmapes,48.87167500046913,2.3654511998591077,,2325,75010,FR,Paris,Île-de-France,France,"['Quai de Valmy (Quai de Jemmapes)', '75010 Paris', 'France']",,4b62faecf964a520ff5b2ae3,Louvre Museum
94,Holybelly 5,Breakfast Spot,5 rue Lucien Sampaix,,48.87105,2.359804,"[{'label': 'display', 'lat': 48.87105, 'lng': 2.359804}]",1938,75010,FR,Paris,Île-de-France,France,"['5 rue Lucien Sampaix', '75010 Paris', 'France']",,5947cb5065cdf86790d0155f,Louvre Museum
95,Le Pantruche,French Restaurant,3 rue Victor Massé,,48.88056015343903,2.339729019034071,"[{'label': 'display', 'lat': 48.88056015343903, 'lng': 2.339729019034071}]",2164,75009,FR,Paris,Île-de-France,France,"['3 rue Victor Massé', '75009 Paris', 'France']",Saint-Georges,4d230a536e8c370402f210a0,Louvre Museum
96,Dreamin' Man,Coffee Shop,140 rue Amelot,,48.86528997318334,2.3664861917495728,"[{'label': 'display', 'lat': 48.86528997318334, 'lng': 2.3664861917495728}]",2134,75011,FR,Paris,Île-de-France,France,"['140 rue Amelot', '75011 Paris', 'France']",,5c5ef4381acf11002c9cb8fe,Louvre Museum
97,Renaissance Paris Republique Hotel,Hotel,40 rue René Boulanger,,48.86850141509405,2.3609098639826698,"[{'label': 'display', 'lat': 48.86850141509405, 'lng': 2.3609098639826698}]",1864,75010,FR,Paris,Île-de-France,France,"['40 rue René Boulanger', '75010 Paris', 'France']",,570366cb498ebe9c014e815e,Louvre Museum
98,Hôtel Plaza Athénée,Hotel,25 avenue Montaigne,Rue Clément Marot,48.86623539871467,2.304373677060653,"[{'label': 'display', 'lat': 48.86623539871467, 'lng': 2.304373677060653}]",2528,75008,FR,Paris,Île-de-France,France,"['25 avenue Montaigne (Rue Clément Marot)', '75008 Paris', 'France']",,4b817458f964a52024a730e3,Louvre Museum
99,Amorino,Ice Cream Shop,4 rue Vavin,,48.84472335853748,2.3321104795364187,"[{'label': 'display', 'lat': 48.84472335853748, 'lng': 2.3321104795364187}]",1878,75006,FR,Paris,Île-de-France,France,"['4 rue Vavin', '75006 Paris', 'France']",,4bcb2d36cc8cd13a6bc9becf,Louvre Museum
0,Hardware Société,Breakfast Spot,10 rue Lamarck,,48.886901473803164,2.3444633609475147,"[{'label': 'display', 'lat': 48.886901473803164, 'lng': 2.3444633609475147}]",106,75018,FR,Paris,Île-de-France,France,"['10 rue Lamarck', '75018 Paris', 'France']",,5710c77a498e3021c0641aa9,Sacré-Cœur
1,Dôme de la Basilique du Sacré-Cœur,Scenic Lookout,35 rue du Chevalier de la Barre,,48.886808713500535,2.343006134033203,"[{'label': 'display', 'lat': 48.886808713500535, 'lng': 2.343006134033203}]",0,75018,FR,Paris,Île-de-France,France,"['35 rue du Chevalier de la Barre', '75018 Paris', 'France']",,572ef46d498e6a2426bb341e,Sacré-Cœur
2,Grenouilles,Sandwich Place,55 rue du Chevalier de La Barre,,48.88708935523162,2.341800592483232,"[{'label': 'display', 'lat': 48.88708935523162, 'lng': 2.341800592483232}]",94,75018,FR,Paris,Île-de-France,France,"['55 rue du Chevalier de La Barre', '75018 Paris', 'France']",,58e37b2cc30f791616706bad,Sacré-Cœur
3,Halle Saint-Pierre,Art Museum,2 rue Ronsard,,48.884714711530115,2.3440728222094536,"[{'label': 'display', 'lat': 48.884714711530115, 'lng': 2.3440728222094536}]",245,75018,FR,Paris,Île-de-France,France,"['2 rue Ronsard', '75018 Paris', 'France']",,4adcda0ff964a5207f3521e3,Sacré-Cœur
4,La Boîte aux Lettres,Bistro,108 rue Lepic,,48.886840636111586,2.338186204433441,"[{'label': 'display', 'lat': 48.886840636111586, 'lng': 2.338186204433441}]",353,75018,FR,Paris,Île-de-France,France,"['108 rue Lepic', '75018 Paris', 'France']",,51c5f55d498e59e2ebcc7742,Sacré-Cœur
5,Boulangerie Alexine,Bakery,40 rue Lepic,,48.88614133131494,2.3344767093658447,"[{'label': 'display', 'lat': 48.88614133131494, 'lng': 2.3344767093658447}]",629,75018,FR,Paris,Île-de-France,France,"['40 rue Lepic', '75018 Paris', 'France']",,4d541304d4a6721e9b5691ac,Sacré-Cœur
6,Hôtel Particulier Montmartre,Hotel,23 avenue Junot,,48.88789684317782,2.3352523263968803,"[{'label': 'display', 'lat': 48.88789684317782, 'lng': 2.3352523263968803}]",581,75018,FR,Paris,Île-de-France,France,"['23 avenue Junot', '75018 Paris', 'France']",,4b806b0bf964a520867030e3,Sacré-Cœur
7,Le Pantruche,French Restaurant,3 rue Victor Massé,,48.88056015343903,2.339729019034071,"[{'label': 'display', 'lat': 48.88056015343903, 'lng': 2.339729019034071}]",735,75009,FR,Paris,Île-de-France,France,"['3 rue Victor Massé', '75009 Paris', 'France']",Saint-Georges,4d230a536e8c370402f210a0,Sacré-Cœur
8,Place des Abbesses,Plaza,Place des Abbesses,Rue des Abbesses,48.8844058138571,2.338537573814392,"[{'label': 'display', 'lat': 48.8844058138571, 'lng': 2.338537573814392}]",422,75018,FR,Paris,Île-de-France,France,"['Place des Abbesses (Rue des Abbesses)', '75018 Paris', 'France']",,4b115ed4f964a520157b23e3,Sacré-Cœur
9,Al Caratello,Italian Restaurant,5 rue Audran,,48.885247747757155,2.3360022863109475,"[{'label': 'display', 'lat': 48.885247747757155, 'lng': 2.3360022863109475}]",541,75018,FR,Paris,Île-de-France,France,"['5 rue Audran', '75018 Paris', 'France']",,4b980630f964a520ed2635e3,Sacré-Cœur
10,Cinéma des Cinéastes,Indie Movie Theater,7 avenue de Clichy,,48.88429274484065,2.327012258753519,"[{'label': 'display', 'lat': 48.88429274484065, 'lng': 2.327012258753519}]",1204,75017,FR,Paris,Île-de-France,France,"['7 avenue de Clichy', '75017 Paris', 'France']",,4adcda15f964a520b43721e3,Sacré-Cœur
11,Le Ruisseau,Burger Joint,65 rue du Ruisseau,,48.89438082274067,2.3405678379887065,"[{'label': 'display', 'lat': 48.89438082274067, 'lng': 2.3405678379887065}]",862,75018,FR,Paris,Île-de-France,France,"['65 rue du Ruisseau', '75018 Paris', 'France']",,52965f8d498ea4362c60a951,Sacré-Cœur
12,Max Linder Panorama,Indie Movie Theater,24 boulevard Poissonnière,,48.87138398457992,2.344808578491211,"[{'label': 'display', 'lat': 48.87138398457992, 'lng': 2.344808578491211}]",1721,75009,FR,Paris,Île-de-France,France,"['24 boulevard Poissonnière', '75009 Paris', 'France']",,4b0ec8cdf964a520fb5a23e3,Sacré-Cœur
13,Opéra Garnier,Opera House,8 rue Scribe,Rue Auber,48.872124954463864,2.331708669662475,"[{'label': 'display', 'lat': 48.872124954463864, 'lng': 2.331708669662475}]",1831,75009,FR,Paris,Île-de-France,France,"['8 rue Scribe (Rue Auber)', '75009 Paris', 'France']",,4b54148df964a520b0b127e3,Sacré-Cœur
14,Papacionu,Corsican Restaurant,7 rue Cadet,,48.87479244142873,2.3429168066774655,"[{'label': 'display', 'lat': 48.87479244142873, 'lng': 2.3429168066774655}]",1337,75009,FR,Paris,Île-de-France,France,"['7 rue Cadet', '75009 Paris', 'France']",,5287d6be11d2ff5189847a10,Sacré-Cœur
15,Place de l'Opéra,Plaza,Place de l'Opéra,,48.87086688393964,2.3321523722815702,"[{'label': 'display', 'lat': 48.87086688393964, 'lng': 2.3321523722815702}]",1944,75009,FR,Paris,Île-de-France,France,"[""Place de l'Opéra"", '75009 Paris', 'France']",,4bc30cc12a89ef3bf670f488,Sacré-Cœur
16,Eels,French Restaurant,27 rue d'Hauteville,,48.873119,2.350133,"[{'label': 'display', 'lat': 48.873119, 'lng': 2.350133}]",1610,75010,FR,Paris,Île-de-France,France,"[""27 rue d'Hauteville"", '75010 Paris', 'France']",,59822a59e96d0c565387343e,Sacré-Cœur
17,The Hoxton Paris,Hotel,30-32 Rue du Sentier,,48.8701794,2.3466316,"[{'label': 'display', 'lat': 48.8701794, 'lng': 2.3466316}]",1869,75002,FR,Paris,Île-de-France,France,"['30-32 Rue du Sentier', '75002 Paris', 'France']",,599f10d89b04730cde6d8bf4,Sacré-Cœur
18,Galeries Lafayette Gourmet,Gourmet Shop,35 boulevard Haussmann,,48.873046,2.330438,"[{'label': 'display', 'lat': 48.873046, 'lng': 2.330438}]",1787,75009,FR,Paris,Île-de-France,France,"['35 boulevard Haussmann', '75009 Paris', 'France']",,4b673be3f964a520e5422be3,Sacré-Cœur
19,Hôtel des Grands Boulevards,Hotel,17 boulevard Poissonnière,,48.870800399082455,2.3448864108663963,"[{'label': 'display', 'lat': 48.870800399082455, 'lng': 2.3448864108663963}]",1786,75002,FR,Paris,Île-de-France,France,"['17 boulevard Poissonnière', '75002 Paris', 'France']",,5a626b3d2632ec04b3b341b3,Sacré-Cœur
20,Terrasse des Galeries Lafayette,Roof Deck,40 boulevard Haussmann,Galeries Lafayette Haussmann,48.87333870999123,2.332170009613037,"[{'label': 'display', 'lat': 48.87333870999123, 'lng': 2.332170009613037}]",1696,75009,FR,Paris,Île-de-France,France,"['40 boulevard Haussmann (Galeries Lafayette Haussmann)', '75009 Paris', 'France']",,4bc9d4260687ef3b1b88dacc,Sacré-Cœur
21,Le CENTQUATRE – 104,Performing Arts Venue,104 rue d'Aubervilliers,5 rue Curial,48.89035641254699,2.370150089263916,"[{'label': 'display', 'lat': 48.89035641254699, 'lng': 2.370150089263916}]",2025,75019,FR,Paris,Île-de-France,France,"[""104 rue d'Aubervilliers (5 rue Curial)"", '75019 Paris', 'France']",,4adcda1df964a520273921e3,Sacré-Cœur
22,Artazart Design Bookstore,Bookstore,83 quai de Valmy,Rue de Lancry,48.872701633153994,2.3637729768961435,"[{'label': 'display', 'lat': 48.872701633153994, 'lng': 2.3637729768961435}]",2185,75010,FR,Paris,Île-de-France,France,"['83 quai de Valmy (Rue de Lancry)', '75010 Paris', 'France']",,4c012b5f9a950f47ffa308c6,Sacré-Cœur
23,Perruche,Lounge,"Printemps de l’Homme, 9e étage",2 rue du Havre,48.8738,2.327341,"[{'label': 'display', 'lat': 48.8738, 'lng': 2.327341}]",1847,75009,FR,Paris,Île-de-France,France,"['Printemps de l’Homme, 9e étage (2 rue du Havre)', '75009 Paris', 'France']",,5b5781704f0e58002c86a5e8,Sacré-Cœur
24,Hôtel Park Hyatt Paris-Vendôme,Hotel,5 rue de la Paix,,48.86889283393748,2.3303380608558655,"[{'label': 'display', 'lat': 48.86889283393748, 'lng': 2.3303380608558655}]",2199,75002,FR,Paris,Île-de-France,France,"['5 rue de la Paix', '75002 Paris', 'France']",,4adcda03f964a520d83121e3,Sacré-Cœur
25,Street Bangkok Local Food,Thai Restaurant,3 rue Eugene Varlin,,48.87777,2.3652043,"[{'label': 'display', 'lat': 48.87777, 'lng': 2.3652043}]",1910,75010,FR,Paris,Île-de-France,France,"['3 rue Eugene Varlin', '75010 Paris', 'France']",,55f162d1498edec075e8c3d2,Sacré-Cœur
26,Hôtel Ritz,Hotel,15 place Vendôme,,48.86810594329886,2.3288923501968384,"[{'label': 'display', 'lat': 48.86810594329886, 'lng': 2.3288923501968384}]",2324,75001,FR,Paris,Île-de-France,France,"['15 place Vendôme', '75001 Paris', 'France']",,53b65301498e8cb57224f80c,Sacré-Cœur
27,Boulangerie Julhès,Bakery,56 rue du Faubourg Saint-Denis,,48.87241941039108,2.3541485720462534,"[{'label': 'display', 'lat': 48.87241941039108, 'lng': 2.3541485720462534}]",1796,75010,FR,Paris,Île-de-France,France,"['56 rue du Faubourg Saint-Denis', '75010 Paris', 'France']",,55ab746d498e124b1e4a89b7,Sacré-Cœur
28,Hoppy Corner,Beer Bar,34 rue des Petits Carreaux,,48.86772619731469,2.3473745971313704,"[{'label': 'display', 'lat': 48.86772619731469, 'lng': 2.3473745971313704}]",2147,75002,FR,Paris,Île-de-France,France,"['34 rue des Petits Carreaux', '75002 Paris', 'France']",,57054c44498ed5a375ce4b86,Sacré-Cœur
29,CMG Sports Club One Saint-Lazare,Gym / Fitness Center,11-13 rue Boursault,,48.88317466053196,2.320217720595173,"[{'label': 'display', 'lat': 48.88317466053196, 'lng': 2.320217720595173}]",1717,75017,FR,Paris,Île-de-France,France,"['11-13 rue Boursault', '75017 Paris', 'France']",,5719271b498e465e2d6525fa,Sacré-Cœur
30,Canal Saint-Martin,Canal,Quai de Valmy,Quai de Jemmapes,48.87167500046913,2.3654511998591077,,2352,75010,FR,Paris,Île-de-France,France,"['Quai de Valmy (Quai de Jemmapes)', '75010 Paris', 'France']",,4b62faecf964a520ff5b2ae3,Sacré-Cœur
31,Jardin du Palais Royal,Garden,Palais Royal,,48.86494061245833,2.3377275466918945,"[{'label': 'display', 'lat': 48.86494061245833, 'lng': 2.3377275466918945}]",2464,75001,FR,Paris,Île-de-France,France,"['Palais Royal', '75001 Paris', 'France']",,4ba8b650f964a520f5e839e3,Sacré-Cœur
32,L'Olympia,Concert Hall,28 boulevard des Capucines,,48.870212,2.328331,"[{'label': 'display', 'lat': 48.870212, 'lng': 2.328331}]",2137,75009,FR,Paris,Île-de-France,France,"['28 boulevard des Capucines', '75009 Paris', 'France']",,4adcda15f964a520c53721e3,Sacré-Cœur
33,Place Vendôme,Plaza,Place Vendôme,,48.86779769319868,2.3297411847276526,"[{'label': 'display', 'lat': 48.86779769319868, 'lng': 2.3297411847276526}]",2328,75001,FR,Paris,Île-de-France,France,"['Place Vendôme', '75001 Paris', 'France']",,4adcda09f964a5200e3421e3,Sacré-Cœur
34,CopperBay,Cocktail Bar,5 rue Bouchardon,,48.869828541386525,2.357344943460087,"[{'label': 'display', 'lat': 48.869828541386525, 'lng': 2.357344943460087}]",2161,75010,FR,Paris,Île-de-France,France,"['5 rue Bouchardon', '75010 Paris', 'France']",,5415ae4f498e9aee38f6a39e,Sacré-Cœur
35,Hôtel de Crillon,Hotel,10 place de la Concorde,,48.867329626506944,2.321140766143799,"[{'label': 'display', 'lat': 48.867329626506944, 'lng': 2.321140766143799}]",2695,75008,FR,Paris,Île-de-France,France,"['10 place de la Concorde', '75008 Paris', 'France']",,539788f1498e4e052ed81c7b,Sacré-Cœur
36,Parc Monceau,Park,35-41 boulevard de Courcelles,Avenue Ferdousi,48.87958041734081,2.3091804903585342,"[{'label': 'display', 'lat': 48.87958041734081, 'lng': 2.3091804903585342}]",2604,75008,FR,Paris,Île-de-France,France,"['35-41 boulevard de Courcelles (Avenue Ferdousi)', '75008 Paris', 'France']",,4adcda09f964a5200d3421e3,Sacré-Cœur
37,Holybelly 5,Breakfast Spot,5 rue Lucien Sampaix,,48.87105,2.359804,"[{'label': 'display', 'lat': 48.87105, 'lng': 2.359804}]",2141,75010,FR,Paris,Île-de-France,France,"['5 rue Lucien Sampaix', '75010 Paris', 'France']",,5947cb5065cdf86790d0155f,Sacré-Cœur
38,Monoprix,Supermarket,164 rue du Temple,,48.866149910688705,2.3615482449531555,"[{'label': 'display', 'lat': 48.866149910688705, 'lng': 2.3615482449531555}]",2669,75003,FR,Paris,Île-de-France,France,"['164 rue du Temple', '75003 Paris', 'France']",,4af5aeaaf964a5203cfb21e3,Sacré-Cœur
39,Pâtisserie Boulangerie Liberté,Bakery,39 rue des Vinaigriers,Rue Lucien Sampaix,48.87307937807167,2.3615536093711853,"[{'label': 'display', 'lat': 48.87307937807167, 'lng': 2.3615536093711853}]",2043,75010,FR,Paris,Île-de-France,France,"['39 rue des Vinaigriers (Rue Lucien Sampaix)', '75010 Paris', 'France']",,529a070211d2dd104e654b40,Sacré-Cœur
40,Le Bristol,Hotel,112 rue du Faubourg Saint-Honoré,,48.871804266610006,2.314902422735974,"[{'label': 'display', 'lat': 48.871804266610006, 'lng': 2.314902422735974}]",2650,75008,FR,Paris,Île-de-France,France,"['112 rue du Faubourg Saint-Honoré', '75008 Paris', 'France']",,4adcda00f964a520e13021e3,Sacré-Cœur
41,Jardin des Tuileries,Garden,Rue de Rivoli,Quai des Tuileries,48.863641957269515,2.326483726501465,"[{'label': 'display', 'lat': 48.863641957269515, 'lng': 2.326483726501465}]",2848,75001,FR,Paris,Île-de-France,France,"['Rue de Rivoli (Quai des Tuileries)', '75001 Paris', 'France']",Tuilerie,4b30f9bbf964a5208ffd24e3,Sacré-Cœur
42,Parc des Buttes-Chaumont,Park,Rue Botzaris,Rue de Crimée,48.87987272502814,2.382016181945801,"[{'label': 'display', 'lat': 48.87987272502814, 'lng': 2.382016181945801}]",2957,75019,FR,Paris,Île-de-France,France,"['Rue Botzaris (Rue de Crimée)', '75019 Paris', 'France']","Buttes-Chaumont, Paris",4adcda09f964a520113421e3,Sacré-Cœur
43,Galerie Vivienne,Historic Site,Galerie Vivienne,,48.86673055550591,2.339799701984434,"[{'label': 'display', 'lat': 48.86673055550591, 'lng': 2.339799701984434}]",2247,75002,FR,Paris,Île-de-France,France,"['Galerie Vivienne', '75002 Paris', 'France']",Vivienne,4b095936f964a5200a1623e3,Sacré-Cœur
44,La Gaîté Lyrique,Concert Hall,3 bis rue Papin,Boulevard de Sébastopol,48.86667327655077,2.3534345626831055,"[{'label': 'display', 'lat': 48.86667327655077, 'lng': 2.3534345626831055}]",2367,75003,FR,Paris,Île-de-France,France,"['3 bis rue Papin (Boulevard de Sébastopol)', '75003 Paris', 'France']",,4bac75f4f964a5201df63ae3,Sacré-Cœur
45,Hôtel Mandarin Oriental,Hotel,251 rue Saint-Honoré,,48.86698662076993,2.327178418636322,"[{'label': 'display', 'lat': 48.86698662076993, 'lng': 2.327178418636322}]",2492,75001,FR,Paris,Île-de-France,France,"['251 rue Saint-Honoré', '75001 Paris', 'France']",,4d61286a1ee8721e010db321,Sacré-Cœur
46,Mmmozza,Sandwich Place,57 rue de Bretagne,,48.86391016055883,2.360590696334839,"[{'label': 'display', 'lat': 48.86391016055883, 'lng': 2.360590696334839}]",2855,75003,FR,Paris,Île-de-France,France,"['57 rue de Bretagne', '75003 Paris', 'France']",,4d974096a2c654814aa6d353,Sacré-Cœur
47,CHANEL,Boutique,31 rue Cambon,Rue Des Capucines,48.86818882792764,2.3266343030758208,"[{'label': 'display', 'lat': 48.86818882792764, 'lng': 2.3266343030758208}]",2394,75001,FR,Paris,Île-de-France,France,"['31 rue Cambon (Rue Des Capucines)', '75001 Paris', 'France']",,4adcda1df964a5202a3921e3,Sacré-Cœur
48,Palais Royal,Historic Site,Place du Palais Royal,,48.86323576771446,2.3371267318725586,"[{'label': 'display', 'lat': 48.86323576771446, 'lng': 2.3371267318725586}]",2658,75001,FR,Paris,Île-de-France,France,"['Place du Palais Royal', '75001 Paris', 'France']",,4adcda09f964a520ed3321e3,Sacré-Cœur
49,Siseng,Asian Restaurant,82 quai de Jemmapes,,48.872217,2.365049,"[{'label': 'display', 'lat': 48.872217, 'lng': 2.365049}]",2288,75010,FR,Paris,Île-de-France,France,"['82 quai de Jemmapes', '75010 Paris', 'France']",,548ecb1b498eecad73397311,Sacré-Cœur
50,Partisan,Coffee Shop,36 rue de Turbigo,,48.86475435958546,2.3530692174680863,"[{'label': 'display', 'lat': 48.86475435958546, 'lng': 2.3530692174680863}]",2562,75003,FR,Paris,Île-de-France,France,"['36 rue de Turbigo', '75003 Paris', 'France']",,5ae44cf7dd8442002cc065ca,Sacré-Cœur
51,Cour Carrée du Louvre,Pedestrian Plaza,Rue de Rivoli,Place du Louvre,48.8603598795578,2.3385429382324214,"[{'label': 'display', 'lat': 48.8603598795578, 'lng': 2.3385429382324214}]",2962,75001,FR,Paris,Île-de-France,France,"['Rue de Rivoli (Place du Louvre)', '75001 Paris', 'France']",,4c079d740ed3c928b6be797d,Sacré-Cœur
52,Musée du Louvre,Art Museum,Rue de Rivoli,Place du Carrousel,48.86084691113991,2.336440086364746,"[{'label': 'display', 'lat': 48.86084691113991, 'lng': 2.336440086364746}]",2929,75001,FR,Paris,Île-de-France,France,"['Rue de Rivoli (Place du Carrousel)', '75001 Paris', 'France']",Le Louvre,4adcda10f964a520af3521e3,Sacré-Cœur
53,Le Barav,Wine Bar,6 rue Charles-François Dupuis,Rue de la Corderie,48.86516646209463,2.363154888153076,"[{'label': 'display', 'lat': 48.86516646209463, 'lng': 2.363154888153076}]",2824,75003,FR,Paris,Île-de-France,France,"['6 rue Charles-François Dupuis (Rue de la Corderie)', '75003 Paris', 'France']",,4b68a117f964a520c8832be3,Sacré-Cœur
54,Renaissance Paris Republique Hotel,Hotel,40 rue René Boulanger,,48.86850141509405,2.3609098639826698,"[{'label': 'display', 'lat': 48.86850141509405, 'lng': 2.3609098639826698}]",2422,75010,FR,Paris,Île-de-France,France,"['40 rue René Boulanger', '75010 Paris', 'France']",,570366cb498ebe9c014e815e,Sacré-Cœur
55,0fr.,Bookstore,20 rue Dupetit-Thouars,,48.86574636171658,2.361235606513219,"[{'label': 'display', 'lat': 48.86574636171658, 'lng': 2.361235606513219}]",2697,75003,FR,Paris,Île-de-France,France,"['20 rue Dupetit-Thouars', '75003 Paris', 'France']",,4b61e549f964a520cd292ae3,Sacré-Cœur
56,Laïzé 來座 (Laïzé),Bubble Tea Shop,19 rue de Montmorency,,48.86307722773456,2.355072994853153,"[{'label': 'display', 'lat': 48.86307722773456, 'lng': 2.355072994853153}]",2785,75003,FR,Paris,Île-de-France,France,"['19 rue de Montmorency', '75003 Paris', 'France']",Rambuteau,5a8c1166e1f22874f4fc9714,Sacré-Cœur
57,Place des Victoires,Plaza,Place des Victoires,,48.865759373109775,2.341219220887502,"[{'label': 'display', 'lat': 48.865759373109775, 'lng': 2.341219220887502}]",2346,75002,FR,Paris,Île-de-France,France,"['Place des Victoires', '75002 Paris', 'France']",,4b408661f964a520bbb825e3,Sacré-Cœur
58,Place de la Concorde,Plaza,Place de la Concorde,,48.8655899274154,2.321215867996216,"[{'label': 'display', 'lat': 48.8655899274154, 'lng': 2.321215867996216}]",2850,75008,FR,Paris,Île-de-France,France,"['Place de la Concorde', '75008 Paris', 'France']",,4adcda09f964a520f73321e3,Sacré-Cœur
59,La Vénus de Milo (Vénus de Milo),Exhibit,Musée du Louvre,"Aile Sully, rdc, salle 346",48.859943428504316,2.3372340202331543,"[{'label': 'display', 'lat': 48.859943428504316, 'lng': 2.3372340202331543}]",3020,75001,FR,Paris,Île-de-France,France,"['Musée du Louvre (Aile Sully, rdc, salle 346)', '75001 Paris', 'France']","Louvre, Paris",5864efb745c3ed1e7d88e96d,Sacré-Cœur
60,Librairie Galignani,Bookstore,224 rue de Rivoli,,48.864989,2.32857,"[{'label': 'display', 'lat': 48.864989, 'lng': 2.32857}]",2648,75001,FR,Paris,Île-de-France,France,"['224 rue de Rivoli', '75001 Paris', 'France']",,4b487de3f964a5202d4e26e3,Sacré-Cœur
61,Balagan,Israeli Restaurant,9 rue d'Alger,,48.865432333548,2.3296802389659015,"[{'label': 'display', 'lat': 48.865432333548, 'lng': 2.3296802389659015}]",2571,75001,FR,Paris,Île-de-France,France,"[""9 rue d'Alger"", '75001 Paris', 'France']",,59288f080d173f5887669625,Sacré-Cœur
62,Vestige de la Forteresse du Louvre,Historic Site,Palais du Louvre,,48.86157701632968,2.3335077597365377,"[{'label': 'display', 'lat': 48.86157701632968, 'lng': 2.3335077597365377}]",2893,75001,FR,Paris,Île-de-France,France,"['Palais du Louvre', '75001 Paris', 'France']",,4f6dabf5003944083fe0002e,Sacré-Cœur
63,Musée d'Orsay,Art Museum,1 rue de la Légion d'Honneur,Quai Anatole France,48.85999283813253,2.3263871669769287,"[{'label': 'display', 'lat': 48.85999283813253, 'lng': 2.3263871669769287}]",3223,75007,FR,Paris,Île-de-France,France,"[""1 rue de la Légion d'Honneur (Quai Anatole France)"", '75007 Paris', 'France']",,4adcda10f964a5208b3521e3,Sacré-Cœur
64,Ladurée,Dessert Shop,14 rue Castiglione,,48.86612102985312,2.3284493959564543,"[{'label': 'display', 'lat': 48.86612102985312, 'lng': 2.3284493959564543}]",2537,75001,FR,Paris,Île-de-France,France,"['14 rue Castiglione', '75001 Paris', 'France']",Place Vendôme,50e16cdfe4b0439f0718ba5a,Sacré-Cœur
65,Bar 8,Hotel Bar,251 rue Saint-Honoré,Hôtel Mandarin Oriental,48.8669653,2.3271337,"[{'label': 'display', 'lat': 48.8669653, 'lng': 2.3271337}]",2495,75001,FR,Paris,Île-de-France,France,"['251 rue Saint-Honoré (Hôtel Mandarin Oriental)', '75001 Paris', 'France']",Place Vendôme,4f593369e4b07f0bf5903183,Sacré-Cœur
66,Sanukiya,Udon Restaurant,9 rue d'Argenteuil,,48.86471330060748,2.333805151283741,"[{'label': 'display', 'lat': 48.86471330060748, 'lng': 2.333805151283741}]",2550,75001,FR,Paris,Île-de-France,France,"[""9 rue d'Argenteuil"", '75001 Paris', 'France']",,4f0b706de5e8207020057ed7,Sacré-Cœur
67,Dreamin' Man,Coffee Shop,140 rue Amelot,,48.86528997318334,2.3664861917495728,"[{'label': 'display', 'lat': 48.86528997318334, 'lng': 2.3664861917495728}]",2947,75011,FR,Paris,Île-de-France,France,"['140 rue Amelot', '75011 Paris', 'France']",,5c5ef4381acf11002c9cb8fe,Sacré-Cœur
68,La Trottinette,Italian Restaurant,23 rue de la Fontaine au Roi,,48.86839293676082,2.370568788587122,"[{'label': 'display', 'lat': 48.86839293676082, 'lng': 2.370568788587122}]",2875,75011,FR,Paris,Île-de-France,France,"['23 rue de la Fontaine au Roi', '75011 Paris', 'France']",,4e9dbe058b81791d97d57f9e,Sacré-Cœur
69,Passage du Grand Cerf,Pedestrian Plaza,Passage du Grand Cerf,,48.86476,2.349486,"[{'label': 'display', 'lat': 48.86476, 'lng': 2.349486}]",2499,75002,FR,Paris,Île-de-France,France,"['Passage du Grand Cerf', '75002 Paris', 'France']",,4c457e8d8c1f20a195ce3d99,Sacré-Cœur
70,Musée de l'Orangerie,Art Museum,Jardin des Tuileries,Place de la Concorde,48.86379017505446,2.322664260864258,"[{'label': 'display', 'lat': 48.86379017505446, 'lng': 2.322664260864258}]",2963,75001,FR,Paris,Île-de-France,France,"['Jardin des Tuileries (Place de la Concorde)', '75001 Paris', 'France']",Tuileries,4adcda10f964a520983521e3,Sacré-Cœur
71,Musée Jacquemart-André,Art Museum,158 boulevard Haussmann,,48.87543448596967,2.3105406761169434,"[{'label': 'display', 'lat': 48.87543448596967, 'lng': 2.3105406761169434}]",2693,75008,FR,Paris,Île-de-France,France,"['158 boulevard Haussmann', '75008 Paris', 'France']",,4bbddcf1593fef3b31ea0356,Sacré-Cœur
72,Vantre,Restaurant,"19, rue de la Fontaine au Roi",,48.868455281925904,2.370214462280273,"[{'label': 'display', 'lat': 48.868455281925904, 'lng': 2.370214462280273}]",2852,75011,FR,Paris,Île-de-France,France,"['19, rue de la Fontaine au Roi', '75011 Paris', 'France']",,582d8fbd761b1a6099db6ca5,Sacré-Cœur
73,Glace Bachir,Ice Cream Shop,Rue Rambuteau 58,,48.86172091008543,2.3514014997634534,"[{'label': 'display', 'lat': 48.86172091008543, 'lng': 2.3514014997634534}]",2859,75004,FR,Paris,Île-de-France,France,"['Rue Rambuteau 58', '75004 Paris', 'France']",,58728968d4ab735c99ae0c5e,Sacré-Cœur
74,Grand Palais,Historic Site,3 avenue du Général Eisenhower,Avenue Winston Churchill,48.86611219637595,2.3126220703125,"[{'label': 'display', 'lat': 48.86611219637595, 'lng': 2.3126220703125}]",3202,75008,FR,Paris,Île-de-France,France,"['3 avenue du Général Eisenhower (Avenue Winston Churchill)', '75008 Paris', 'France']",,4c25f508a852c9281ab1e56c,Sacré-Cœur
75,Place du Louvre,Plaza,Place du Louvre,,48.859841,2.340822,"[{'label': 'display', 'lat': 48.859841, 'lng': 2.340822}]",3005,75001,FR,Paris,Île-de-France,France,"['Place du Louvre', '75001 Paris', 'France']",,4f979c8ae4b05465dae0714f,Sacré-Cœur
76,Le Pavillon des Canaux,Café,39 quai de Loire,,48.88749334222099,2.3786682881172654,"[{'label': 'display', 'lat': 48.88749334222099, 'lng': 2.3786682881172654}]",2610,75019,FR,Paris,Île-de-France,France,"['39 quai de Loire', '75019 Paris', 'France']",,5318cff6498e7b5d95c75fbe,Sacré-Cœur
77,Paname Brewing Company,Brewery,41 bis quai de Loire,Bassin de la Villette,48.887795,2.378824,"[{'label': 'display', 'lat': 48.887795, 'lng': 2.378824}]",2623,75019,FR,Paris,Île-de-France,France,"['41 bis quai de Loire (Bassin de la Villette)', '75019 Paris', 'France']",,5571d51f498e9ea789f8342d,Sacré-Cœur
78,Chez Alain Miam Miam,Sandwich Place,26 rue Charlon,,48.862369156725826,2.361949874504966,"[{'label': 'display', 'lat': 48.862369156725826, 'lng': 2.361949874504966}]",3053,75003,FR,Paris,Île-de-France,France,"['26 rue Charlon', '75003 Paris', 'France']",,5b546a4a82a750002c940e7f,Sacré-Cœur
79,Ober Mamma,Trattoria/Osteria,107 boulevard Richard Lenoir,,48.864492,2.370208,"[{'label': 'display', 'lat': 48.864492, 'lng': 2.370208}]",3183,75011,FR,Paris,Île-de-France,France,"['107 boulevard Richard Lenoir', '75011 Paris', 'France']",,5581ba79498e2d654886dbad,Sacré-Cœur
80,Centre Pompidou – Musée National d'Art Moderne,Art Museum,Place Georges Pompidou,Rue Beaubourg,48.860729707273954,2.351660414040774,"[{'label': 'display', 'lat': 48.860729707273954, 'lng': 2.351660414040774}]",2970,75004,FR,Paris,Île-de-France,France,"['Place Georges Pompidou (Rue Beaubourg)', '75004 Paris', 'France']",,4adcda0af964a520623421e3,Sacré-Cœur
81,LEGO® Store,Toy / Game Store,Passage de la Canopée,Forum des Halles,48.86181771883298,2.3471906738969803,"[{'label': 'display', 'lat': 48.86181771883298, 'lng': 2.3471906738969803}]",2798,75001,FR,Paris,Île-de-France,France,"['Passage de la Canopée (Forum des Halles)', '75001 Paris', 'France']",,57035c8b498ebcbc85d70c40,Sacré-Cœur
82,Utopie,Bakery,20 rue Jean-Pierre Timbaud,,48.865335,2.368733,"[{'label': 'display', 'lat': 48.865335, 'lng': 2.368733}]",3042,75011,FR,Paris,Île-de-France,France,"['20 rue Jean-Pierre Timbaud', '75011 Paris', 'France']",,54fc65f3498e7f86ee38def9,Sacré-Cœur
83,Marché des Enfants Rouges,Farmers Market,39 rue de Bretagne,,48.862805577255905,2.3619961738586426,"[{'label': 'display', 'lat': 48.862805577255905, 'lng': 2.3619961738586426}]",3011,75003,FR,Paris,Île-de-France,France,"['39 rue de Bretagne', '75003 Paris', 'France']",,4b75734cf964a5202c0d2ee3,Sacré-Cœur
84,Parc de la Villette,Park,211 avenue Jean Jaurès,,48.89231745056304,2.390577793121338,"[{'label': 'display', 'lat': 48.89231745056304, 'lng': 2.390577793121338}]",3534,75019,FR,Paris,Île-de-France,France,"['211 avenue Jean Jaurès', '75019 Paris', 'France']",,4adcda0af964a520203421e3,Sacré-Cœur
85,Grand Bassin Rond,Fountain,Jardin des Tuileries,,48.862879687441755,2.3292946815490723,"[{'label': 'display', 'lat': 48.862879687441755, 'lng': 2.3292946815490723}]",2846,75001,FR,Paris,Île-de-France,France,"['Jardin des Tuileries', '75001 Paris', 'France']",,51584deee4b0bca3145abc8a,Sacré-Cœur
86,Hôtel Le Royal Monceau Raffles,Hotel,37 Avenue Hoche,,48.87574467646414,2.300355060747923,"[{'label': 'display', 'lat': 48.87574467646414, 'lng': 2.300355060747923}]",3356,75008,FR,Paris,Île-de-France,France,"['37 Avenue Hoche', '75008 Paris', 'France']",,4ca46f77b0ff8cfa746fbf5e,Sacré-Cœur
87,La Marée,Seafood Restaurant,1 rue Daru,avenue des Ternes,48.87733613263744,2.300487756729126,"[{'label': 'display', 'lat': 48.87733613263744, 'lng': 2.300487756729126}]",3286,75008,FR,Paris,Île-de-France,France,"['1 rue Daru (avenue des Ternes)', '75008 Paris', 'France']",,4bc83e6b92b376b02707513a,Sacré-Cœur
88,Hôtel Four Seasons George V,Hotel,31 avenue George V,,48.868849,2.300683,"[{'label': 'display', 'lat': 48.868849, 'lng': 2.300683}]",3687,75008,FR,Paris,Île-de-France,France,"['31 avenue George V', '75008 Paris', 'France']",,4adcda00f964a520ba3021e3,Sacré-Cœur
89,Fleux',Furniture / Home Store,39 et 52 rue Sainte-Croix de la Bretonnerie,,48.85876287681194,2.3541614413261414,"[{'label': 'display', 'lat': 48.85876287681194, 'lng': 2.3541614413261414}]",3226,75004,FR,Paris,Île-de-France,France,"['39 et 52 rue Sainte-Croix de la Bretonnerie', '75004 Paris', 'France']",,4b533b45f964a520509327e3,Sacré-Cœur
90,Hôtel Plaza Athénée,Hotel,25 avenue Montaigne,Rue Clément Marot,48.86623539871467,2.304373677060653,"[{'label': 'display', 'lat': 48.86623539871467, 'lng': 2.304373677060653}]",3639,75008,FR,Paris,Île-de-France,France,"['25 avenue Montaigne (Rue Clément Marot)', '75008 Paris', 'France']",,4b817458f964a52024a730e3,Sacré-Cœur
91,Jardins des Champs-Élysées,Garden,Avenue des Champs-Élysées,,48.86785025032083,2.314540838373373,"[{'label': 'display', 'lat': 48.86785025032083, 'lng': 2.314540838373373}]",2966,75008,FR,Paris,Île-de-France,France,"['Avenue des Champs-Élysées', '75008 Paris', 'France']",,4adcda09f964a520fe3321e3,Sacré-Cœur
92,59 Rivoli,Art Gallery,28 Rue de Rivoli,Rue des Déchargeurs,48.859172279057745,2.3456481099128723,"[{'label': 'display', 'lat': 48.859172279057745, 'lng': 2.3456481099128723}]",3082,75004,FR,Paris,Île-de-France,France,"['28 Rue de Rivoli (Rue des Déchargeurs)', '75004 Paris', 'France']",,4e0766702271dfa46baee474,Sacré-Cœur
93,Amorino,Ice Cream Shop,Jardin des Tuileries,Place de la Concorde,48.86421536708272,2.324462294850483,"[{'label': 'display', 'lat': 48.86421536708272, 'lng': 2.324462294850483}]",2858,75001,FR,Paris,Île-de-France,France,"['Jardin des Tuileries (Place de la Concorde)', '75001 Paris', 'France']",,4e0dee1b62843e04afa5f37f,Sacré-Cœur
94,Candelaria,Cocktail Bar,56 rue de Saintonge,,48.86303212989039,2.3640589318953125,"[{'label': 'display', 'lat': 48.86303212989039, 'lng': 2.3640589318953125}]",3062,75003,FR,Paris,Île-de-France,France,"['56 rue de Saintonge', '75003 Paris', 'France']",,4d77b39caf63cbff3997be0f,Sacré-Cœur
95,Canal de l'Ourcq,Canal,Quai de l'Oise,,48.89031408713754,2.383368015289306,"[{'label': 'display', 'lat': 48.89031408713754, 'lng': 2.383368015289306}]",2979,75019,FR,Paris,Île-de-France,France,"[""Quai de l'Oise"", '75019 Paris', 'France']",,4c8fb2cdb3bcb60c97f26327,Sacré-Cœur
96,Cour Napoléon,Plaza,Place du Carrousel,,48.86117159622847,2.3350882530212402,"[{'label': 'display', 'lat': 48.86117159622847, 'lng': 2.3350882530212402}]",2911,75001,FR,Paris,Île-de-France,France,"['Place du Carrousel', '75001 Paris', 'France']",,5072efe7e4b0c34b5146e7fd,Sacré-Cœur
97,Guerlain,Cosmetics Shop,68 avenue des Champs-Élysées,,48.87097594,2.30514516,"[{'label': 'display', 'lat': 48.87097594, 'lng': 2.30514516}]",3285,75008,FR,Paris,Île-de-France,France,"['68 avenue des Champs-Élysées', '75008 Paris', 'France']",,4adcda1ef964a520423921e3,Sacré-Cœur
98,Soya Cantine Bio,Vegetarian / Vegan Restaurant,20 rue de la Pierre Levée,,48.8680359121096,2.3700910048843276,"[{'label': 'display', 'lat': 48.8680359121096, 'lng': 2.3700910048843276}]",2880,75011,FR,Paris,Île-de-France,France,"['20 rue de la Pierre Levée', '75011 Paris', 'France']",,4be9ca2fa9900f4770c01540,Sacré-Cœur
99,La Cantina Chic,Italian Restaurant,14 rue de l'Étoile,,48.877338784282294,2.2954969783446963,"[{'label': 'display', 'lat': 48.877338784282294, 'lng': 2.2954969783446963}]",3634,75017,FR,Paris,Île-de-France,France,"[""14 rue de l'Étoile"", '75017 Paris', 'France']",,5127d6aee4b0e1bb8f8a9f42,Sacré-Cœur
